{
"type": "FeatureCollection",
"name": "parc_tr",
"crs": { "type": "name", "properties": { "name": "urn:ogc:def:crs:EPSG::3857" } },
"xy_coordinate_resolution": 1e-15,
"features": [
{ "type": "Feature", "properties": { "Sl_no": 1, "Project_partner": "Policy Advocacy and Reasearch Centre (PARC)", "State": "Tripura", "Location": "Rowa", "CT_no": "P5", "Latitude": 24.292133, "Longitude": 92.167567, "Altitude": "60", "Grid_no": 1, "CT_loc_ID": "ROWA CT1", "PA_name": "Rowa", "Range": "Panisagar", "Beat": "Rowa", "Nearest_village": "Panisagar", "Date_of_Deployment": "31-01-2024", "Habitat_type": "-" }, "geometry": { "type": "Point", "coordinates": [ 10260046.626094924286008, 2789046.407819963991642 ] } },
{ "type": "Feature", "properties": { "Sl_no": 2, "Project_partner": "Policy Advocacy and Reasearch Centre (PARC)", "State": "Tripura", "Location": "Rowa", "CT_no": "P3", "Latitude": 24.292133, "Longitude": 92.167567, "Altitude": "60", "Grid_no": 2, "CT_loc_ID": "ROWA CT1", "PA_name": "Rowa", "Range": "Panisagar", "Beat": "Rowa", "Nearest_village": "Panisagar", "Date_of_Deployment": "31-01-2024", "Habitat_type": "-" }, "geometry": { "type": "Point", "coordinates": [ 10260046.626094924286008, 2789046.407819963991642 ] } },
{ "type": "Feature", "properties": { "Sl_no": 3, "Project_partner": "Policy Advocacy and Reasearch Centre (PARC)", "State": "Tripura", "Location": "Rowa", "CT_no": "P13", "Latitude": 24.292883, "Longitude": 92.163617, "Altitude": "49", "Grid_no": 3, "CT_loc_ID": "ROWA CT2", "PA_name": "Rowa", "Range": "Panisagar", "Beat": "Rowa", "Nearest_village": "Panisagar", "Date_of_Deployment": "31-01-2024", "Habitat_type": "-" }, "geometry": { "type": "Point", "coordinates": [ 10259606.914106292650104, 2789138.007984213065356 ] } },
{ "type": "Feature", "properties": { "Sl_no": 4, "Project_partner": "Policy Advocacy and Reasearch Centre (PARC)", "State": "Tripura", "Location": "Rowa", "CT_no": "P16", "Latitude": 24.292883, "Longitude": 92.163617, "Altitude": "49", "Grid_no": 4, "CT_loc_ID": "ROWA CT2", "PA_name": "Rowa", "Range": "Panisagar", "Beat": "Rowa", "Nearest_village": "Panisagar", "Date_of_Deployment": "31-01-2024", "Habitat_type": "-" }, "geometry": { "type": "Point", "coordinates": [ 10259606.914106292650104, 2789138.007984213065356 ] } },
{ "type": "Feature", "properties": { "Sl_no": 5, "Project_partner": "Policy Advocacy and Reasearch Centre (PARC)", "State": "Tripura", "Location": "Rowa", "CT_no": "P21", "Latitude": 24.294433, "Longitude": 92.163483, "Altitude": "60", "Grid_no": 5, "CT_loc_ID": "ROWA CT3", "PA_name": "Rowa", "Range": "Panisagar", "Beat": "Rowa", "Nearest_village": "Panisagar", "Date_of_Deployment": "31-01-2024", "Habitat_type": "-" }, "geometry": { "type": "Point", "coordinates": [ 10259591.997294524684548, 2789327.316705391742289 ] } },
{ "type": "Feature", "properties": { "Sl_no": 6, "Project_partner": "Policy Advocacy and Reasearch Centre (PARC)", "State": "Tripura", "Location": "Rowa", "CT_no": "P2", "Latitude": 24.294433, "Longitude": 92.163483, "Altitude": "60", "Grid_no": 6, "CT_loc_ID": "ROWA CT3", "PA_name": "Rowa", "Range": "Panisagar", "Beat": "Rowa", "Nearest_village": "Panisagar", "Date_of_Deployment": "31-01-2024", "Habitat_type": "-" }, "geometry": { "type": "Point", "coordinates": [ 10259591.997294524684548, 2789327.316705391742289 ] } },
{ "type": "Feature", "properties": { "Sl_no": 7, "Project_partner": "Policy Advocacy and Reasearch Centre (PARC)", "State": "Tripura", "Location": "Rowa", "CT_no": "P19", "Latitude": 24.291667, "Longitude": 92.171233, "Altitude": "63", "Grid_no": 7, "CT_loc_ID": "ROWA CT4", "PA_name": "Rowa", "Range": "Panisagar", "Beat": "Rowa", "Nearest_village": "Panisagar", "Date_of_Deployment": "31-01-2024", "Habitat_type": "-" }, "geometry": { "type": "Point", "coordinates": [ 10260454.723348174244165, 2788989.493857172317803 ] } },
{ "type": "Feature", "properties": { "Sl_no": 8, "Project_partner": "Policy Advocacy and Reasearch Centre (PARC)", "State": "Tripura", "Location": "Rowa", "CT_no": "P12", "Latitude": 24.291667, "Longitude": 92.171233, "Altitude": "63", "Grid_no": 8, "CT_loc_ID": "ROWA CT4", "PA_name": "Rowa", "Range": "Panisagar", "Beat": "Rowa", "Nearest_village": "Panisagar", "Date_of_Deployment": "31-01-2024", "Habitat_type": "-" }, "geometry": { "type": "Point", "coordinates": [ 10260454.723348174244165, 2788989.493857172317803 ] } },
{ "type": "Feature", "properties": { "Sl_no": 9, "Project_partner": "Policy Advocacy and Reasearch Centre (PARC)", "State": "Tripura", "Location": "Sepahijala", "CT_no": "P3", "Latitude": 23.660975, "Longitude": 91.295192, "Altitude": "6m", "Grid_no": 9, "CT_loc_ID": "SEPCT1", "PA_name": "Sepahijala", "Range": "Sepahijala", "Beat": "Sepahijala", "Nearest_village": "Sepahijala", "Date_of_Deployment": "12-02-2024", "Habitat_type": "-" }, "geometry": { "type": "Point", "coordinates": [ 10162934.28531414270401, 2712150.518684244714677 ] } },
{ "type": "Feature", "properties": { "Sl_no": 10, "Project_partner": "Policy Advocacy and Reasearch Centre (PARC)", "State": "Tripura", "Location": "Sepahijala", "CT_no": "P21", "Latitude": 23.660975, "Longitude": 91.295192, "Altitude": "6m", "Grid_no": 10, "CT_loc_ID": "SEPCT1", "PA_name": "Sepahijala", "Range": "Sepahijala", "Beat": "Sepahijala", "Nearest_village": "Sepahijala", "Date_of_Deployment": "12-02-2024", "Habitat_type": "-" }, "geometry": { "type": "Point", "coordinates": [ 10162934.28531414270401, 2712150.518684244714677 ] } },
{ "type": "Feature", "properties": { "Sl_no": 11, "Project_partner": "Policy Advocacy and Reasearch Centre (PARC)", "State": "Tripura", "Location": "Sepahijala", "CT_no": "THT37", "Latitude": 23.660836, "Longitude": 91.295494, "Altitude": "17", "Grid_no": 11, "CT_loc_ID": "SEPCT2", "PA_name": "Sepahijala", "Range": "Sepahijala", "Beat": "Sepahijala", "Nearest_village": "Sepahijala", "Date_of_Deployment": "12-02-2024", "Habitat_type": "-" }, "geometry": { "type": "Point", "coordinates": [ 10162967.903800362721086, 2712133.625147575046867 ] } },
{ "type": "Feature", "properties": { "Sl_no": 12, "Project_partner": "Policy Advocacy and Reasearch Centre (PARC)", "State": "Tripura", "Location": "Sepahijala", "CT_no": "THT39", "Latitude": 23.660836, "Longitude": 91.295494, "Altitude": "17", "Grid_no": 12, "CT_loc_ID": "SEPCT2", "PA_name": "Sepahijala", "Range": "Sepahijala", "Beat": "Sepahijala", "Nearest_village": "Sepahijala", "Date_of_Deployment": "12-02-2024", "Habitat_type": "-" }, "geometry": { "type": "Point", "coordinates": [ 10162967.903800362721086, 2712133.625147575046867 ] } },
{ "type": "Feature", "properties": { "Sl_no": 13, "Project_partner": "Policy Advocacy and Reasearch Centre (PARC)", "State": "Tripura", "Location": "Sepahijala", "CT_no": "P16", "Latitude": 23.664703, "Longitude": 91.308469, "Altitude": "36", "Grid_no": 13, "CT_loc_ID": "SEPCT3", "PA_name": "Sepahijala", "Range": "Sepahijala", "Beat": "Sepahijala", "Nearest_village": "Sepahijala", "Date_of_Deployment": "12-02-2024", "Habitat_type": "-" }, "geometry": { "type": "Point", "coordinates": [ 10164412.274193406105042, 2712603.612468268722296 ] } },
{ "type": "Feature", "properties": { "Sl_no": 14, "Project_partner": "Policy Advocacy and Reasearch Centre (PARC)", "State": "Tripura", "Location": "Sepahijala", "CT_no": "P13", "Latitude": 23.664703, "Longitude": 91.308469, "Altitude": "36", "Grid_no": 14, "CT_loc_ID": "SEPCT3", "PA_name": "Sepahijala", "Range": "Sepahijala", "Beat": "Sepahijala", "Nearest_village": "Sepahijala", "Date_of_Deployment": "12-02-2024", "Habitat_type": "-" }, "geometry": { "type": "Point", "coordinates": [ 10164412.274193406105042, 2712603.612468268722296 ] } },
{ "type": "Feature", "properties": { "Sl_no": 15, "Project_partner": "Policy Advocacy and Reasearch Centre (PARC)", "State": "Tripura", "Location": "Sepahijala", "CT_no": "P19", "Latitude": 23.678172, "Longitude": 91.323581, "Altitude": "41", "Grid_no": 15, "CT_loc_ID": "SEPCT4", "PA_name": "Sepahijala", "Range": "Sepahijala", "Beat": "Sepahijala", "Nearest_village": "Sepahijala", "Date_of_Deployment": "12-02-2024", "Habitat_type": "-" }, "geometry": { "type": "Point", "coordinates": [ 10166094.534338273108006, 2714240.715904726646841 ] } },
{ "type": "Feature", "properties": { "Sl_no": 16, "Project_partner": "Policy Advocacy and Reasearch Centre (PARC)", "State": "Tripura", "Location": "Sepahijala", "CT_no": "P12", "Latitude": 23.678172, "Longitude": 91.323581, "Altitude": "41", "Grid_no": 16, "CT_loc_ID": "SEPCT4", "PA_name": "Sepahijala", "Range": "Sepahijala", "Beat": "Sepahijala", "Nearest_village": "Sepahijala", "Date_of_Deployment": "12-02-2024", "Habitat_type": "-" }, "geometry": { "type": "Point", "coordinates": [ 10166094.534338273108006, 2714240.715904726646841 ] } },
{ "type": "Feature", "properties": { "Sl_no": 17, "Project_partner": "Policy Advocacy and Reasearch Centre (PARC)", "State": "Tripura", "Location": "Sepahijala", "CT_no": "THT33", "Latitude": 23.663956, "Longitude": 91.304533, "Altitude": "26", "Grid_no": 17, "CT_loc_ID": "SEPCT5", "PA_name": "Sepahijala", "Range": "Sepahijala", "Beat": "Sepahijala", "Nearest_village": "Sepahijala", "Date_of_Deployment": "12-02-2024", "Habitat_type": "-" }, "geometry": { "type": "Point", "coordinates": [ 10163974.120677642524242, 2712512.822523267939687 ] } },
{ "type": "Feature", "properties": { "Sl_no": 18, "Project_partner": "Policy Advocacy and Reasearch Centre (PARC)", "State": "Tripura", "Location": "Sepahijala", "CT_no": "THT31", "Latitude": 23.662808, "Longitude": 91.309311, "Altitude": "22", "Grid_no": 18, "CT_loc_ID": "SEPCT6", "PA_name": "Sepahijala", "Range": "Sepahijala", "Beat": "Sepahijala", "Nearest_village": "Sepahijala", "Date_of_Deployment": "13-02-2024", "Habitat_type": "-" }, "geometry": { "type": "Point", "coordinates": [ 10164506.005204651504755, 2712373.296282902359962 ] } },
{ "type": "Feature", "properties": { "Sl_no": 19, "Project_partner": "Policy Advocacy and Reasearch Centre (PARC)", "State": "Tripura", "Location": "Sepahijala", "CT_no": "P2", "Latitude": 23.662808, "Longitude": 91.309311, "Altitude": "22", "Grid_no": 19, "CT_loc_ID": "SEPCT6", "PA_name": "Sepahijala", "Range": "Sepahijala", "Beat": "Sepahijala", "Nearest_village": "Sepahijala", "Date_of_Deployment": "13-02-2024", "Habitat_type": "-" }, "geometry": { "type": "Point", "coordinates": [ 10164506.005204651504755, 2712373.296282902359962 ] } },
{ "type": "Feature", "properties": { "Sl_no": 20, "Project_partner": "Policy Advocacy and Reasearch Centre (PARC)", "State": "Tripura", "Location": "Sepahijala", "CT_no": "P22", "Latitude": 23.660058, "Longitude": 91.328478, "Altitude": "37", "Grid_no": 20, "CT_loc_ID": "SEPCT7", "PA_name": "Sepahijala", "Range": "Sepahijala", "Beat": "Sepahijala", "Nearest_village": "Betkuchi", "Date_of_Deployment": "13-02-2024", "Habitat_type": "-" }, "geometry": { "type": "Point", "coordinates": [ 10166639.66588468849659, 2712039.070288246963173 ] } },
{ "type": "Feature", "properties": { "Sl_no": 21, "Project_partner": "Policy Advocacy and Reasearch Centre (PARC)", "State": "Tripura", "Location": "Sepahijala", "CT_no": "P7", "Latitude": 23.660058, "Longitude": 91.328478, "Altitude": "37", "Grid_no": 21, "CT_loc_ID": "SEPCT7", "PA_name": "Sepahijala", "Range": "Sepahijala", "Beat": "Sepahijala", "Nearest_village": "Betkuchi", "Date_of_Deployment": "13-02-2024", "Habitat_type": "-" }, "geometry": { "type": "Point", "coordinates": [ 10166639.66588468849659, 2712039.070288246963173 ] } },
{ "type": "Feature", "properties": { "Sl_no": 22, "Project_partner": "Policy Advocacy and Reasearch Centre (PARC)", "State": "Tripura", "Location": "Sepahijala", "CT_no": "P6", "Latitude": 23.661433, "Longitude": 91.305522, "Altitude": "23", "Grid_no": 22, "CT_loc_ID": "SEPCT8", "PA_name": "Sepahijala", "Range": "Sepahijala", "Beat": "Sepahijala", "Nearest_village": "Sepahijala", "Date_of_Deployment": "13-02-2024", "Habitat_type": "-" }, "geometry": { "type": "Point", "coordinates": [ 10164084.215654037892818, 2712206.182406957261264 ] } },
{ "type": "Feature", "properties": { "Sl_no": 23, "Project_partner": "Policy Advocacy and Reasearch Centre (PARC)", "State": "Tripura", "Location": "Sepahijala", "CT_no": "P5", "Latitude": 23.661433, "Longitude": 91.305522, "Altitude": "23", "Grid_no": 23, "CT_loc_ID": "SEPCT8", "PA_name": "Sepahijala", "Range": "Sepahijala", "Beat": "Sepahijala", "Nearest_village": "Sepahijala", "Date_of_Deployment": "13-02-2024", "Habitat_type": "-" }, "geometry": { "type": "Point", "coordinates": [ 10164084.215654037892818, 2712206.182406957261264 ] } },
{ "type": "Feature", "properties": { "Sl_no": 24, "Project_partner": "Policy Advocacy and Reasearch Centre (PARC)", "State": "Tripura", "Location": "Rajnagar", "CT_no": "THT17", "Latitude": 23.290983, "Longitude": 91.371228, "Altitude": "60", "Grid_no": 24, "CT_loc_ID": "TRSHCT01", "PA_name": "Trishna WLS", "Range": "Rangamura", "Beat": "Rajnagar", "Nearest_village": "Kashari", "Date_of_Deployment": "21-02-2024", "Habitat_type": "-" }, "geometry": { "type": "Point", "coordinates": [ 10171398.574116099625826, 2667246.245177831500769 ] } },
{ "type": "Feature", "properties": { "Sl_no": 25, "Project_partner": "Policy Advocacy and Reasearch Centre (PARC)", "State": "Tripura", "Location": "Rajnagar", "CT_no": "THT24", "Latitude": 23.290983, "Longitude": 91.371228, "Altitude": "60", "Grid_no": 25, "CT_loc_ID": "TRSHCT01", "PA_name": "Trishna WLS", "Range": "Rangamura", "Beat": "Rajnagar", "Nearest_village": "Kashari", "Date_of_Deployment": "21-02-2024", "Habitat_type": "-" }, "geometry": { "type": "Point", "coordinates": [ 10171398.574116099625826, 2667246.245177831500769 ] } },
{ "type": "Feature", "properties": { "Sl_no": 26, "Project_partner": "Policy Advocacy and Reasearch Centre (PARC)", "State": "Tripura", "Location": "Rajnagar", "CT_no": "THT28", "Latitude": 23.269589, "Longitude": 91.373814, "Altitude": "44", "Grid_no": 26, "CT_loc_ID": "TRSHCT02", "PA_name": "Trishna WLS", "Range": "Rangamura", "Beat": "Rajnagar", "Nearest_village": "Durgapur", "Date_of_Deployment": "21-02-2024", "Habitat_type": "-" }, "geometry": { "type": "Point", "coordinates": [ 10171686.446319291368127, 2664653.588119719177485 ] } },
{ "type": "Feature", "properties": { "Sl_no": 27, "Project_partner": "Policy Advocacy and Reasearch Centre (PARC)", "State": "Tripura", "Location": "Rajnagar", "CT_no": "THT23", "Latitude": 23.269589, "Longitude": 91.373814, "Altitude": "44", "Grid_no": 27, "CT_loc_ID": "TRSHCT02", "PA_name": "Trishna WLS", "Range": "Rangamura", "Beat": "Rajnagar", "Nearest_village": "Durgapur", "Date_of_Deployment": "21-02-2024", "Habitat_type": "-" }, "geometry": { "type": "Point", "coordinates": [ 10171686.446319291368127, 2664653.588119719177485 ] } },
{ "type": "Feature", "properties": { "Sl_no": 28, "Project_partner": "Policy Advocacy and Reasearch Centre (PARC)", "State": "Tripura", "Location": "Rajnagar", "CT_no": "THT26", "Latitude": 23.2459, "Longitude": 91.366464, "Altitude": "52", "Grid_no": 28, "CT_loc_ID": "TRSHCT03", "PA_name": "Trishna WLS", "Range": "Rangamura", "Beat": "Rajnagar", "Nearest_village": "Prakashnagar", "Date_of_Deployment": "22-02-2024", "Habitat_type": "-" }, "geometry": { "type": "Point", "coordinates": [ 10170868.248061960563064, 2661783.294426783453673 ] } },
{ "type": "Feature", "properties": { "Sl_no": 29, "Project_partner": "Policy Advocacy and Reasearch Centre (PARC)", "State": "Tripura", "Location": "Rajnagar", "CT_no": "THT15", "Latitude": 23.2459, "Longitude": 91.366464, "Altitude": "52", "Grid_no": 29, "CT_loc_ID": "TRSHCT03", "PA_name": "Trishna WLS", "Range": "Rangamura", "Beat": "Rajnagar", "Nearest_village": "Prakashnagar", "Date_of_Deployment": "22-02-2024", "Habitat_type": "-" }, "geometry": { "type": "Point", "coordinates": [ 10170868.248061960563064, 2661783.294426783453673 ] } },
{ "type": "Feature", "properties": { "Sl_no": 30, "Project_partner": "Policy Advocacy and Reasearch Centre (PARC)", "State": "Tripura", "Location": "Nidaya", "CT_no": "P22", "Latitude": 23.314306, "Longitude": 91.364417, "Altitude": "61", "Grid_no": 30, "CT_loc_ID": "TRSHCT04", "PA_name": "Trishna WLS", "Range": "Rangamura", "Beat": "Nidaya", "Nearest_village": "Kurulla", "Date_of_Deployment": "25-02-2024", "Habitat_type": "-" }, "geometry": { "type": "Point", "coordinates": [ 10170640.377064308151603, 2670073.145226804539561 ] } },
{ "type": "Feature", "properties": { "Sl_no": 31, "Project_partner": "Policy Advocacy and Reasearch Centre (PARC)", "State": "Tripura", "Location": "Nidaya", "CT_no": "P8", "Latitude": 23.314306, "Longitude": 91.364417, "Altitude": "61", "Grid_no": 31, "CT_loc_ID": "TRSHCT04", "PA_name": "Trishna WLS", "Range": "Rangamura", "Beat": "Nidaya", "Nearest_village": "Kurulla", "Date_of_Deployment": "25-02-2024", "Habitat_type": "-" }, "geometry": { "type": "Point", "coordinates": [ 10170640.377064308151603, 2670073.145226804539561 ] } },
{ "type": "Feature", "properties": { "Sl_no": 32, "Project_partner": "Policy Advocacy and Reasearch Centre (PARC)", "State": "Tripura", "Location": "Nidaya", "CT_no": "P18", "Latitude": 23.312472, "Longitude": 91.352194, "Altitude": "51", "Grid_no": 32, "CT_loc_ID": "TRSHCT05", "PA_name": "Trishna WLS", "Range": "Rangamura", "Beat": "Nidaya", "Nearest_village": "Mundabasti", "Date_of_Deployment": "21-02-2024", "Habitat_type": "-" }, "geometry": { "type": "Point", "coordinates": [ 10169279.718928340822458, 2669850.834480681922287 ] } },
{ "type": "Feature", "properties": { "Sl_no": 33, "Project_partner": "Policy Advocacy and Reasearch Centre (PARC)", "State": "Tripura", "Location": "Nidaya", "CT_no": "P20", "Latitude": 23.312472, "Longitude": 91.352194, "Altitude": "51", "Grid_no": 33, "CT_loc_ID": "TRSHCT05", "PA_name": "Trishna WLS", "Range": "Rangamura", "Beat": "Nidaya", "Nearest_village": "Mundabasti", "Date_of_Deployment": "21-02-2024", "Habitat_type": "-" }, "geometry": { "type": "Point", "coordinates": [ 10169279.718928340822458, 2669850.834480681922287 ] } },
{ "type": "Feature", "properties": { "Sl_no": 34, "Project_partner": "Policy Advocacy and Reasearch Centre (PARC)", "State": "Tripura", "Location": "-", "CT_no": "THT18", "Latitude": 23.279633, "Longitude": 91.355783, "Altitude": "38", "Grid_no": 34, "CT_loc_ID": "TRSHCT06", "PA_name": "Trishna WLS", "Range": "-", "Beat": "-", "Nearest_village": "Sabmara", "Date_of_Deployment": "21-02-2024", "Habitat_type": "-" }, "geometry": { "type": "Point", "coordinates": [ 10169679.244580799713731, 2665870.730204062070698 ] } },
{ "type": "Feature", "properties": { "Sl_no": 35, "Project_partner": "Policy Advocacy and Reasearch Centre (PARC)", "State": "Tripura", "Location": "-", "CT_no": "THT29", "Latitude": 23.279633, "Longitude": 91.355783, "Altitude": "38", "Grid_no": 35, "CT_loc_ID": "TRSHCT06", "PA_name": "Trishna WLS", "Range": "-", "Beat": "-", "Nearest_village": "Sabmara", "Date_of_Deployment": "21-02-2024", "Habitat_type": "-" }, "geometry": { "type": "Point", "coordinates": [ 10169679.244580799713731, 2665870.730204062070698 ] } },
{ "type": "Feature", "properties": { "Sl_no": 36, "Project_partner": "Policy Advocacy and Reasearch Centre (PARC)", "State": "Tripura", "Location": "-", "CT_no": "THT22", "Latitude": 23.295617, "Longitude": 91.356233, "Altitude": "59", "Grid_no": 36, "CT_loc_ID": "TRSHCT07", "PA_name": "Trishna WLS", "Range": "-", "Beat": "-", "Nearest_village": "Manortila", "Date_of_Deployment": "22-02-2024", "Habitat_type": "-" }, "geometry": { "type": "Point", "coordinates": [ 10169729.338351655751467, 2667807.876816720701754 ] } },
{ "type": "Feature", "properties": { "Sl_no": 37, "Project_partner": "Policy Advocacy and Reasearch Centre (PARC)", "State": "Tripura", "Location": "-", "CT_no": "THT27", "Latitude": 23.295617, "Longitude": 91.356233, "Altitude": "59", "Grid_no": 37, "CT_loc_ID": "TRSHCT07", "PA_name": "Trishna WLS", "Range": "-", "Beat": "-", "Nearest_village": "Manortila", "Date_of_Deployment": "22-02-2024", "Habitat_type": "-" }, "geometry": { "type": "Point", "coordinates": [ 10169729.338351655751467, 2667807.876816720701754 ] } },
{ "type": "Feature", "properties": { "Sl_no": 38, "Project_partner": "Policy Advocacy and Reasearch Centre (PARC)", "State": "Tripura", "Location": "-", "CT_no": "THT25", "Latitude": 23.294167, "Longitude": 91.365533, "Altitude": "48", "Grid_no": 38, "CT_loc_ID": "TRSHCT08", "PA_name": "Trishna WLS", "Range": "-", "Beat": "-", "Nearest_village": "Manortila", "Date_of_Deployment": "22-02-2024", "Habitat_type": "-" }, "geometry": { "type": "Point", "coordinates": [ 10170764.609616031870246, 2667632.137580979149789 ] } },
{ "type": "Feature", "properties": { "Sl_no": 39, "Project_partner": "Policy Advocacy and Reasearch Centre (PARC)", "State": "Tripura", "Location": "-", "CT_no": "THT14", "Latitude": 23.294167, "Longitude": 91.365533, "Altitude": "48", "Grid_no": 39, "CT_loc_ID": "TRSHCT08", "PA_name": "Trishna WLS", "Range": "-", "Beat": "-", "Nearest_village": "Manortila", "Date_of_Deployment": "22-02-2024", "Habitat_type": "-" }, "geometry": { "type": "Point", "coordinates": [ 10170764.609616031870246, 2667632.137580979149789 ] } },
{ "type": "Feature", "properties": { "Sl_no": 40, "Project_partner": "Policy Advocacy and Reasearch Centre (PARC)", "State": "Tripura", "Location": "-", "CT_no": "THT13", "Latitude": 23.30345, "Longitude": 91.3652, "Altitude": "58", "Grid_no": 40, "CT_loc_ID": "TRSHCT09", "PA_name": "Trishna WLS", "Range": "-", "Beat": "-", "Nearest_village": "Manortila", "Date_of_Deployment": "22-02-2024", "Habitat_type": "-" }, "geometry": { "type": "Point", "coordinates": [ 10170727.540225598961115, 2668757.265406555496156 ] } },
{ "type": "Feature", "properties": { "Sl_no": 41, "Project_partner": "Policy Advocacy and Reasearch Centre (PARC)", "State": "Tripura", "Location": "-", "CT_no": "THT11", "Latitude": 23.30345, "Longitude": 91.3652, "Altitude": "58", "Grid_no": 41, "CT_loc_ID": "TRSHCT09", "PA_name": "Trishna WLS", "Range": "-", "Beat": "-", "Nearest_village": "Manortila", "Date_of_Deployment": "22-02-2024", "Habitat_type": "-" }, "geometry": { "type": "Point", "coordinates": [ 10170727.540225598961115, 2668757.265406555496156 ] } },
{ "type": "Feature", "properties": { "Sl_no": 42, "Project_partner": "Policy Advocacy and Reasearch Centre (PARC)", "State": "Tripura", "Location": "Joychandpur", "CT_no": "THT10", "Latitude": 23.281083, "Longitude": 91.399056, "Altitude": "22", "Grid_no": 42, "CT_loc_ID": "TRSHCT10", "PA_name": "Trishna WLS", "Range": "Rangamura", "Beat": "Joychandpur", "Nearest_village": "Joychandpur", "Date_of_Deployment": "24-02-2024", "Habitat_type": "-" }, "geometry": { "type": "Point", "coordinates": [ 10174496.37290589697659, 2666046.450253472663462 ] } },
{ "type": "Feature", "properties": { "Sl_no": 43, "Project_partner": "Policy Advocacy and Reasearch Centre (PARC)", "State": "Tripura", "Location": "Joychandpur", "CT_no": "THT39", "Latitude": 23.281083, "Longitude": 91.399056, "Altitude": "22", "Grid_no": 43, "CT_loc_ID": "TRSHCT10", "PA_name": "Trishna WLS", "Range": "Rangamura", "Beat": "Joychandpur", "Nearest_village": "Joychandpur", "Date_of_Deployment": "24-02-2024", "Habitat_type": "-" }, "geometry": { "type": "Point", "coordinates": [ 10174496.37290589697659, 2666046.450253472663462 ] } },
{ "type": "Feature", "properties": { "Sl_no": 44, "Project_partner": "Policy Advocacy and Reasearch Centre (PARC)", "State": "Tripura", "Location": "Loharjum", "CT_no": "-", "Latitude": 23.232209, "Longitude": 91.36371, "Altitude": "-", "Grid_no": 44, "CT_loc_ID": "TRSHCT11", "PA_name": "Trishna WLS", "Range": "Rajnagar", "Beat": "Loharjum", "Nearest_village": "Loharjum", "Date_of_Deployment": "21-02-2024", "Habitat_type": "-" }, "geometry": { "type": "Point", "coordinates": [ 10170561.674184316769242, 2660124.647624329198152 ] } },
{ "type": "Feature", "properties": { "Sl_no": 45, "Project_partner": "Policy Advocacy and Reasearch Centre (PARC)", "State": "Tripura", "Location": "Loharjum", "CT_no": "-", "Latitude": 23.232209, "Longitude": 91.36371, "Altitude": "-", "Grid_no": 45, "CT_loc_ID": "TRSHCT11", "PA_name": "Trishna WLS", "Range": "Rajnagar", "Beat": "Loharjum", "Nearest_village": "Loharjum", "Date_of_Deployment": "21-02-2024", "Habitat_type": "-" }, "geometry": { "type": "Point", "coordinates": [ 10170561.674184316769242, 2660124.647624329198152 ] } },
{ "type": "Feature", "properties": { "Sl_no": 46, "Project_partner": "Policy Advocacy and Reasearch Centre (PARC)", "State": "Tripura", "Location": "Loharjum", "CT_no": "THT32/P3", "Latitude": 23.2375, "Longitude": 91.36, "Altitude": "-", "Grid_no": 46, "CT_loc_ID": "TRSHCT12", "PA_name": "Trishna WLS", "Range": "Rajnagar", "Beat": "Loharjum", "Nearest_village": "Loharjum", "Date_of_Deployment": "21-02-2024", "Habitat_type": "-" }, "geometry": { "type": "Point", "coordinates": [ 10170148.678873473778367, 2660765.625200750306249 ] } },
{ "type": "Feature", "properties": { "Sl_no": 47, "Project_partner": "Policy Advocacy and Reasearch Centre (PARC)", "State": "Tripura", "Location": "Loharjum", "CT_no": "THT12/P7", "Latitude": 23.2375, "Longitude": 91.36, "Altitude": "-", "Grid_no": 47, "CT_loc_ID": "TRSHCT12", "PA_name": "Trishna WLS", "Range": "Rajnagar", "Beat": "Loharjum", "Nearest_village": "Loharjum", "Date_of_Deployment": "21-02-2024", "Habitat_type": "-" }, "geometry": { "type": "Point", "coordinates": [ 10170148.678873473778367, 2660765.625200750306249 ] } },
{ "type": "Feature", "properties": { "Sl_no": 48, "Project_partner": "Policy Advocacy and Reasearch Centre (PARC)", "State": "Tripura", "Location": "-", "CT_no": "THT21", "Latitude": 23.249167, "Longitude": 91.356944, "Altitude": "-", "Grid_no": 48, "CT_loc_ID": "TRSHCT13", "PA_name": "Trishna WLS", "Range": "Rangamura", "Beat": "-", "Nearest_village": "-", "Date_of_Deployment": "21-02-2024", "Habitat_type": "-" }, "geometry": { "type": "Point", "coordinates": [ 10169808.486509608104825, 2662179.112373902928084 ] } },
{ "type": "Feature", "properties": { "Sl_no": 49, "Project_partner": "Policy Advocacy and Reasearch Centre (PARC)", "State": "Tripura", "Location": "-", "CT_no": "P17", "Latitude": 23.249167, "Longitude": 91.356944, "Altitude": "-", "Grid_no": 49, "CT_loc_ID": "TRSHCT13", "PA_name": "Trishna WLS", "Range": "Rangamura", "Beat": "-", "Nearest_village": "-", "Date_of_Deployment": "21-02-2024", "Habitat_type": "-" }, "geometry": { "type": "Point", "coordinates": [ 10169808.486509608104825, 2662179.112373902928084 ] } },
{ "type": "Feature", "properties": { "Sl_no": 50, "Project_partner": "Policy Advocacy and Reasearch Centre (PARC)", "State": "Tripura", "Location": "Steel Tower", "CT_no": "THT38", "Latitude": 23.270556, "Longitude": 91.356389, "Altitude": "-", "Grid_no": 50, "CT_loc_ID": "TRSHCT14", "PA_name": "Trishna WLS", "Range": "Rangamura", "Beat": "Steel Tower", "Nearest_village": "Steel Tower", "Date_of_Deployment": "21-02-2024", "Habitat_type": "-" }, "geometry": { "type": "Point", "coordinates": [ 10169746.704192219302058, 2664770.76616593496874 ] } },
{ "type": "Feature", "properties": { "Sl_no": 51, "Project_partner": "Policy Advocacy and Reasearch Centre (PARC)", "State": "Tripura", "Location": "Steel Tower", "CT_no": "THT40", "Latitude": 23.270556, "Longitude": 91.356389, "Altitude": "-", "Grid_no": 51, "CT_loc_ID": "TRSHCT14", "PA_name": "Trishna WLS", "Range": "Rangamura", "Beat": "Steel Tower", "Nearest_village": "Steel Tower", "Date_of_Deployment": "21-02-2024", "Habitat_type": "-" }, "geometry": { "type": "Point", "coordinates": [ 10169746.704192219302058, 2664770.76616593496874 ] } },
{ "type": "Feature", "properties": { "Sl_no": 54, "Project_partner": "Policy Advocacy and Reasearch Centre (PARC)", "State": "Tripura", "Location": "Gandachhera", "CT_no": "P21", "Latitude": 23.620278, "Longitude": 91.789444, "Altitude": "120", "Grid_no": 54, "CT_loc_ID": "GUM_GAN_CT1", "PA_name": "Gumti", "Range": "Gandachhera", "Beat": "Gandachhera", "Nearest_village": "Laxmipur", "Date_of_Deployment": "10-03-2024", "Habitat_type": "-" }, "geometry": { "type": "Point", "coordinates": [ 10217954.166277701035142, 2707205.124999010004103 ] } },
{ "type": "Feature", "properties": { "Sl_no": 55, "Project_partner": "Policy Advocacy and Reasearch Centre (PARC)", "State": "Tripura", "Location": "Jagabandhu para", "CT_no": "P7", "Latitude": 23.673833, "Longitude": 91.778694, "Altitude": "153", "Grid_no": 55, "CT_loc_ID": "GUM_JBP_CT1", "PA_name": "Gumti", "Range": "Gandachhera", "Beat": "Jagabandhu para", "Nearest_village": "Dalirai para", "Date_of_Deployment": "10-03-2024", "Habitat_type": "-" }, "geometry": { "type": "Point", "coordinates": [ 10216757.481751672923565, 2713713.309272955171764 ] } },
{ "type": "Feature", "properties": { "Sl_no": 56, "Project_partner": "Policy Advocacy and Reasearch Centre (PARC)", "State": "Tripura", "Location": "Jagabandhu para", "CT_no": "THT19", "Latitude": 23.673833, "Longitude": 91.778694, "Altitude": "153", "Grid_no": 56, "CT_loc_ID": "GUM_JBP_CT1", "PA_name": "Gumti", "Range": "Gandachhera", "Beat": "Jagabandhu para", "Nearest_village": "Dalirai para", "Date_of_Deployment": "10-03-2024", "Habitat_type": "-" }, "geometry": { "type": "Point", "coordinates": [ 10216757.481751672923565, 2713713.309272955171764 ] } },
{ "type": "Feature", "properties": { "Sl_no": 57, "Project_partner": "Policy Advocacy and Reasearch Centre (PARC)", "State": "Tripura", "Location": "Barabari", "CT_no": "P18", "Latitude": 23.684122, "Longitude": 91.835794, "Altitude": "147", "Grid_no": 57, "CT_loc_ID": "GUM_BAR_CT1", "PA_name": "Gumti", "Range": "Gandachhera", "Beat": "Barabari", "Nearest_village": "Shikaripara", "Date_of_Deployment": "10-03-2024", "Habitat_type": "-" }, "geometry": { "type": "Point", "coordinates": [ 10223113.824675969779491, 2714963.968502512667328 ] } },
{ "type": "Feature", "properties": { "Sl_no": 58, "Project_partner": "Policy Advocacy and Reasearch Centre (PARC)", "State": "Tripura", "Location": "Barabari", "CT_no": "THT39", "Latitude": 23.683964, "Longitude": 91.836039, "Altitude": "147", "Grid_no": 58, "CT_loc_ID": "GUM_BAR_CT1", "PA_name": "Gumti", "Range": "Gandachhera", "Beat": "Barabari", "Nearest_village": "Shikaripara", "Date_of_Deployment": "10-03-2024", "Habitat_type": "-" }, "geometry": { "type": "Point", "coordinates": [ 10223141.097951212897897, 2714944.762377507518977 ] } },
{ "type": "Feature", "properties": { "Sl_no": 59, "Project_partner": "Policy Advocacy and Reasearch Centre (PARC)", "State": "Tripura", "Location": "Kalajhari", "CT_no": "P10", "Latitude": 23.519167, "Longitude": 91.777222, "Altitude": "130", "Grid_no": 59, "CT_loc_ID": "GUM_KAL_CT1", "PA_name": "Gumti", "Range": "Gandachhera", "Beat": "Kalajhari", "Nearest_village": "Ajidapara", "Date_of_Deployment": "11-03-2024", "Habitat_type": "-" }, "geometry": { "type": "Point", "coordinates": [ 10216593.619461223483086, 2694925.019901154562831 ] } },
{ "type": "Feature", "properties": { "Sl_no": 60, "Project_partner": "Policy Advocacy and Reasearch Centre (PARC)", "State": "Tripura", "Location": "Kalajhari", "CT_no": "THT26", "Latitude": 23.519167, "Longitude": 91.777222, "Altitude": "130", "Grid_no": 60, "CT_loc_ID": "GUM_KAL_CT1", "PA_name": "Gumti", "Range": "Gandachhera", "Beat": "Kalajhari", "Nearest_village": "Ajidapara", "Date_of_Deployment": "11-03-2024", "Habitat_type": "-" }, "geometry": { "type": "Point", "coordinates": [ 10216593.619461223483086, 2694925.019901154562831 ] } },
{ "type": "Feature", "properties": { "Sl_no": 61, "Project_partner": "Policy Advocacy and Reasearch Centre (PARC)", "State": "Tripura", "Location": "Kalajhari", "CT_no": "P16", "Latitude": 23.552222, "Longitude": 91.757278, "Altitude": "133", "Grid_no": 61, "CT_loc_ID": "GUM_KAL_CT2", "PA_name": "Gumti", "Range": "Gandachhera", "Beat": "Kalajhari", "Nearest_village": "Montila", "Date_of_Deployment": "11-03-2024", "Habitat_type": "-" }, "geometry": { "type": "Point", "coordinates": [ 10214373.463536843657494, 2698938.566758152563125 ] } },
{ "type": "Feature", "properties": { "Sl_no": 62, "Project_partner": "Policy Advocacy and Reasearch Centre (PARC)", "State": "Tripura", "Location": "Dhalajari", "CT_no": "P9", "Latitude": 23.582547, "Longitude": 91.782467, "Altitude": "107", "Grid_no": 62, "CT_loc_ID": "GUM_DAL_CT1", "PA_name": "Gumti", "Range": "Gandachhera", "Beat": "Dhalajari", "Nearest_village": "Montopara", "Date_of_Deployment": "11-03-2024", "Habitat_type": "-" }, "geometry": { "type": "Point", "coordinates": [ 10217177.49019043520093, 2702621.524077015928924 ] } },
{ "type": "Feature", "properties": { "Sl_no": 63, "Project_partner": "Policy Advocacy and Reasearch Centre (PARC)", "State": "Tripura", "Location": "Dhalajari", "CT_no": "THT24", "Latitude": 23.582547, "Longitude": 91.782467, "Altitude": "107", "Grid_no": 63, "CT_loc_ID": "GUM_DAL_CT1", "PA_name": "Gumti", "Range": "Gandachhera", "Beat": "Dhalajari", "Nearest_village": "Montopara", "Date_of_Deployment": "11-03-2024", "Habitat_type": "-" }, "geometry": { "type": "Point", "coordinates": [ 10217177.49019043520093, 2702621.524077015928924 ] } },
{ "type": "Feature", "properties": { "Sl_no": 64, "Project_partner": "Policy Advocacy and Reasearch Centre (PARC)", "State": "Tripura", "Location": "Kalajhari", "CT_no": "THT13", "Latitude": 23.535733, "Longitude": 91.764483, "Altitude": "142", "Grid_no": 64, "CT_loc_ID": "GUM_KAL_CT3", "PA_name": "Gumti", "Range": "Gandachhera", "Beat": "Kalajhari", "Nearest_village": "Saduchandra Reangpara", "Date_of_Deployment": "11-03-2024", "Habitat_type": "-" }, "geometry": { "type": "Point", "coordinates": [ 10215175.520468007773161, 2696936.341945530846715 ] } },
{ "type": "Feature", "properties": { "Sl_no": 65, "Project_partner": "Policy Advocacy and Reasearch Centre (PARC)", "State": "Tripura", "Location": "Kalajhari", "CT_no": "P20", "Latitude": 23.535733, "Longitude": 91.764483, "Altitude": "142", "Grid_no": 65, "CT_loc_ID": "GUM_KAL_CT3", "PA_name": "Gumti", "Range": "Gandachhera", "Beat": "Kalajhari", "Nearest_village": "Ajidapara", "Date_of_Deployment": "11-03-2024", "Habitat_type": "-" }, "geometry": { "type": "Point", "coordinates": [ 10215175.520468007773161, 2696936.341945530846715 ] } },
{ "type": "Feature", "properties": { "Sl_no": 66, "Project_partner": "Policy Advocacy and Reasearch Centre (PARC)", "State": "Tripura", "Location": "karmapara", "CT_no": "P14", "Latitude": 23.767906, "Longitude": 91.781253, "Altitude": "133", "Grid_no": 66, "CT_loc_ID": "GUM_KAR_CT1", "PA_name": "Gumti", "Range": "Ganganagar", "Beat": "karmapara", "Nearest_village": "Paltanpara", "Date_of_Deployment": "12-03-2024", "Habitat_type": "-" }, "geometry": { "type": "Point", "coordinates": [ 10217042.348328612744808, 2725151.840811895672232 ] } },
{ "type": "Feature", "properties": { "Sl_no": 67, "Project_partner": "Policy Advocacy and Reasearch Centre (PARC)", "State": "Tripura", "Location": "karmapara", "CT_no": "THT12", "Latitude": 23.767906, "Longitude": 91.781253, "Altitude": "133", "Grid_no": 67, "CT_loc_ID": "GUM_KAR_CT1", "PA_name": "Gumti", "Range": "Ganganagar", "Beat": "karmapara", "Nearest_village": "Paltanpara", "Date_of_Deployment": "12-03-2024", "Habitat_type": "-" }, "geometry": { "type": "Point", "coordinates": [ 10217042.348328612744808, 2725151.840811895672232 ] } },
{ "type": "Feature", "properties": { "Sl_no": 68, "Project_partner": "Policy Advocacy and Reasearch Centre (PARC)", "State": "Tripura", "Location": "Ganganagar", "CT_no": "P6", "Latitude": 23.766733, "Longitude": 91.827233, "Altitude": "115", "Grid_no": 68, "CT_loc_ID": "GUM_GANG_CT1", "PA_name": "Gumti", "Range": "Ganganagar", "Beat": "Ganganagar", "Nearest_village": "Gumseng", "Date_of_Deployment": "12-03-2024", "Habitat_type": "-" }, "geometry": { "type": "Point", "coordinates": [ 10222160.818515287712216, 2725009.162454016041011 ] } },
{ "type": "Feature", "properties": { "Sl_no": 69, "Project_partner": "Policy Advocacy and Reasearch Centre (PARC)", "State": "Tripura", "Location": "Ganganagar", "CT_no": "THT27", "Latitude": 23.7651, "Longitude": 91.828367, "Altitude": "138", "Grid_no": 69, "CT_loc_ID": "GUM_GANG_CT1", "PA_name": "Gumti", "Range": "Ganganagar", "Beat": "Ganganagar", "Nearest_village": "Gumseng", "Date_of_Deployment": "12-03-2024", "Habitat_type": "-" }, "geometry": { "type": "Point", "coordinates": [ 10222287.054817847907543, 2724810.533940748777241 ] } },
{ "type": "Feature", "properties": { "Sl_no": 70, "Project_partner": "Policy Advocacy and Reasearch Centre (PARC)", "State": "Tripura", "Location": "Ganganagar", "CT_no": "P15", "Latitude": 23.744167, "Longitude": 91.815, "Altitude": "-", "Grid_no": 70, "CT_loc_ID": "GUM_GANG_CT2", "PA_name": "Gumti", "Range": "Ganganagar", "Beat": "Ganganagar", "Nearest_village": "Radharambari", "Date_of_Deployment": "12-03-2024", "Habitat_type": "-" }, "geometry": { "type": "Point", "coordinates": [ 10220799.047184413298965, 2722264.587668739259243 ] } },
{ "type": "Feature", "properties": { "Sl_no": 71, "Project_partner": "Policy Advocacy and Reasearch Centre (PARC)", "State": "Tripura", "Location": "Radharambari", "CT_no": "P19", "Latitude": 23.705167, "Longitude": 91.79175, "Altitude": "116", "Grid_no": 71, "CT_loc_ID": "GUM_RAD_CT1", "PA_name": "Gumti", "Range": "Gananagar", "Beat": "Radharambari", "Nearest_village": "Sardinkhapara", "Date_of_Deployment": "13-03-2024", "Habitat_type": "-" }, "geometry": { "type": "Point", "coordinates": [ 10218210.869023468345404, 2717522.359125035814941 ] } },
{ "type": "Feature", "properties": { "Sl_no": 72, "Project_partner": "Policy Advocacy and Reasearch Centre (PARC)", "State": "Tripura", "Location": "Radharambari", "CT_no": "THT18", "Latitude": 23.738361, "Longitude": 91.799889, "Altitude": "118", "Grid_no": 72, "CT_loc_ID": "GUM_RAD_CT2", "PA_name": "Gumti", "Range": "Gananagar", "Beat": "Radharambari", "Nearest_village": "Karmapara", "Date_of_Deployment": "13-03-2024", "Habitat_type": "-" }, "geometry": { "type": "Point", "coordinates": [ 10219116.898359034210443, 2721558.513695133384317 ] } },
{ "type": "Feature", "properties": { "Sl_no": 73, "Project_partner": "Policy Advocacy and Reasearch Centre (PARC)", "State": "Tripura", "Location": "Ganganagar", "CT_no": "P8", "Latitude": 23.747778, "Longitude": 91.849444, "Altitude": "130", "Grid_no": 73, "CT_loc_ID": "GUM_GAN_CT3", "PA_name": "Gumti", "Range": "Ganganagar", "Beat": "Ganganagar", "Nearest_village": "Panchajoy Para", "Date_of_Deployment": "13-03-2024", "Habitat_type": "-" }, "geometry": { "type": "Point", "coordinates": [ 10224633.335725296288729, 2722703.741179789882153 ] } },
{ "type": "Feature", "properties": { "Sl_no": 74, "Project_partner": "Policy Advocacy and Reasearch Centre (PARC)", "State": "Tripura", "Location": "Ganganagar", "CT_no": "THT10", "Latitude": 23.747222, "Longitude": 91.849444, "Altitude": "130", "Grid_no": 74, "CT_loc_ID": "GUM_GAN_CT3", "PA_name": "Gumti", "Range": "Ganganagar", "Beat": "Ganganagar", "Nearest_village": "Panchajoy Para", "Date_of_Deployment": "13-03-2024", "Habitat_type": "-" }, "geometry": { "type": "Point", "coordinates": [ 10224633.335725296288729, 2722636.122177871409804 ] } },
{ "type": "Feature", "properties": { "Sl_no": 75, "Project_partner": "Policy Advocacy and Reasearch Centre (PARC)", "State": "Tripura", "Location": "Ekjancharra", "CT_no": "THT17", "Latitude": 23.64525, "Longitude": 91.734683, "Altitude": "145", "Grid_no": 75, "CT_loc_ID": "GUM_EKC_CT1", "PA_name": "Gumti", "Range": "Ampi", "Beat": "Ekjancharra", "Nearest_village": "Debendrapara", "Date_of_Deployment": "13-03-2024", "Habitat_type": "-" }, "geometry": { "type": "Point", "coordinates": [ 10211858.199642369523644, 2710239.475251126568764 ] } },
{ "type": "Feature", "properties": { "Sl_no": 76, "Project_partner": "Policy Advocacy and Reasearch Centre (PARC)", "State": "Tripura", "Location": "Ekjancharra", "CT_no": "P13", "Latitude": 23.64525, "Longitude": 91.734683, "Altitude": "145", "Grid_no": 76, "CT_loc_ID": "GUM_EKC_CT1", "PA_name": "Gumti", "Range": "Ampi", "Beat": "Ekjancharra", "Nearest_village": "Debendrapara", "Date_of_Deployment": "13-03-2024", "Habitat_type": "-" }, "geometry": { "type": "Point", "coordinates": [ 10211858.199642369523644, 2710239.475251126568764 ] } },
{ "type": "Feature", "properties": { "Sl_no": 77, "Project_partner": "Policy Advocacy and Reasearch Centre (PARC)", "State": "Tripura", "Location": "Dangabari", "CT_no": "THT22", "Latitude": 23.695783, "Longitude": 91.902433, "Altitude": "119", "Grid_no": 77, "CT_loc_ID": "GUM_DAN_CT1", "PA_name": "Gumti", "Range": "Ganganagar", "Beat": "Dangabari", "Nearest_village": "Nobokumarpara", "Date_of_Deployment": "14-03-2024", "Habitat_type": "-" }, "geometry": { "type": "Point", "coordinates": [ 10230532.044222941622138, 2716381.517604969441891 ] } },
{ "type": "Feature", "properties": { "Sl_no": 78, "Project_partner": "Policy Advocacy and Reasearch Centre (PARC)", "State": "Tripura", "Location": "Dangabari", "CT_no": "P17", "Latitude": 23.695783, "Longitude": 91.902433, "Altitude": "119", "Grid_no": 78, "CT_loc_ID": "GUM_DAN_CT1", "PA_name": "Gumti", "Range": "Ganganagar", "Beat": "Dangabari", "Nearest_village": "Nobokumarpara", "Date_of_Deployment": "14-03-2024", "Habitat_type": "-" }, "geometry": { "type": "Point", "coordinates": [ 10230532.044222941622138, 2716381.517604969441891 ] } },
{ "type": "Feature", "properties": { "Sl_no": 79, "Project_partner": "Policy Advocacy and Reasearch Centre (PARC)", "State": "Tripura", "Location": "Dyke 4", "CT_no": "THT35", "Latitude": 23.498806, "Longitude": 91.800528, "Altitude": "106", "Grid_no": 79, "CT_loc_ID": "GUM_DYK_CT1", "PA_name": "Gumti", "Range": "Raishyabri", "Beat": "Dyke 4", "Nearest_village": "Tarmo Adam", "Date_of_Deployment": "14-03-2024", "Habitat_type": "-" }, "geometry": { "type": "Point", "coordinates": [ 10219188.031513653695583, 2692453.283484378829598 ] } },
{ "type": "Feature", "properties": { "Sl_no": 80, "Project_partner": "Policy Advocacy and Reasearch Centre (PARC)", "State": "Tripura", "Location": "Dyke 4", "CT_no": "THT15", "Latitude": 23.498806, "Longitude": 91.800528, "Altitude": "106", "Grid_no": 80, "CT_loc_ID": "GUM_DYK_CT1", "PA_name": "Gumti", "Range": "Raishyabri", "Beat": "Dyke 4", "Nearest_village": "Tarmo Adam", "Date_of_Deployment": "14-03-2024", "Habitat_type": "-" }, "geometry": { "type": "Point", "coordinates": [ 10219188.031513653695583, 2692453.283484378829598 ] } },
{ "type": "Feature", "properties": { "Sl_no": 81, "Project_partner": "Policy Advocacy and Reasearch Centre (PARC)", "State": "Tripura", "Location": "Dangabari", "CT_no": "P2", "Latitude": 23.705278, "Longitude": 91.853611, "Altitude": "-", "Grid_no": 81, "CT_loc_ID": "GUM_DAN_CT1", "PA_name": "Gumti", "Range": "Ganganagar", "Beat": "Dangabari", "Nearest_village": "Dangabari", "Date_of_Deployment": "14-03-2024", "Habitat_type": "-" }, "geometry": { "type": "Point", "coordinates": [ 10225097.204043431207538, 2717535.854224699083716 ] } },
{ "type": "Feature", "properties": { "Sl_no": 82, "Project_partner": "Policy Advocacy and Reasearch Centre (PARC)", "State": "Tripura", "Location": "Kakrachera", "CT_no": "THT02", "Latitude": 23.714639, "Longitude": 91.766167, "Altitude": "184", "Grid_no": 82, "CT_loc_ID": "GUM_KAK_CT1", "PA_name": "Gumti", "Range": "Mungiakami", "Beat": "Kakrachera", "Nearest_village": "Bukho para", "Date_of_Deployment": "19-03-2024", "Habitat_type": "-" }, "geometry": { "type": "Point", "coordinates": [ 10215362.982490504160523, 2718673.98227549996227 ] } },
{ "type": "Feature", "properties": { "Sl_no": 83, "Project_partner": "Policy Advocacy and Reasearch Centre (PARC)", "State": "Tripura", "Location": "Kakrachera", "CT_no": "THT04", "Latitude": 23.714639, "Longitude": 91.766167, "Altitude": "184", "Grid_no": 83, "CT_loc_ID": "GUM_KAK_CT1", "PA_name": "Gumti", "Range": "Mungiakami", "Beat": "Kakrachera", "Nearest_village": "Bukho para", "Date_of_Deployment": "19-03-2024", "Habitat_type": "-" }, "geometry": { "type": "Point", "coordinates": [ 10215362.982490504160523, 2718673.98227549996227 ] } },
{ "type": "Feature", "properties": { "Sl_no": 84, "Project_partner": "Policy Advocacy and Reasearch Centre (PARC)", "State": "Tripura", "Location": "Kakrachera", "CT_no": "THT07", "Latitude": 23.803111, "Longitude": 91.776972, "Altitude": "-", "Grid_no": 84, "CT_loc_ID": "GUM_KAK_CT2", "PA_name": "Gumti", "Range": "Mungiakami", "Beat": "Kakrachera", "Nearest_village": "Nunachora", "Date_of_Deployment": "19-03-2024", "Habitat_type": "-" }, "geometry": { "type": "Point", "coordinates": [ 10216565.789588525891304, 2729434.615118189714849 ] } },
{ "type": "Feature", "properties": { "Sl_no": 85, "Project_partner": "Policy Advocacy and Reasearch Centre (PARC)", "State": "Tripura", "Location": "Kakrachera", "CT_no": "THT08", "Latitude": 23.803111, "Longitude": 91.776972, "Altitude": "-", "Grid_no": 85, "CT_loc_ID": "GUM_KAK_CT2", "PA_name": "Gumti", "Range": "Mungiakami", "Beat": "Kakrachera", "Nearest_village": "Nunachora", "Date_of_Deployment": "19-03-2024", "Habitat_type": "-" }, "geometry": { "type": "Point", "coordinates": [ 10216565.789588525891304, 2729434.615118189714849 ] } },
{ "type": "Feature", "properties": { "Sl_no": 86, "Project_partner": "Policy Advocacy and Reasearch Centre (PARC)", "State": "Tripura", "Location": "Kakrachera", "CT_no": "THT 11", "Latitude": 23.806111, "Longitude": 91.731111, "Altitude": "-", "Grid_no": 86, "CT_loc_ID": "GUM_KAK_CT3", "PA_name": "Gumti", "Range": "Mungiakami", "Beat": "Kakrachera", "Nearest_village": "Hakudia", "Date_of_Deployment": "19-03-2024", "Habitat_type": "-" }, "geometry": { "type": "Point", "coordinates": [ 10211460.566421255469322, 2729799.626101085916162 ] } },
{ "type": "Feature", "properties": { "Sl_no": 87, "Project_partner": "Policy Advocacy and Reasearch Centre (PARC)", "State": "Tripura", "Location": "Kakrachera", "CT_no": "THT32", "Latitude": 23.806111, "Longitude": 91.731111, "Altitude": "-", "Grid_no": 87, "CT_loc_ID": "GUM_KAK_CT3", "PA_name": "Gumti", "Range": "Mungiakami", "Beat": "Kakrachera", "Nearest_village": "Haludia", "Date_of_Deployment": "19-03-2024", "Habitat_type": "-" }, "geometry": { "type": "Point", "coordinates": [ 10211460.566421255469322, 2729799.626101085916162 ] } },
{ "type": "Feature", "properties": { "Sl_no": 88, "Project_partner": "Policy Advocacy and Reasearch Centre (PARC)", "State": "Tripura", "Location": "Kakrachera", "CT_no": "THT40", "Latitude": 23.783117, "Longitude": 91.741467, "Altitude": "139", "Grid_no": 88, "CT_loc_ID": "GUM_KAK_CT4", "PA_name": "Gumti", "Range": "Mungiakami", "Beat": "Kakrachera", "Nearest_village": "Tikolpara", "Date_of_Deployment": "19-03-2024", "Habitat_type": "-" }, "geometry": { "type": "Point", "coordinates": [ 10212613.391067910939455, 2727002.153845976106822 ] } },
{ "type": "Feature", "properties": { "Sl_no": 89, "Project_partner": "Policy Advocacy and Reasearch Centre (PARC)", "State": "Tripura", "Location": "Kakrachera", "CT_no": "THT38", "Latitude": 23.783117, "Longitude": 91.741467, "Altitude": "139", "Grid_no": 89, "CT_loc_ID": "GUM_KAK_CT4", "PA_name": "Gumti", "Range": "Mungiakami", "Beat": "Kakrachera", "Nearest_village": "Tikolpara", "Date_of_Deployment": "19-03-2024", "Habitat_type": "-" }, "geometry": { "type": "Point", "coordinates": [ 10212613.391067910939455, 2727002.153845976106822 ] } },
{ "type": "Feature", "properties": { "Sl_no": 90, "Project_partner": "Policy Advocacy and Reasearch Centre (PARC)", "State": "Tripura", "Location": "Kakrachera", "CT_no": "THT14", "Latitude": 23.798583, "Longitude": 91.735017, "Altitude": "153", "Grid_no": 90, "CT_loc_ID": "GUM_KAK_CT5", "PA_name": "Gumti", "Range": "Mungiakami", "Beat": "Kakrachera", "Nearest_village": "Kakrachera", "Date_of_Deployment": "19-03-2024", "Habitat_type": "-" }, "geometry": { "type": "Point", "coordinates": [ 10211895.380352294072509, 2728883.707839163485914 ] } },
{ "type": "Feature", "properties": { "Sl_no": 91, "Project_partner": "Policy Advocacy and Reasearch Centre (PARC)", "State": "Tripura", "Location": "Kakrachera", "CT_no": "THT01", "Latitude": 23.765672, "Longitude": 91.727386, "Altitude": "184", "Grid_no": 91, "CT_loc_ID": "GUM_KAK_CT6", "PA_name": "Gumti", "Range": "Mungiakami", "Beat": "Kakrachera", "Nearest_village": "Datamosampara", "Date_of_Deployment": "19-03-2024", "Habitat_type": "-" }, "geometry": { "type": "Point", "coordinates": [ 10211045.901318050920963, 2724880.1083720815368 ] } },
{ "type": "Feature", "properties": { "Sl_no": 92, "Project_partner": "Policy Advocacy and Reasearch Centre (PARC)", "State": "Tripura", "Location": "Kakrachera", "CT_no": "THT09", "Latitude": 23.763978, "Longitude": 91.730617, "Altitude": "203", "Grid_no": 92, "CT_loc_ID": "GUM_KAK_CT5", "PA_name": "Gumti", "Range": "Mungiakami", "Beat": "Kakrachera", "Nearest_village": "Datamosampara", "Date_of_Deployment": "19-03-2024", "Habitat_type": "-" }, "geometry": { "type": "Point", "coordinates": [ 10211405.574592802673578, 2724674.061906079296023 ] } },
{ "type": "Feature", "properties": { "Sl_no": 93, "Project_partner": "Policy Advocacy and Reasearch Centre (PARC)", "State": "Tripura", "Location": "Sarbong", "CT_no": "THT05", "Latitude": 23.606, "Longitude": 91.753944, "Altitude": "138", "Grid_no": 93, "CT_loc_ID": "GUM_SAR_CT1", "PA_name": "Gumti", "Range": "Amarpur", "Beat": "Sarbong", "Nearest_village": "Chandrakumar para", "Date_of_Deployment": "22-03-2024", "Habitat_type": "-" }, "geometry": { "type": "Point", "coordinates": [ 10214002.324354538694024, 2705470.463668102864176 ] } },
{ "type": "Feature", "properties": { "Sl_no": 94, "Project_partner": "Policy Advocacy and Reasearch Centre (PARC)", "State": "Tripura", "Location": "Nutanbazzar", "CT_no": "THT21", "Latitude": 23.489864, "Longitude": 91.775078, "Altitude": "122", "Grid_no": 94, "CT_loc_ID": "GUM_NUT_CT1", "PA_name": "Gumti", "Range": "Amarpur", "Beat": "Nutanbazzar", "Nearest_village": "Tularampara", "Date_of_Deployment": "23-03-2024", "Habitat_type": "-" }, "geometry": { "type": "Point", "coordinates": [ 10216354.950472962111235, 2691367.88447033520788 ] } }
]
}
