{
"type": "FeatureCollection",
"name": "PARC_MH_Grids",
"crs": { "type": "name", "properties": { "name": "urn:ogc:def:crs:EPSG::3857" } },
"xy_coordinate_resolution": 1e-15,
"features": [
{ "type": "Feature", "properties": { "fid": 1, "ogr_Area": 25006968 }, "geometry": { "type": "MultiLineString", "coordinates": [ [ [ 8193449.617929418571293, 2064473.644885121844709, 0.0 ], [ 8198712.699686770327389, 2064513.357515033334494, 0.0 ], [ 8198751.436960928142071, 2059218.893267690902576, 0.0 ], [ 8193489.71107595320791, 2059179.296022720634937, 0.0 ], [ 8193449.617929418571293, 2064473.644885121844709, 0.0 ] ] ] } },
{ "type": "Feature", "properties": { "fid": 2, "ogr_Area": 25006967 }, "geometry": { "type": "MultiLineString", "coordinates": [ [ [ 8193489.71107595320791, 2059179.296022720634937, 0.0 ], [ 8198751.436960928142071, 2059218.893267690902576, 0.0 ], [ 8198790.061465600505471, 2053925.774641480529681, 0.0 ], [ 8193529.687506683170795, 2053886.292644929606467, 0.0 ], [ 8193489.71107595320791, 2059179.296022720634937, 0.0 ] ] ] } },
{ "type": "Feature", "properties": { "fid": 3, "ogr_Area": 25006968 }, "geometry": { "type": "MultiLineString", "coordinates": [ [ [ 8193409.407927821390331, 2069769.343160606920719, 0.0 ], [ 8198673.849508557468653, 2069809.171312448801473, 0.0 ], [ 8198712.699686770327389, 2064513.357515033334494, 0.0 ], [ 8193449.617929418571293, 2064473.644885121844709, 0.0 ], [ 8193409.407927821390331, 2069769.343160606920719, 0.0 ] ] ] } },
{ "type": "Feature", "properties": { "fid": 4, "ogr_Area": 25006967 }, "geometry": { "type": "MultiLineString", "coordinates": [ [ [ 8193609.290775295346975, 2043304.306652817176655, 0.0 ], [ 8198866.972702314145863, 2043343.558560093631968, 0.0 ], [ 8198905.259701107628644, 2038054.453270458616316, 0.0 ], [ 8193648.917889248579741, 2038015.316204977920279, 0.0 ], [ 8193609.290775295346975, 2043304.306652817176655, 0.0 ] ] ] } },
{ "type": "Feature", "properties": { "fid": 5, "ogr_Area": 25006967 }, "geometry": { "type": "MultiLineString", "coordinates": [ [ [ 8193648.917889248579741, 2038015.316204977920279, 0.0 ], [ 8198905.259701107628644, 2038054.453270458616316, 0.0 ], [ 8198943.434463907964528, 2032766.677932969527319, 0.0 ], [ 8193688.428839543834329, 2032727.655574689852074, 0.0 ], [ 8193648.917889248579741, 2038015.316204977920279, 0.0 ] ] ] } },
{ "type": "Feature", "properties": { "fid": 6, "ogr_Area": 25006967 }, "geometry": { "type": "MultiLineString", "coordinates": [ [ [ 8193529.687506683170795, 2053886.292644929606467, 0.0 ], [ 8198790.061465600505471, 2053925.774641480529681, 0.0 ], [ 8198828.573334854096174, 2048633.997712126700208, 0.0 ], [ 8193569.547360370866954, 2048594.630827996414155, 0.0 ], [ 8193529.687506683170795, 2053886.292644929606467, 0.0 ] ] ] } },
{ "type": "Feature", "properties": { "fid": 7, "ogr_Area": 25006967 }, "geometry": { "type": "MultiLineString", "coordinates": [ [ [ 8193569.547360370866954, 2048594.630827996414155, 0.0 ], [ 8198828.573334854096174, 2048633.997712126700208, 0.0 ], [ 8198866.972702314145863, 2043343.558560093631968, 0.0 ], [ 8193609.290775295346975, 2043304.306652817176655, 0.0 ], [ 8193569.547360370866954, 2048594.630827996414155, 0.0 ] ] ] } },
{ "type": "Feature", "properties": { "fid": 8, "ogr_Area": 25003129 }, "geometry": { "type": "MultiLineString", "coordinates": [ [ [ 8172215.110037118196487, 2085490.053575988858938, 0.0 ], [ 8177483.16135885193944, 2085535.756048560841009, 0.0 ], [ 8177527.837014115415514, 2080236.357643557945266, 0.0 ], [ 8172261.156803705729544, 2080190.787052001804113, 0.0 ], [ 8172215.110037118196487, 2085490.053575988858938, 0.0 ] ] ] } },
{ "type": "Feature", "properties": { "fid": 9, "ogr_Area": 25003129 }, "geometry": { "type": "MultiLineString", "coordinates": [ [ [ 8172261.156803705729544, 2080190.787052001804113, 0.0 ], [ 8177527.837014115415514, 2080236.357643557945266, 0.0 ], [ 8177572.383500974625349, 2074938.320021580904722, 0.0 ], [ 8172307.070438751019537, 2074892.881153592374176, 0.0 ], [ 8172261.156803705729544, 2080190.787052001804113, 0.0 ] ] ] } },
{ "type": "Feature", "properties": { "fid": 10, "ogr_Area": 25007850 }, "geometry": { "type": "MultiLineString", "coordinates": [ [ [ 8198712.699686770327389, 2064513.357515033334494, 0.0 ], [ 8203975.894348080269992, 2064551.70397313660942, 0.0 ], [ 8204013.275615316815674, 2059257.128309501102194, 0.0 ], [ 8198751.436960928142071, 2059218.893267690902576, 0.0 ], [ 8198712.699686770327389, 2064513.357515033334494, 0.0 ] ] ] } },
{ "type": "Feature", "properties": { "fid": 11, "ogr_Area": 25003129 }, "geometry": { "type": "MultiLineString", "coordinates": [ [ [ 8172168.929978676140308, 2090790.684670872753486, 0.0 ], [ 8177438.356379641219974, 2090836.519182465039194, 0.0 ], [ 8177483.16135885193944, 2085535.756048560841009, 0.0 ], [ 8172215.110037118196487, 2085490.053575988858938, 0.0 ], [ 8172168.929978676140308, 2090790.684670872753486, 0.0 ] ] ] } },
{ "type": "Feature", "properties": { "fid": 12, "ogr_Area": 25007850 }, "geometry": { "type": "MultiLineString", "coordinates": [ [ [ 8198751.436960928142071, 2059218.893267690902576, 0.0 ], [ 8204013.275615316815674, 2059257.128309501102194, 0.0 ], [ 8204050.548059849999845, 2053963.898398807272315, 0.0 ], [ 8198790.061465600505471, 2053925.774641480529681, 0.0 ], [ 8198751.436960928142071, 2059218.893267690902576, 0.0 ] ] ] } },
{ "type": "Feature", "properties": { "fid": 13, "ogr_Area": 25007850 }, "geometry": { "type": "MultiLineString", "coordinates": [ [ [ 8198673.849508557468653, 2069809.171312448801473, 0.0 ], [ 8203938.404128292575479, 2069847.629319135099649, 0.0 ], [ 8203975.894348080269992, 2064551.70397313660942, 0.0 ], [ 8198712.699686770327389, 2064513.357515033334494, 0.0 ], [ 8198673.849508557468653, 2069809.171312448801473, 0.0 ] ] ] } },
{ "type": "Feature", "properties": { "fid": 14, "ogr_Area": 25003129 }, "geometry": { "type": "MultiLineString", "coordinates": [ [ [ 8172307.070438751019537, 2074892.881153592374176, 0.0 ], [ 8177572.383500974625349, 2074938.320021580904722, 0.0 ], [ 8177616.800974399782717, 2069641.639241515658796, 0.0 ], [ 8172352.851101949810982, 2069596.331940196221694, 0.0 ], [ 8172307.070438751019537, 2074892.881153592374176, 0.0 ] ] ] } },
{ "type": "Feature", "properties": { "fid": 15, "ogr_Area": 25007850 }, "geometry": { "type": "MultiLineString", "coordinates": [ [ [ 8198866.972702314145863, 2043343.558560093631968, 0.0 ], [ 8204124.76699792034924, 2043381.460142061114311, 0.0 ], [ 8204161.713748885318637, 2038092.243960631079972, 0.0 ], [ 8198905.259701107628644, 2038054.453270458616316, 0.0 ], [ 8198866.972702314145863, 2043343.558560093631968, 0.0 ] ] ] } },
{ "type": "Feature", "properties": { "fid": 16, "ogr_Area": 25007850 }, "geometry": { "type": "MultiLineString", "coordinates": [ [ [ 8198905.259701107628644, 2038054.453270458616316, 0.0 ], [ 8204161.713748885318637, 2038092.243960631079972, 0.0 ], [ 8204198.552191996015608, 2032804.357861307216808, 0.0 ], [ 8198943.434463907964528, 2032766.677932969527319, 0.0 ], [ 8198905.259701107628644, 2038054.453270458616316, 0.0 ] ] ] } },
{ "type": "Feature", "properties": { "fid": 17, "ogr_Area": 25007850 }, "geometry": { "type": "MultiLineString", "coordinates": [ [ [ 8198790.061465600505471, 2053925.774641480529681, 0.0 ], [ 8204050.548059849999845, 2053963.898398807272315, 0.0 ], [ 8204087.71181106287986, 2048672.010316346306354, 0.0 ], [ 8198828.573334854096174, 2048633.997712126700208, 0.0 ], [ 8198790.061465600505471, 2053925.774641480529681, 0.0 ] ] ] } },
{ "type": "Feature", "properties": { "fid": 18, "ogr_Area": 25007850 }, "geometry": { "type": "MultiLineString", "coordinates": [ [ [ 8198828.573334854096174, 2048633.997712126700208, 0.0 ], [ 8204087.71181106287986, 2048672.010316346306354, 0.0 ], [ 8204124.76699792034924, 2043381.460142061114311, 0.0 ], [ 8198866.972702314145863, 2043343.558560093631968, 0.0 ], [ 8198828.573334854096174, 2048633.997712126700208, 0.0 ] ] ] } },
{ "type": "Feature", "properties": { "fid": 19, "ogr_Area": 25004135 }, "geometry": { "type": "MultiLineString", "coordinates": [ [ [ 8177483.16135885193944, 2085535.756048560841009, 0.0 ], [ 8182751.342004424892366, 2085580.077015630202368, 0.0 ], [ 8182794.646392847411335, 2080280.550715127959847, 0.0 ], [ 8177527.837014115415514, 2080236.357643557945266, 0.0 ], [ 8177483.16135885193944, 2085535.756048560841009, 0.0 ] ] ] } },
{ "type": "Feature", "properties": { "fid": 20, "ogr_Area": 25004135 }, "geometry": { "type": "MultiLineString", "coordinates": [ [ [ 8177527.837014115415514, 2080236.357643557945266, 0.0 ], [ 8182794.646392847411335, 2080280.550715127959847, 0.0 ], [ 8182837.825576543807983, 2074982.385350345401093, 0.0 ], [ 8177572.383500974625349, 2074938.320021580904722, 0.0 ], [ 8177527.837014115415514, 2080236.357643557945266, 0.0 ] ] ] } },
{ "type": "Feature", "properties": { "fid": 21, "ogr_Area": 25007850 }, "geometry": { "type": "MultiLineString", "coordinates": [ [ [ 8198943.434463907964528, 2032766.677932969527319, 0.0 ], [ 8204198.552191996015608, 2032804.357861307216808, 0.0 ], [ 8204235.282454826869071, 2027517.797938044415787, 0.0 ], [ 8198981.497122914530337, 2027480.228642034111544, 0.0 ], [ 8198943.434463907964528, 2032766.677932969527319, 0.0 ] ] ] } },
{ "type": "Feature", "properties": { "fid": 22, "ogr_Area": 25004135 }, "geometry": { "type": "MultiLineString", "coordinates": [ [ [ 8177438.356379641219974, 2090836.519182465039194, 0.0 ], [ 8182707.912260525859892, 2090880.9681982670445, 0.0 ], [ 8182751.342004424892366, 2085580.077015630202368, 0.0 ], [ 8177483.16135885193944, 2085535.756048560841009, 0.0 ], [ 8177438.356379641219974, 2090836.519182465039194, 0.0 ] ] ] } },
{ "type": "Feature", "properties": { "fid": 23, "ogr_Area": 25008702 }, "geometry": { "type": "MultiLineString", "coordinates": [ [ [ 8204013.275615316815674, 2059257.128309501102194, 0.0 ], [ 8209275.22309232596308, 2059294.001015472924337, 0.0 ], [ 8209311.143347330391407, 2054000.66378472186625, 0.0 ], [ 8204050.548059849999845, 2053963.898398807272315, 0.0 ], [ 8204013.275615316815674, 2059257.128309501102194, 0.0 ] ] ] } },
{ "type": "Feature", "properties": { "fid": 24, "ogr_Area": 25004135 }, "geometry": { "type": "MultiLineString", "coordinates": [ [ [ 8177572.383500974625349, 2074938.320021580904722, 0.0 ], [ 8182837.825576543807983, 2074982.385350345401093, 0.0 ], [ 8182880.879705749452114, 2069685.576979641336948, 0.0 ], [ 8177616.800974399782717, 2069641.639241515658796, 0.0 ], [ 8177572.383500974625349, 2074938.320021580904722, 0.0 ] ] ] } },
{ "type": "Feature", "properties": { "fid": 25, "ogr_Area": 25008702 }, "geometry": { "type": "MultiLineString", "coordinates": [ [ [ 8204124.76699792034924, 2043381.460142061114311, 0.0 ], [ 8209382.66972934268415, 2043418.011267456691712, 0.0 ], [ 8209418.276104448363185, 2038128.688144666841254, 0.0 ], [ 8204161.713748885318637, 2038092.243960631079972, 0.0 ], [ 8204124.76699792034924, 2043381.460142061114311, 0.0 ] ] ] } },
{ "type": "Feature", "properties": { "fid": 26, "ogr_Area": 25008701 }, "geometry": { "type": "MultiLineString", "coordinates": [ [ [ 8204161.713748885318637, 2038092.243960631079972, 0.0 ], [ 8209418.276104448363185, 2038128.688144666841254, 0.0 ], [ 8209453.778100289404392, 2032840.695229341741651, 0.0 ], [ 8204198.552191996015608, 2032804.357861307216808, 0.0 ], [ 8204161.713748885318637, 2038092.243960631079972, 0.0 ] ] ] } },
{ "type": "Feature", "properties": { "fid": 27, "ogr_Area": 25008702 }, "geometry": { "type": "MultiLineString", "coordinates": [ [ [ 8204050.548059849999845, 2053963.898398807272315, 0.0 ], [ 8209311.143347330391407, 2054000.66378472186625, 0.0 ], [ 8209346.958851573057473, 2048708.668508879840374, 0.0 ], [ 8204087.71181106287986, 2048672.010316346306354, 0.0 ], [ 8204050.548059849999845, 2053963.898398807272315, 0.0 ] ] ] } },
{ "type": "Feature", "properties": { "fid": 28, "ogr_Area": 25008702 }, "geometry": { "type": "MultiLineString", "coordinates": [ [ [ 8204087.71181106287986, 2048672.010316346306354, 0.0 ], [ 8209346.958851573057473, 2048708.668508879840374, 0.0 ], [ 8209382.66972934268415, 2043418.011267456691712, 0.0 ], [ 8204124.76699792034924, 2043381.460142061114311, 0.0 ], [ 8204087.71181106287986, 2048672.010316346306354, 0.0 ] ] ] } },
{ "type": "Feature", "properties": { "fid": 29, "ogr_Area": 25005110 }, "geometry": { "type": "MultiLineString", "coordinates": [ [ [ 8182751.342004424892366, 2085580.077015630202368, 0.0 ], [ 8188019.648005395196378, 2085623.016322974814102, 0.0 ], [ 8188061.580976208671927, 2080323.366113021969795, 0.0 ], [ 8182794.646392847411335, 2080280.550715127959847, 0.0 ], [ 8182751.342004424892366, 2085580.077015630202368, 0.0 ] ] ] } },
{ "type": "Feature", "properties": { "fid": 30, "ogr_Area": 25005110 }, "geometry": { "type": "MultiLineString", "coordinates": [ [ [ 8182794.646392847411335, 2080280.550715127959847, 0.0 ], [ 8188061.580976208671927, 2080323.366113021969795, 0.0 ], [ 8188103.392706514336169, 2075025.076986740343273, 0.0 ], [ 8182837.825576543807983, 2074982.385350345401093, 0.0 ], [ 8182794.646392847411335, 2080280.550715127959847, 0.0 ] ] ] } },
{ "type": "Feature", "properties": { "fid": 31, "ogr_Area": 25008701 }, "geometry": { "type": "MultiLineString", "coordinates": [ [ [ 8204198.552191996015608, 2032804.357861307216808, 0.0 ], [ 8209453.778100289404392, 2032840.695229341741651, 0.0 ], [ 8209489.175839826464653, 2027554.028614972252399, 0.0 ], [ 8204235.282454826869071, 2027517.797938044415787, 0.0 ], [ 8204198.552191996015608, 2032804.357861307216808, 0.0 ] ] ] } },
{ "type": "Feature", "properties": { "fid": 32, "ogr_Area": 25005110 }, "geometry": { "type": "MultiLineString", "coordinates": [ [ [ 8182707.912260525859892, 2090880.9681982670445, 0.0 ], [ 8187977.593648078851402, 2090924.031563530443236, 0.0 ], [ 8188019.648005395196378, 2085623.016322974814102, 0.0 ], [ 8182751.342004424892366, 2085580.077015630202368, 0.0 ], [ 8182707.912260525859892, 2090880.9681982670445, 0.0 ] ] ] } },
{ "type": "Feature", "properties": { "fid": 33, "ogr_Area": 25005110 }, "geometry": { "type": "MultiLineString", "coordinates": [ [ [ 8182837.825576543807983, 2074982.385350345401093, 0.0 ], [ 8188103.392706514336169, 2075025.076986740343273, 0.0 ], [ 8188145.083341809920967, 2069728.145001961616799, 0.0 ], [ 8182880.879705749452114, 2069685.576979641336948, 0.0 ], [ 8182837.825576543807983, 2074982.385350345401093, 0.0 ] ] ] } },
{ "type": "Feature", "properties": { "fid": 34, "ogr_Area": 25005110 }, "geometry": { "type": "MultiLineString", "coordinates": [ [ [ 8182880.879705749452114, 2069685.576979641336948, 0.0 ], [ 8188145.083341809920967, 2069728.145001961616799, 0.0 ], [ 8188186.653027039952576, 2064432.566221268381923, 0.0 ], [ 8182923.808930179104209, 2064390.121666109887883, 0.0 ], [ 8182880.879705749452114, 2069685.576979641336948, 0.0 ] ] ] } },
{ "type": "Feature", "properties": { "fid": 35, "ogr_Area": 25006054 }, "geometry": { "type": "MultiLineString", "coordinates": [ [ [ 8188019.648005395196378, 2085623.016322974814102, 0.0 ], [ 8193288.075392766855657, 2085664.573821159778163, 0.0 ], [ 8193328.636799984611571, 2080364.80368833639659, 0.0 ], [ 8188061.580976208671927, 2080323.366113021969795, 0.0 ], [ 8188019.648005395196378, 2085623.016322974814102, 0.0 ] ] ] } },
{ "type": "Feature", "properties": { "fid": 36, "ogr_Area": 25006054 }, "geometry": { "type": "MultiLineString", "coordinates": [ [ [ 8188061.580976208671927, 2080323.366113021969795, 0.0 ], [ 8193328.636799984611571, 2080364.80368833639659, 0.0 ], [ 8193369.080931417644024, 2075066.394782366929576, 0.0 ], [ 8188103.392706514336169, 2075025.076986740343273, 0.0 ], [ 8188061.580976208671927, 2080323.366113021969795, 0.0 ] ] ] } },
{ "type": "Feature", "properties": { "fid": 37, "ogr_Area": 25006054 }, "geometry": { "type": "MultiLineString", "coordinates": [ [ [ 8187977.593648078851402, 2090924.031563530443236, 0.0 ], [ 8193247.396568554453552, 2090965.70912827597931, 0.0 ], [ 8193288.075392766855657, 2085664.573821159778163, 0.0 ], [ 8188019.648005395196378, 2085623.016322974814102, 0.0 ], [ 8187977.593648078851402, 2090924.031563530443236, 0.0 ] ] ] } },
{ "type": "Feature", "properties": { "fid": 38, "ogr_Area": 25006054 }, "geometry": { "type": "MultiLineString", "coordinates": [ [ [ 8188186.653027039952576, 2064432.566221268381923, 0.0 ], [ 8193449.617929418571293, 2064473.644885121844709, 0.0 ], [ 8193489.71107595320791, 2059179.296022720634937, 0.0 ], [ 8188228.101906702853739, 2059138.336711969925091, 0.0 ], [ 8188186.653027039952576, 2064432.566221268381923, 0.0 ] ] ] } },
{ "type": "Feature", "properties": { "fid": 39, "ogr_Area": 25006054 }, "geometry": { "type": "MultiLineString", "coordinates": [ [ [ 8188103.392706514336169, 2075025.076986740343273, 0.0 ], [ 8193369.080931417644024, 2075066.394782366929576, 0.0 ], [ 8193409.407927821390331, 2069769.343160606920719, 0.0 ], [ 8188145.083341809920967, 2069728.145001961616799, 0.0 ], [ 8188103.392706514336169, 2075025.076986740343273, 0.0 ] ] ] } },
{ "type": "Feature", "properties": { "fid": 40, "ogr_Area": 25006054 }, "geometry": { "type": "MultiLineString", "coordinates": [ [ [ 8188145.083341809920967, 2069728.145001961616799, 0.0 ], [ 8193409.407927821390331, 2069769.343160606920719, 0.0 ], [ 8193449.617929418571293, 2064473.644885121844709, 0.0 ], [ 8188186.653027039952576, 2064432.566221268381923, 0.0 ], [ 8188145.083341809920967, 2069728.145001961616799, 0.0 ] ] ] } },
{ "type": "Feature", "properties": { "fid": 41, "ogr_Area": 25006968 }, "geometry": { "type": "MultiLineString", "coordinates": [ [ [ 8193288.075392766855657, 2085664.573821159778163, 0.0 ], [ 8198556.620197053998709, 2085704.7493655460421, 0.0 ], [ 8198595.809899447485805, 2080404.863296933472157, 0.0 ], [ 8193328.636799984611571, 2080364.80368833639659, 0.0 ], [ 8193288.075392766855657, 2085664.573821159778163, 0.0 ] ] ] } },
{ "type": "Feature", "properties": { "fid": 42, "ogr_Area": 25006968 }, "geometry": { "type": "MultiLineString", "coordinates": [ [ [ 8193247.396568554453552, 2090965.70912827597931, 0.0 ], [ 8198517.317047664895654, 2091006.000747386133298, 0.0 ], [ 8198556.620197053998709, 2085704.7493655460421, 0.0 ], [ 8193288.075392766855657, 2085664.573821159778163, 0.0 ], [ 8193247.396568554453552, 2090965.70912827597931, 0.0 ] ] ] } },
{ "type": "Feature", "properties": { "fid": 43, "ogr_Area": null }, "geometry": { "type": "MultiLineString", "coordinates": [ [ [ 8193290.981019727885723, 2080430.752943885745481, 0.0 ], [ 8198558.170427217148244, 2080470.823720530141145, 0.0 ], [ 8198597.257882169447839, 2075172.282827810849994, 0.0 ], [ 8193331.436262829229236, 2075132.327878325711936, 0.0 ], [ 8193290.981019727885723, 2080430.752943885745481, 0.0 ] ] ] } },
{ "type": "Feature", "properties": { "fid": 44, "ogr_Area": null }, "geometry": { "type": "MultiLineString", "coordinates": [ [ [ 8209366.348605369217694, 2048729.273402620805427, 0.0 ], [ 8214625.705862470902503, 2048764.572425813181326, 0.0 ], [ 8214660.067704394459724, 2043473.806527743814513, 0.0 ], [ 8209402.05489588342607, 2043438.610601936234161, 0.0 ], [ 8209366.348605369217694, 2048729.273402620805427, 0.0 ] ] ] } },
{ "type": "Feature", "properties": { "fid": 45, "ogr_Area": null }, "geometry": { "type": "MultiLineString", "coordinates": [ [ [ 8209402.05489588342607, 2043438.610601936234161, 0.0 ], [ 8214660.067704394459724, 2043473.806527743814513, 0.0 ], [ 8214694.32899147644639, 2038184.374885033117607, 0.0 ], [ 8209437.656697874888778, 2038149.281935475766659, 0.0 ], [ 8209402.05489588342607, 2043438.610601936234161, 0.0 ] ] ] } }
]
}
