{
"type": "FeatureCollection",
"name": "parc_mh",
"crs": { "type": "name", "properties": { "name": "urn:ogc:def:crs:EPSG::3857" } },
"xy_coordinate_resolution": 1e-15,
"features": [
{ "type": "Feature", "properties": { "Sl_no": 1, "Project_partner": "Policy Advocacy and Reasearch Centre (PARC)", "State": "Maharastra", "Location": "Tamhini khind", "CT_no": "T59, T72", "Latitude": 18.42765, "Longitude": 73.45266, "Altitude": 853, "Grid_no": "1", "CT_loc_ID": "T59, T72", "PA_name": "-", "Range": "Paud", "Beat": "Tamhini khind", "Nearest_village": "Tamhini khind", "Date_of_Deployment": "18-05-2025", "Habitat_type": "Open forest" }, "geometry": { "type": "Point", "coordinates": [ 8176712.708611452952027, 2087665.485546292737126 ] } },
{ "type": "Feature", "properties": { "Sl_no": 2, "Project_partner": "Policy Advocacy and Reasearch Centre (PARC)", "State": "Maharastra", "Location": "Mugaon, Bhuini", "CT_no": "T49, T50", "Latitude": 18.432683, "Longitude": 73.501483, "Altitude": 1110, "Grid_no": "2", "CT_loc_ID": "T49, T50", "PA_name": "-", "Range": "Paud", "Beat": "Mugaon", "Nearest_village": "Mugaon", "Date_of_Deployment": "18-05-2025", "Habitat_type": "Plateau" }, "geometry": { "type": "Point", "coordinates": [ 8182147.660110453143716, 2088256.04660372924991 ] } },
{ "type": "Feature", "properties": { "Sl_no": 3, "Project_partner": "Policy Advocacy and Reasearch Centre (PARC)", "State": "Maharastra", "Location": "Temghar", "CT_no": "T76, T73", "Latitude": 18.42785, "Longitude": 73.5221, "Altitude": 1081, "Grid_no": "3", "CT_loc_ID": "T76, T73", "PA_name": "-", "Range": "Paud", "Beat": "Temgahr", "Nearest_village": "Temgahr", "Date_of_Deployment": "18-05-2025", "Habitat_type": "Fairly dense near the road" }, "geometry": { "type": "Point", "coordinates": [ 8184442.734052137471735, 2087688.952772904187441 ] } },
{ "type": "Feature", "properties": { "Sl_no": 4, "Project_partner": "Policy Advocacy and Reasearch Centre (PARC)", "State": "Maharastra", "Location": "Watunde", "CT_no": "T41, T34", "Latitude": 18.42932, "Longitude": 73.59072, "Altitude": 987, "Grid_no": "4", "CT_loc_ID": "T41, T34", "PA_name": "-", "Range": "Paud", "Beat": "Watunde (Wajale)", "Nearest_village": "Watunde (Wajale)", "Date_of_Deployment": "22-05-2025", "Habitat_type": "Dried stream below plateau" }, "geometry": { "type": "Point", "coordinates": [ 8192081.477510373108089, 2087861.437726075062528 ] } },
{ "type": "Feature", "properties": { "Sl_no": 5, "Project_partner": "Policy Advocacy and Reasearch Centre (PARC)", "State": "Maharastra", "Location": "Mutha", "CT_no": "T48, T77", "Latitude": 18.42691, "Longitude": 73.60954, "Altitude": 971, "Grid_no": "5", "CT_loc_ID": "T48, T77", "PA_name": "-", "Range": "Paud", "Beat": "Mutha, Malegaon", "Nearest_village": "Mutha, Malegaon", "Date_of_Deployment": "19-05-2025", "Habitat_type": "Heavily disturbed forest" }, "geometry": { "type": "Point", "coordinates": [ 8194176.510327102616429, 2087578.65704514621757 ] } },
{ "type": "Feature", "properties": { "Sl_no": 6, "Project_partner": "Policy Advocacy and Reasearch Centre (PARC)", "State": "Maharastra", "Location": "Dhamanohol", "CT_no": "T53, T42", "Latitude": 18.37666, "Longitude": 73.43561, "Altitude": 718, "Grid_no": "6", "CT_loc_ID": "T53, T42", "PA_name": "-", "Range": "Paud", "Beat": "Paud", "Nearest_village": "Paud", "Date_of_Deployment": "17-05-2025", "Habitat_type": "Dense forest" }, "geometry": { "type": "Point", "coordinates": [ 8174814.711293428204954, 2081683.405676222871989 ] } },
{ "type": "Feature", "properties": { "Sl_no": 7, "Project_partner": "Policy Advocacy and Reasearch Centre (PARC)", "State": "Maharastra", "Location": "Sakhri", "CT_no": "T74, T78", "Latitude": 18.3755, "Longitude": 73.4855, "Altitude": 1028, "Grid_no": "7", "CT_loc_ID": "T74, T78", "PA_name": "-", "Range": "Paud", "Beat": "Dhadavali", "Nearest_village": "Dhadavali", "Date_of_Deployment": "18-05-2025", "Habitat_type": "Dense forest" }, "geometry": { "type": "Point", "coordinates": [ 8180368.440689104609191, 2081547.336592301493511 ] } },
{ "type": "Feature", "properties": { "Sl_no": 8, "Project_partner": "Policy Advocacy and Reasearch Centre (PARC)", "State": "Maharastra", "Location": "Daswe", "CT_no": "T40, T37", "Latitude": 18.396533, "Longitude": 73.53095, "Altitude": 815, "Grid_no": "8", "CT_loc_ID": "T40, T37", "PA_name": "-", "Range": "Paud", "Beat": "Daswe", "Nearest_village": "Daswe", "Date_of_Deployment": "17-05-2025", "Habitat_type": "Dense forest" }, "geometry": { "type": "Point", "coordinates": [ 8185427.911545660346746, 2084014.669343586312607 ] } },
{ "type": "Feature", "properties": { "Sl_no": 9, "Project_partner": "Policy Advocacy and Reasearch Centre (PARC)", "State": "Maharastra", "Location": "Mose Budruk", "CT_no": "T38, T43", "Latitude": 18.401247, "Longitude": 73.577466, "Altitude": 762, "Grid_no": "9", "CT_loc_ID": "T38, T43", "PA_name": "-", "Range": "Velhe", "Beat": "Ambegaon", "Nearest_village": "Ambegaon", "Date_of_Deployment": "17-05-2025", "Habitat_type": "Degraded forest" }, "geometry": { "type": "Point", "coordinates": [ 8190606.048979398794472, 2084567.699129982618615 ] } },
{ "type": "Feature", "properties": { "Sl_no": 10, "Project_partner": "Policy Advocacy and Reasearch Centre (PARC)", "State": "Maharastra", "Location": "Varasgaon", "CT_no": "T58, T71", "Latitude": 18.40954, "Longitude": 73.61309, "Altitude": 703, "Grid_no": "10", "CT_loc_ID": "T58, T71", "PA_name": "-", "Range": "Velhe", "Beat": "Ambegaon", "Nearest_village": "Ambegaon", "Date_of_Deployment": "17-05-2025", "Habitat_type": "Degraded forest" }, "geometry": { "type": "Point", "coordinates": [ 8194571.69451941922307, 2085540.641263964120299 ] } },
{ "type": "Feature", "properties": { "Sl_no": 11, "Project_partner": "Policy Advocacy and Reasearch Centre (PARC)", "State": "Maharastra", "Location": "Dapsare", "CT_no": "T57, T51", "Latitude": 18.32503, "Longitude": 73.42785, "Altitude": 716, "Grid_no": "11", "CT_loc_ID": "T57, T51", "PA_name": "-", "Range": "Velhe", "Beat": "Dapsare", "Nearest_village": "Dapsare", "Date_of_Deployment": "16-05-2025", "Habitat_type": "Near water stream" }, "geometry": { "type": "Point", "coordinates": [ 8173950.872044873423874, 2075628.043547000735998 ] } },
{ "type": "Feature", "properties": { "Sl_no": 12, "Project_partner": "Policy Advocacy and Reasearch Centre (PARC)", "State": "Maharastra", "Location": "Gondekhal", "CT_no": "T39, T47", "Latitude": 18.347855, "Longitude": 73.478957, "Altitude": 765, "Grid_no": "12", "CT_loc_ID": "T39, T47", "PA_name": "-", "Range": "Velhe", "Beat": "Ambegaon", "Nearest_village": "Ambegaon", "Date_of_Deployment": "16-05-2025", "Habitat_type": "Dense forest adjoining stream" }, "geometry": { "type": "Point", "coordinates": [ 8179640.077260843478143, 2078304.822880811523646 ] } },
{ "type": "Feature", "properties": { "Sl_no": 13, "Project_partner": "Policy Advocacy and Reasearch Centre (PARC)", "State": "Maharastra", "Location": "Kashedi", "CT_no": "T45, T36", "Latitude": 18.35141, "Longitude": 73.52383, "Altitude": 705, "Grid_no": "13", "CT_loc_ID": "T45, T36", "PA_name": "-", "Range": "Velhe", "Beat": "Mangaon", "Nearest_village": "Mangaon", "Date_of_Deployment": "16-05-2025", "Habitat_type": "Dense forest, road nearby" }, "geometry": { "type": "Point", "coordinates": [ 8184635.316771212033927, 2078721.763814039761201 ] } },
{ "type": "Feature", "properties": { "Sl_no": 14, "Project_partner": "Policy Advocacy and Reasearch Centre (PARC)", "State": "Maharastra", "Location": "Kadve ghat", "CT_no": "T56, T55", "Latitude": 18.333494, "Longitude": 73.58741, "Altitude": 988, "Grid_no": "14", "CT_loc_ID": "T56, T55", "PA_name": "-", "Range": "Velhe", "Beat": "Mangaon", "Nearest_village": "Mangaon", "Date_of_Deployment": "16-05-2025", "Habitat_type": "Open forest" }, "geometry": { "type": "Point", "coordinates": [ 8191713.009995847940445, 2076620.609562716446817 ] } },
{ "type": "Feature", "properties": { "Sl_no": 15, "Project_partner": "Policy Advocacy and Reasearch Centre (PARC)", "State": "Maharastra", "Location": "Khanu", "CT_no": "T44, T54", "Latitude": 18.305908, "Longitude": 73.4919, "Altitude": 911, "Grid_no": "16", "CT_loc_ID": "T44, T54", "PA_name": "-", "Range": "Velhe", "Beat": "Harpud", "Nearest_village": "Harpud", "Date_of_Deployment": "16-05-2025", "Habitat_type": "Open forest" }, "geometry": { "type": "Point", "coordinates": [ 8181080.88543018233031, 2073385.80176517739892 ] } },
{ "type": "Feature", "properties": { "Sl_no": 16, "Project_partner": "Policy Advocacy and Reasearch Centre (PARC)", "State": "Maharastra", "Location": "Pole", "CT_no": "T52, T35", "Latitude": 18.311322, "Longitude": 73.539948, "Altitude": 899, "Grid_no": "17", "CT_loc_ID": "T52, T35", "PA_name": "-", "Range": "Velhe", "Beat": "Mangaon", "Nearest_village": "Mangaon", "Date_of_Deployment": "16-05-2025", "Habitat_type": "Open forest" }, "geometry": { "type": "Point", "coordinates": [ 8186429.56432381644845, 2074020.621153840096667 ] } },
{ "type": "Feature", "properties": { "Sl_no": 17, "Project_partner": "Policy Advocacy and Reasearch Centre (PARC)", "State": "Maharastra", "Location": "Gevande", "CT_no": "T86, T70", "Latitude": 18.282553, "Longitude": 73.567018, "Altitude": 875, "Grid_no": "18", "CT_loc_ID": "T86, T70", "PA_name": "-", "Range": "Velhe", "Beat": "Dhanep", "Nearest_village": "Dhanep", "Date_of_Deployment": "15-05-2025", "Habitat_type": "Dense forest adjoining open forest & plateau" }, "geometry": { "type": "Point", "coordinates": [ 8189442.982939591631293, 2070647.535071029094979 ] } },
{ "type": "Feature", "properties": { "Sl_no": 18, "Project_partner": "Policy Advocacy and Reasearch Centre (PARC)", "State": "Maharastra", "Location": "Harpud", "CT_no": "T75, T64", "Latitude": 18.260043, "Longitude": 73.531322, "Altitude": 755, "Grid_no": "19", "CT_loc_ID": "T75, T64", "PA_name": "-", "Range": "Velhe", "Beat": "Harpud", "Nearest_village": "Harpud", "Date_of_Deployment": "15-05-2025", "Habitat_type": "Near water stream" }, "geometry": { "type": "Point", "coordinates": [ 8185469.322396234609187, 2068008.689727730117738 ] } },
{ "type": "Feature", "properties": { "Sl_no": 19, "Project_partner": "Policy Advocacy and Reasearch Centre (PARC)", "State": "Maharastra", "Location": "Kolambi", "CT_no": "T87, T80", "Latitude": 18.2661, "Longitude": 73.59581, "Altitude": 808, "Grid_no": "20", "CT_loc_ID": "T87, T80", "PA_name": "-", "Range": "Velhe", "Beat": "Harpud", "Nearest_village": "Harpud", "Date_of_Deployment": "15-05-2025", "Habitat_type": "Dense forest, hill near water body" }, "geometry": { "type": "Point", "coordinates": [ 8192648.09371851105243, 2068718.717654786538333 ] } },
{ "type": "Feature", "properties": { "Sl_no": 20, "Project_partner": "Policy Advocacy and Reasearch Centre (PARC)", "State": "Maharastra", "Location": "Khopadewadi", "CT_no": "T68, T66", "Latitude": 18.25382, "Longitude": 73.62093, "Altitude": 936, "Grid_no": "21", "CT_loc_ID": "T68, T66", "PA_name": "-", "Range": "Velhe", "Beat": "Velhe", "Nearest_village": "Velhe", "Date_of_Deployment": "14-05-2025", "Habitat_type": "Dense forest (junction)" }, "geometry": { "type": "Point", "coordinates": [ 8195444.439327238127589, 2067279.228350135730579 ] } },
{ "type": "Feature", "properties": { "Sl_no": 21, "Project_partner": "Policy Advocacy and Reasearch Centre (PARC)", "State": "Maharastra", "Location": "Pali", "CT_no": "T83, T89", "Latitude": 18.24644, "Longitude": 73.6632, "Altitude": 961, "Grid_no": "22", "CT_loc_ID": "T83, T89", "PA_name": "-", "Range": "Velhe", "Beat": "Gunjavane", "Nearest_village": "Gunjavane", "Date_of_Deployment": "14-05-2025", "Habitat_type": "Dense forest" }, "geometry": { "type": "Point", "coordinates": [ 8200149.914203070104122, 2066414.177056793589145 ] } },
{ "type": "Feature", "properties": { "Sl_no": 22, "Project_partner": "Policy Advocacy and Reasearch Centre (PARC)", "State": "Maharastra", "Location": "Kelad", "CT_no": "T81, T82", "Latitude": 18.19847, "Longitude": 73.57525, "Altitude": 644, "Grid_no": "23", "CT_loc_ID": "T81, T82", "PA_name": "-", "Range": "Bhor", "Beat": "Kelad", "Nearest_village": "Kelad", "Date_of_Deployment": "15-05-2025", "Habitat_type": "Dense forest (junction)" }, "geometry": { "type": "Point", "coordinates": [ 8190359.364987800829113, 2060792.238246253924444 ] } },
{ "type": "Feature", "properties": { "Sl_no": 23, "Project_partner": "Policy Advocacy and Reasearch Centre (PARC)", "State": "Maharastra", "Location": "Kumbale", "CT_no": "T13, T17", "Latitude": 18.20818, "Longitude": 73.631333, "Altitude": 792, "Grid_no": "24", "CT_loc_ID": "T13, T17", "PA_name": "-", "Range": "Bhor", "Beat": "Kumbale", "Nearest_village": "Kumbale", "Date_of_Deployment": "14-05-2025", "Habitat_type": "Road" }, "geometry": { "type": "Point", "coordinates": [ 8196602.495989960618317, 2061930.095808986574411 ] } },
{ "type": "Feature", "properties": { "Sl_no": 24, "Project_partner": "Policy Advocacy and Reasearch Centre (PARC)", "State": "Maharastra", "Location": "Dhere", "CT_no": "T85, T69", "Latitude": 18.20197, "Longitude": 73.68709, "Altitude": 718, "Grid_no": "25", "CT_loc_ID": "T85, T69", "PA_name": "-", "Range": "Bhor", "Beat": "Dhere", "Nearest_village": "Dhere", "Date_of_Deployment": "14-05-2025", "Habitat_type": "Dense forest, hill near water body" }, "geometry": { "type": "Point", "coordinates": [ 8202809.336838121525943, 2061202.375269860727713 ] } },
{ "type": "Feature", "properties": { "Sl_no": 25, "Project_partner": "Policy Advocacy and Reasearch Centre (PARC)", "State": "Maharastra", "Location": "Sanghvi Village", "CT_no": "T16, T23", "Latitude": 18.169233, "Longitude": 73.659117, "Altitude": 606, "Grid_no": "27", "CT_loc_ID": "T16, T23", "PA_name": "-", "Range": "Bhor", "Beat": "Sanghavi Village", "Nearest_village": "Sanghavi Village", "Date_of_Deployment": "13-05-2025", "Habitat_type": "Cliff" }, "geometry": { "type": "Point", "coordinates": [ 8199695.396722159348428, 2057366.509507379960269 ] } },
{ "type": "Feature", "properties": { "Sl_no": 26, "Project_partner": "Policy Advocacy and Reasearch Centre (PARC)", "State": "Maharastra", "Location": "Panghare, Dehen", "CT_no": "T32 T90", "Latitude": 18.16239, "Longitude": 73.71837, "Altitude": 1039, "Grid_no": "28", "CT_loc_ID": "T32 T90", "PA_name": "-", "Range": "Bhor", "Beat": "Velvand", "Nearest_village": "Velvand", "Date_of_Deployment": "13-05-2025", "Habitat_type": "Semi decidious forest" }, "geometry": { "type": "Point", "coordinates": [ 8206291.410510133951902, 2056564.791189974406734 ] } },
{ "type": "Feature", "properties": { "Sl_no": 27, "Project_partner": "Policy Advocacy and Reasearch Centre (PARC)", "State": "Maharastra", "Location": "Ashimpi", "CT_no": "T61, T3", "Latitude": 18.117182, "Longitude": 73.6375, "Altitude": 833, "Grid_no": "29", "CT_loc_ID": "T61, T3", "PA_name": "-", "Range": "Bhor", "Beat": "-", "Nearest_village": "-", "Date_of_Deployment": "13-05-2025", "Habitat_type": "Decidious, sloppy area" }, "geometry": { "type": "Point", "coordinates": [ 8197289.003289682790637, 2051269.060454995138571 ] } },
{ "type": "Feature", "properties": { "Sl_no": 28, "Project_partner": "Policy Advocacy and Reasearch Centre (PARC)", "State": "Maharastra", "Location": "Hirdoshi", "CT_no": "T67, T63", "Latitude": 18.12127, "Longitude": 73.67462, "Altitude": 831, "Grid_no": "30", "CT_loc_ID": "T67, T63", "PA_name": "-", "Range": "Bhor", "Beat": "Hirdoshi", "Nearest_village": "Hirdoshi", "Date_of_Deployment": "14-05-2025", "Habitat_type": "Moist/Scrub, Secondary forest" }, "geometry": { "type": "Point", "coordinates": [ 8201421.182787929661572, 2051747.878433031029999 ] } },
{ "type": "Feature", "properties": { "Sl_no": 29, "Project_partner": "Policy Advocacy and Reasearch Centre (PARC)", "State": "Maharastra", "Location": "Devghar", "CT_no": "T7, T20", "Latitude": 18.1093, "Longitude": 73.7123, "Altitude": 791, "Grid_no": "31", "CT_loc_ID": "T7, T20", "PA_name": "-", "Range": "Bhor", "Beat": "Aapti", "Nearest_village": "Aapti", "Date_of_Deployment": "14-05-2025", "Habitat_type": "Degraded Forest" }, "geometry": { "type": "Point", "coordinates": [ 8205615.70120101980865, 2050345.891587521182373 ] } },
{ "type": "Feature", "properties": { "Sl_no": 30, "Project_partner": "Policy Advocacy and Reasearch Centre (PARC)", "State": "Maharastra", "Location": "Kudali (Durgadi)", "CT_no": "T28, T8", "Latitude": 18.0689, "Longitude": 73.625, "Altitude": 848, "Grid_no": "32", "CT_loc_ID": "T28, T8", "PA_name": "-", "Range": "Bhor", "Beat": "Kudali", "Nearest_village": "Kudali", "Date_of_Deployment": "13-05-2025", "Habitat_type": "Decidious Forest" }, "geometry": { "type": "Point", "coordinates": [ 8195897.509654766879976, 2045614.746329996502027 ] } },
{ "type": "Feature", "properties": { "Sl_no": 31, "Project_partner": "Policy Advocacy and Reasearch Centre (PARC)", "State": "Maharastra", "Location": "Parhar Khurd village", "CT_no": "T24, T31", "Latitude": 18.080365, "Longitude": 73.678173, "Altitude": 782, "Grid_no": "33", "CT_loc_ID": "T24, T31", "PA_name": "-", "Range": "Bhor", "Beat": "Salav", "Nearest_village": "Salav", "Date_of_Deployment": "13-05-2025", "Habitat_type": "Fairly open forest, Forest fire in recent month near river end" }, "geometry": { "type": "Point", "coordinates": [ 8201816.700938717462122, 2046957.273740466451272 ] } },
{ "type": "Feature", "properties": { "Sl_no": 32, "Project_partner": "Policy Advocacy and Reasearch Centre (PARC)", "State": "Maharastra", "Location": "Rayari", "CT_no": "T21, T18", "Latitude": 18.06706, "Longitude": 73.71854, "Altitude": 811, "Grid_no": "34", "CT_loc_ID": "T21, T18", "PA_name": "-", "Range": "Bhor", "Beat": "Rayi Beat, Dharambe village", "Nearest_village": "Rayi Beat, Dharambe village", "Date_of_Deployment": "13-05-2025", "Habitat_type": "-" }, "geometry": { "type": "Point", "coordinates": [ 8206310.334823570214212, 2045399.29435919621028 ] } },
{ "type": "Feature", "properties": { "Sl_no": 33, "Project_partner": "Policy Advocacy and Reasearch Centre (PARC)", "State": "Maharastra", "Location": "Umbartha", "CT_no": "T4, T27", "Latitude": 18.017967, "Longitude": 73.6643, "Altitude": 907, "Grid_no": "36", "CT_loc_ID": "T4, T27", "PA_name": "-", "Range": "Wai", "Beat": "Jambhali", "Nearest_village": "Jambhali", "Date_of_Deployment": "12-05-2025", "Habitat_type": "Dense forest" }, "geometry": { "type": "Point", "coordinates": [ 8200272.365642942488194, 2039651.657646468607709 ] } },
{ "type": "Feature", "properties": { "Sl_no": 34, "Project_partner": "Policy Advocacy and Reasearch Centre (PARC)", "State": "Maharastra", "Location": "Washivali", "CT_no": "T29, T14", "Latitude": 18.01404, "Longitude": 73.71376, "Altitude": 108, "Grid_no": "37", "CT_loc_ID": "T29, T14", "PA_name": "-", "Range": "Wai", "Beat": "Washivali", "Nearest_village": "Washivali", "Date_of_Deployment": "12-05-2025", "Habitat_type": "Plateau" }, "geometry": { "type": "Point", "coordinates": [ 8205778.227657576091588, 2039191.967473369790241 ] } },
{ "type": "Feature", "properties": { "Sl_no": 35, "Project_partner": "Policy Advocacy and Reasearch Centre (PARC)", "State": "Maharastra", "Location": "Kshetra Mahabaleshwar (Arthur Point)", "CT_no": "T6, T15", "Latitude": 17.968433, "Longitude": 73.640467, "Altitude": 1202, "Grid_no": "38", "CT_loc_ID": "T6, T15", "PA_name": "-", "Range": "Mahabaleshwar", "Beat": "Shetra Mahabaleshwar", "Nearest_village": "Shetra Mahabaleshwar", "Date_of_Deployment": "12-05-2025", "Habitat_type": "Plateau" }, "geometry": { "type": "Point", "coordinates": [ 8197619.288218866102397, 2033854.013467191951349 ] } },
{ "type": "Feature", "properties": { "Sl_no": 36, "Project_partner": "Policy Advocacy and Reasearch Centre (PARC)", "State": "Maharastra", "Location": "Jor/ Golewadi", "CT_no": "T12, T19", "Latitude": 17.984386, "Longitude": 73.667267, "Altitude": 860, "Grid_no": "39", "CT_loc_ID": "T12, T19", "PA_name": "-", "Range": "Wai", "Beat": "-", "Nearest_village": "-", "Date_of_Deployment": "12-05-2025", "Habitat_type": "Plateau, Dry deciduous forest with a dry stream running down to the river" }, "geometry": { "type": "Point", "coordinates": [ 8200602.650572124868631, 2035721.034426054451615 ] } },
{ "type": "Feature", "properties": { "Sl_no": 37, "Project_partner": "Policy Advocacy and Reasearch Centre (PARC)", "State": "Maharastra", "Location": "Kondhawale", "CT_no": "T5, T9", "Latitude": 17.98483, "Longitude": 73.71862, "Altitude": 1169, "Grid_no": "40", "CT_loc_ID": "T5, T9", "PA_name": "-", "Range": "Wai", "Beat": "Vadoli", "Nearest_village": "Vadoli", "Date_of_Deployment": "12-05-2025", "Habitat_type": "Moist Evergreen" }, "geometry": { "type": "Point", "coordinates": [ 8206319.240382833406329, 2035772.999310371698812 ] } },
{ "type": "Feature", "properties": { "Sl_no": 38, "Project_partner": "Policy Advocacy and Reasearch Centre (PARC)", "State": "Maharastra", "Location": "Nakinda", "CT_no": "T25, T11", "Latitude": 17.94492, "Longitude": 73.68818, "Altitude": 1303, "Grid_no": "41", "CT_loc_ID": "T25, T11", "PA_name": "-", "Range": "Mahabaleshwar", "Beat": "Metgutade", "Nearest_village": "Metgutade", "Date_of_Deployment": "12-05-2025", "Habitat_type": "Dense forest" }, "geometry": { "type": "Point", "coordinates": [ 8202930.675083085894585, 2031102.5333991299849 ] } },
{ "type": "Feature", "properties": { "Sl_no": 39, "Project_partner": "Policy Advocacy and Reasearch Centre (PARC)", "State": "Maharastra", "Location": "Avkali", "CT_no": "T1, T2", "Latitude": 17.934683, "Longitude": 73.707317, "Altitude": 1263, "Grid_no": "42", "CT_loc_ID": "T1, T2", "PA_name": "-", "Range": "Mahabaleshwar", "Beat": "Metgutade", "Nearest_village": "Metgutade", "Date_of_Deployment": "12-05-2025", "Habitat_type": "Forest edge (end of plateau)" }, "geometry": { "type": "Point", "coordinates": [ 8205060.996178397908807, 2029904.718820242211223 ] } },
{ "type": "Feature", "properties": { "Sl_no": 40, "Project_partner": "Policy Advocacy and Reasearch Centre (PARC)", "State": "Maharastra", "Location": "Kadve khind", "CT_no": "T79, T84", "Latitude": 18.339094, "Longitude": 73.613662, "Altitude": 941, "Grid_no": "14A", "CT_loc_ID": "T79, T84", "PA_name": "-", "Range": "Velhe", "Beat": "Rule", "Nearest_village": "Rule", "Date_of_Deployment": "15-05-2025", "Habitat_type": "Dense forest adjoining mud road" }, "geometry": { "type": "Point", "coordinates": [ 8194635.369268152862787, 2077277.343463244847953 ] } },
{ "type": "Feature", "properties": { "Sl_no": 41, "Project_partner": "Policy Advocacy and Reasearch Centre (PARC)", "State": "Maharastra", "Location": "Kari", "CT_no": "T60, T62", "Latitude": 18.07851, "Longitude": 73.74682, "Altitude": 753, "Grid_no": "34A", "CT_loc_ID": "T60, T62", "PA_name": "-", "Range": "Bhor", "Beat": "Rayari", "Nearest_village": "Rayari", "Date_of_Deployment": "13-05-2025", "Habitat_type": "Field, No place to deploy - Agriculture" }, "geometry": { "type": "Point", "coordinates": [ 8209458.450023203156888, 2046740.051192448008806 ] } },
{ "type": "Feature", "properties": { "Sl_no": 42, "Project_partner": "Policy Advocacy and Reasearch Centre (PARC)", "State": "Maharastra", "Location": "Oholi", "CT_no": "T26, T30", "Latitude": 18.02292, "Longitude": 73.76578, "Altitude": 1138, "Grid_no": "37A", "CT_loc_ID": "T26, T30", "PA_name": "-", "Range": "Wai", "Beat": "Wadavali", "Nearest_village": "Wadavali", "Date_of_Deployment": "12-05-2025", "Habitat_type": "Degraded" }, "geometry": { "type": "Point", "coordinates": [ 8211569.067568644881248, 2040231.4648323263973 ] } }
]
}
