{
"type": "FeatureCollection",
"name": "rowa_tripura",
"crs": { "type": "name", "properties": { "name": "urn:ogc:def:crs:EPSG::3857" } },
"xy_coordinate_resolution": 1e-15,
"features": [
{ "type": "Feature", "properties": { "Name": "Rowa WLS", "Area_GIS": 0.75498240044999998 }, "geometry": { "type": "MultiPolygon", "coordinates": [ [ [ [ 10259520.704441022127867, 2789592.785391807556152 ], [ 10259526.968396393582225, 2789582.327150417026132 ], [ 10259533.979356747120619, 2789587.796020309440792 ], [ 10259540.744090061634779, 2789592.056736024096608 ], [ 10259545.364460907876492, 2789601.036205402575433 ], [ 10259565.850409422069788, 2789575.128276313189417 ], [ 10259582.743463918566704, 2789555.506572957616299 ], [ 10259599.841517578810453, 2789534.411106533370912 ], [ 10259623.406393054872751, 2789506.351744112093002 ], [ 10259639.258022168651223, 2789488.416736755985767 ], [ 10259649.478626262396574, 2789477.022255668416619 ], [ 10259657.397807596251369, 2789465.845081930048764 ], [ 10259667.40848047286272, 2789454.240860773716122 ], [ 10259686.592826897278428, 2789431.034762726631016 ], [ 10259699.941140428185463, 2789415.843058798927814 ], [ 10259708.494335496798158, 2789406.768383470363915 ], [ 10259725.07638549990952, 2789423.554113990161568 ], [ 10259737.252657756209373, 2789436.56511017633602 ], [ 10259751.74825643748045, 2789455.461522130761296 ], [ 10259767.715769521892071, 2789476.668337267823517 ], [ 10259784.329123221337795, 2789503.976078593637794 ], [ 10259794.857547948136926, 2789525.830616096034646 ], [ 10259803.067162733525038, 2789542.01020242087543 ], [ 10259810.648297755047679, 2789557.981175629422069 ], [ 10259819.503869125619531, 2789580.261619358789176 ], [ 10259827.508625825867057, 2789597.914917563088238 ], [ 10259831.933267785236239, 2789608.002930767368525 ], [ 10259832.489272920414805, 2789583.800169455353171 ], [ 10259832.629847919568419, 2789560.650899451225996 ], [ 10259833.214492686092854, 2789546.128588376101106 ], [ 10259832.068817710503936, 2789512.671515667811036 ], [ 10259830.897555138915777, 2789470.586397000122815 ], [ 10259830.222265582531691, 2789454.594814288895577 ], [ 10259829.548919163644314, 2789439.234534763265401 ], [ 10259827.832879787310958, 2789425.140022794250399 ], [ 10259826.968392970040441, 2789415.883217088412493 ], [ 10259835.520294073969126, 2789406.38764914451167 ], [ 10259851.369637297466397, 2789387.821242154575884 ], [ 10259865.750443812459707, 2789367.996575917117298 ], [ 10259884.301402751356363, 2789343.108695550821722 ], [ 10259891.172881618142128, 2789331.513857429847121 ], [ 10259903.097955986857414, 2789330.425810514949262 ], [ 10259930.982467241585255, 2789347.808526257053018 ], [ 10259937.064985323697329, 2789352.420008142478764 ], [ 10259937.59014680981636, 2789317.906102620996535 ], [ 10259937.075799288228154, 2789285.710229745134711 ], [ 10259937.467505624517798, 2789276.660169408190995 ], [ 10259968.477498011663556, 2789277.266000108327717 ], [ 10259968.650282582268119, 2789252.441555454861373 ], [ 10259969.132623713463545, 2789231.878567278850824 ], [ 10260025.9183010160923, 2789231.503865130245686 ], [ 10260080.988957159221172, 2789231.520284533966333 ], [ 10260108.560957154259086, 2789231.452942126896232 ], [ 10260108.099937312304974, 2789254.578149463515729 ], [ 10260107.918696658685803, 2789283.781263564713299 ], [ 10260107.044318249449134, 2789310.738716674037278 ], [ 10260097.247241124510765, 2789309.58070931583643 ], [ 10260076.736462317407131, 2789308.330549369566143 ], [ 10260077.186393536627293, 2789322.536113488487899 ], [ 10260077.110751185566187, 2789333.48295858129859 ], [ 10260093.895405411720276, 2789334.100323496386409 ], [ 10260093.501633262261748, 2789319.961589558981359 ], [ 10260112.966702196747065, 2789320.955006586853415 ], [ 10260112.071164390072227, 2789301.386752527207136 ], [ 10260109.862234512344003, 2789262.462017104495317 ], [ 10260152.966116528958082, 2789260.648280539084226 ], [ 10260186.025093600153923, 2789258.864804796408862 ], [ 10260205.907337434589863, 2789259.435933403205127 ], [ 10260236.044171003624797, 2789260.186581732239574 ], [ 10260249.228623600676656, 2789260.35700060473755 ], [ 10260250.820109022781253, 2789302.650672485120595 ], [ 10260250.850244166329503, 2789302.832836186513305 ], [ 10260256.653343182057142, 2789301.991296840365976 ], [ 10260281.824572736397386, 2789296.464727052953094 ], [ 10260283.554835926741362, 2789296.111368526704609 ], [ 10260321.655349193140864, 2789288.331925574224442 ], [ 10260362.550773238763213, 2789281.389219061005861 ], [ 10260382.673295218497515, 2789276.932636888697743 ], [ 10260401.680562235414982, 2789273.439186124596745 ], [ 10260421.460201917216182, 2789269.903338098432869 ], [ 10260433.154816798865795, 2789288.745800913311541 ], [ 10260439.738384332507849, 2789298.725509379059076 ], [ 10260447.311274185776711, 2789295.462987217120826 ], [ 10260447.892525555565953, 2789283.112951196730137 ], [ 10260451.109105192124844, 2789239.331661607604474 ], [ 10260453.096695488318801, 2789204.392777988221496 ], [ 10260454.709152756258845, 2789174.326024241279811 ], [ 10260457.08967793174088, 2789152.03819136088714 ], [ 10260459.328874042257667, 2789125.605574806220829 ], [ 10260460.680380959063768, 2789103.839119642972946 ], [ 10260462.772075805813074, 2789071.189271761104465 ], [ 10260463.510616341605783, 2789059.787756397388875 ], [ 10260490.328771408647299, 2789067.86704085348174 ], [ 10260492.797923039644957, 2789068.616139023099095 ], [ 10260493.300756875425577, 2789062.703653179574758 ], [ 10260495.143871182575822, 2789038.836065441835672 ], [ 10260496.168679382652044, 2789027.289995804429054 ], [ 10260530.003680685535073, 2789036.23415365582332 ], [ 10260597.14223787933588, 2789052.606953877490014 ], [ 10260662.229164255782962, 2789068.085864082444459 ], [ 10260707.529936287552118, 2789080.269412950146943 ], [ 10260740.173579892143607, 2789087.945852445438504 ], [ 10260742.526184115558863, 2789083.132153876125813 ], [ 10260752.041228845715523, 2789070.409537566360086 ], [ 10260760.831704305484891, 2789076.276678487192839 ], [ 10260768.651652919128537, 2789081.527423626743257 ], [ 10260755.341651638969779, 2789089.465319290291518 ], [ 10260746.012360410764813, 2789097.409109106753021 ], [ 10260737.546518534421921, 2789120.902993873227388 ], [ 10260738.358361452817917, 2789121.527034411206841 ], [ 10260742.106402369216084, 2789123.632024061400443 ], [ 10260744.855296919122338, 2789123.623570961412042 ], [ 10260749.20004640519619, 2789113.671011342667043 ], [ 10260753.483906647190452, 2789104.022281980141997 ], [ 10260758.085940502583981, 2789095.956777433399111 ], [ 10260761.932165611535311, 2789091.558835673611611 ], [ 10260764.769589781761169, 2789089.732742346357554 ], [ 10260776.3383978754282, 2789086.422194370999932 ], [ 10260781.03191351890564, 2789084.346616170369089 ], [ 10260774.342358307912946, 2789078.732175734825432 ], [ 10260766.710953742265701, 2789073.027994636446238 ], [ 10260755.600191323086619, 2789066.130247880704701 ], [ 10260745.577738406136632, 2789058.835185325238854 ], [ 10260734.973570907488465, 2789052.149464297574013 ], [ 10260759.101999459788203, 2789047.607979025691748 ], [ 10260782.505833894014359, 2789043.935365956742316 ], [ 10260780.007792226970196, 2789040.076987635344267 ], [ 10260769.95040369220078, 2789026.819110919721425 ], [ 10260777.708819054067135, 2789020.303462411742657 ], [ 10260778.630071984604001, 2789019.529663788154721 ], [ 10260814.934250392019749, 2789015.054789180867374 ], [ 10260827.573165282607079, 2789013.401964094024152 ], [ 10260827.42885036021471, 2789011.554474052973092 ], [ 10260826.509985899552703, 2789001.338884251657873 ], [ 10260826.093509716913104, 2788994.098051753826439 ], [ 10260825.282552814111114, 2788986.957672821357846 ], [ 10260824.576392659917474, 2788981.8010398093611 ], [ 10260822.987673804163933, 2788978.432877463288605 ], [ 10260817.942520102486014, 2788973.884840790648013 ], [ 10260811.511949921026826, 2788967.952088841237128 ], [ 10260802.212631978094578, 2788959.44874837435782 ], [ 10260792.720307901501656, 2788952.334940254688263 ], [ 10260784.315198432654142, 2788945.912254971452057 ], [ 10260777.394705919548869, 2788941.072314904071391 ], [ 10260772.051479119807482, 2788935.830685522872955 ], [ 10260769.868150476366282, 2788931.571495519485325 ], [ 10260767.584750231355429, 2788926.816566026303917 ], [ 10260766.087531980127096, 2788921.06721553299576 ], [ 10260765.375911101698875, 2788914.124899269547313 ], [ 10260765.742232710123062, 2788907.993222280871123 ], [ 10260765.410536440089345, 2788901.409781884402037 ], [ 10260766.637742109596729, 2788894.821633089333773 ], [ 10260769.742384431883693, 2788890.42258184030652 ], [ 10260772.843232875689864, 2788884.769383473321795 ], [ 10260779.365247989073396, 2788876.283757393248379 ], [ 10260780.869366759434342, 2788874.280930981971323 ], [ 10260766.162257757037878, 2788872.712338549550623 ], [ 10260738.853358684107661, 2788869.174169944599271 ], [ 10260726.846767725422978, 2788865.999446494039148 ], [ 10260696.520560877397656, 2788862.691403825301677 ], [ 10260642.80863549746573, 2788855.606386296451092 ], [ 10260613.481433825567365, 2788851.480056486558169 ], [ 10260588.946251424029469, 2788848.209043415728956 ], [ 10260591.345310071483254, 2788841.270614319946617 ], [ 10260596.775797881186008, 2788818.823087961878628 ], [ 10260598.19856870919466, 2788809.355542078148574 ], [ 10260602.765039470046759, 2788791.466364069841802 ], [ 10260607.963983062654734, 2788765.734850278124213 ], [ 10260614.289475705474615, 2788731.145325977820903 ], [ 10260616.682265294715762, 2788723.334569825790823 ], [ 10260606.8690205514431, 2788721.49406008888036 ], [ 10260593.064689354971051, 2788718.584487865213305 ], [ 10260582.841526951640844, 2788716.950745533686131 ], [ 10260575.655111595988274, 2788715.561369575560093 ], [ 10260571.193845923990011, 2788714.412737153470516 ], [ 10260566.321713771671057, 2788713.929514504037797 ], [ 10260559.054813737049699, 2788713.204538478050381 ], [ 10260551.951828813180327, 2788712.063935801386833 ], [ 10260543.525877173990011, 2788710.26332791429013 ], [ 10260534.68728263862431, 2788708.463888573925942 ], [ 10260520.892525309696794, 2788705.683362878859043 ], [ 10260509.824971139431, 2788703.890766736585647 ], [ 10260498.427980972453952, 2788702.348117595538497 ], [ 10260486.040293801575899, 2788700.808468522969633 ], [ 10260474.227838767692447, 2788698.354004493914545 ], [ 10260467.618943611159921, 2788696.796849799342453 ], [ 10260463.323215499520302, 2788695.813745618797839 ], [ 10260461.257615432143211, 2788695.238857422955334 ], [ 10260458.945337297394872, 2788694.996811848599464 ], [ 10260456.798248559236526, 2788694.754320465959609 ], [ 10260455.308322835713625, 2788693.43063116306439 ], [ 10260454.228882635012269, 2788691.358476833440363 ], [ 10260451.818618066608906, 2788685.969806502107531 ], [ 10260448.746485877782106, 2788680.085129844490439 ], [ 10260442.765759717673063, 2788667.816992369946092 ], [ 10260438.030830962583423, 2788658.035521817859262 ], [ 10260433.298896236345172, 2788649.250299258623272 ], [ 10260429.893078105524182, 2788642.204388218466192 ], [ 10260425.243194213137031, 2788633.252890603151172 ], [ 10260421.007064139470458, 2788624.632234594319016 ], [ 10260417.519658977165818, 2788617.918506428133696 ], [ 10260414.113301618024707, 2788610.706602622754872 ], [ 10260412.286425886675715, 2788607.142486717551947 ], [ 10260409.548297766596079, 2788602.502021342515945 ], [ 10260407.145750802010298, 2788599.686811160761863 ], [ 10260404.000128258019686, 2788596.790825489442796 ], [ 10260398.376336978748441, 2788593.404282561037689 ], [ 10260390.689507497474551, 2788590.273081656079739 ], [ 10260384.406844818964601, 2788587.386546566151083 ], [ 10260375.479775633662939, 2788583.595052605029196 ], [ 10260365.645608760416508, 2788580.138283883687109 ], [ 10260362.422101689502597, 2788578.819764862302691 ], [ 10260359.694216409698129, 2788577.582857096102089 ], [ 10260357.874043092131615, 2788576.260168680455536 ], [ 10260357.127046016976237, 2788574.93420200701803 ], [ 10260356.876941556110978, 2788574.104799691122025 ], [ 10260356.790921166539192, 2788572.942836129572242 ], [ 10260356.788213543593884, 2788572.029654676560313 ], [ 10260356.951302653178573, 2788571.365087542682886 ], [ 10260356.948319191113114, 2788570.368849405087531 ], [ 10260356.946053516119719, 2788569.62178097711876 ], [ 10260356.956303291022778, 2788569.502388596534729 ], [ 10260356.888867668807507, 2788569.535956751555204 ], [ 10260350.658395584672689, 2788564.396207258570939 ], [ 10260341.363737544044852, 2788557.281729229260236 ], [ 10260336.117369800806046, 2788551.345339328516275 ], [ 10260331.561881875619292, 2788545.506181502714753 ], [ 10260326.908259350806475, 2788539.86563610797748 ], [ 10260324.032202987000346, 2788534.814920987933874 ], [ 10260321.946321133524179, 2788530.059468443971127 ], [ 10260318.472388457506895, 2788523.026415562257171 ], [ 10260315.392820425331593, 2788515.89304031804204 ], [ 10260313.004998758435249, 2788509.154380172025412 ], [ 10260311.316850645467639, 2788505.488971009850502 ], [ 10260308.142555361613631, 2788499.645526679698378 ], [ 10260305.958254400640726, 2788494.989643967710435 ], [ 10260305.164898566901684, 2788493.603181055746973 ], [ 10260304.369406558573246, 2788491.522266652435064 ], [ 10260304.266236243769526, 2788490.0344950533472 ], [ 10260304.251866111531854, 2788489.774650088511407 ], [ 10260275.575600020587444, 2788487.89102186402306 ], [ 10260245.210534190759063, 2788488.762309295590967 ], [ 10260240.135787716135383, 2788488.683397554792464 ], [ 10260240.80922369286418, 2788517.136801367625594 ], [ 10260240.912480134516954, 2788545.769725438673049 ], [ 10260240.791215928271413, 2788551.632633468601853 ], [ 10260240.307144412770867, 2788575.04734649322927 ], [ 10260240.331175085157156, 2788578.972511591389775 ], [ 10260240.467591401189566, 2788601.247144420165569 ], [ 10260240.5388523042202, 2788620.216985785402358 ], [ 10260211.519573494791985, 2788623.579503100831062 ], [ 10260197.643040165305138, 2788624.123504647519439 ], [ 10260174.970262756571174, 2788627.204222414176911 ], [ 10260171.750850349664688, 2788627.641664119437337 ], [ 10260140.620643435046077, 2788631.393043064977974 ], [ 10260119.043519586324692, 2788634.347978652920574 ], [ 10260116.958414431661367, 2788618.402864982374012 ], [ 10260153.918289830908179, 2788617.178349465597421 ], [ 10260174.603828247636557, 2788615.10397671489045 ], [ 10260176.205559270456433, 2788556.227258082013577 ], [ 10260165.803529286757112, 2788556.885651674121618 ], [ 10260165.664521178230643, 2788549.630252775736153 ], [ 10260164.530929943546653, 2788524.703369386028498 ], [ 10260174.750358816236258, 2788523.416263731662184 ], [ 10260175.304859200492501, 2788487.619101866614074 ], [ 10260183.009252147749066, 2788487.794172181282192 ], [ 10260202.743743415921926, 2788488.1013373429887 ], [ 10260205.95088367164135, 2788459.545958952978253 ], [ 10260204.438064748421311, 2788459.484399913344532 ], [ 10260200.887518780305982, 2788459.79277924168855 ], [ 10260180.663590298965573, 2788459.655434782616794 ], [ 10260160.831893350929022, 2788458.723403655923903 ], [ 10260140.902348514646292, 2788458.089116168674082 ], [ 10260130.542026683688164, 2788457.426009104121476 ], [ 10260120.082988653331995, 2788456.763184722047299 ], [ 10260103.409504136070609, 2788456.317488112486899 ], [ 10260092.457211159169674, 2788455.656094477511942 ], [ 10260077.065024534240365, 2788454.809742227196693 ], [ 10260061.378457268700004, 2788454.460263547953218 ], [ 10260060.568672727793455, 2788454.435097377281636 ], [ 10260060.365744365379214, 2788454.661849363707006 ], [ 10260055.15506094135344, 2788459.332040286622941 ], [ 10260043.701375411823392, 2788469.416712969075888 ], [ 10260036.03522520698607, 2788477.029805593658239 ], [ 10260031.718068949878216, 2788486.306141879409552 ], [ 10260021.610619669780135, 2788486.237471968866885 ], [ 10259988.154687182977796, 2788486.010093952063471 ], [ 10259988.889809841290116, 2788478.474564079660922 ], [ 10259989.750467086210847, 2788468.615001417696476 ], [ 10259990.012693006545305, 2788453.481434146873653 ], [ 10259979.888308392837644, 2788453.118450966197997 ], [ 10259970.022981835529208, 2788453.048969878349453 ], [ 10259934.80269911326468, 2788452.460533171426505 ], [ 10259910.23750963062048, 2788452.137552328873426 ], [ 10259896.425553416833282, 2788451.881360398605466 ], [ 10259884.093942862004042, 2788451.819258662872016 ], [ 10259863.179457232356071, 2788451.683627712540329 ], [ 10259850.084217499941587, 2788450.9725674954243 ], [ 10259850.165766052901745, 2788486.654373071156442 ], [ 10259847.991484187543392, 2788486.667404993437231 ], [ 10259808.226784275844693, 2788487.7154480968602 ], [ 10259797.91721966676414, 2788486.970229028724134 ], [ 10259798.37010956928134, 2788488.796904818154871 ], [ 10259801.93862783536315, 2788512.506557204760611 ], [ 10259805.967521613463759, 2788540.192688282113522 ], [ 10259809.513659296557307, 2788555.904482098761946 ], [ 10259795.334520351141691, 2788551.006250613369048 ], [ 10259770.384790655225515, 2788541.835752995219082 ], [ 10259760.009151082485914, 2788537.822748466860503 ], [ 10259762.732063744217157, 2788546.265209802892059 ], [ 10259767.419669715687633, 2788558.690876143518835 ], [ 10259770.248154820874333, 2788558.682346055749804 ], [ 10259775.531428692862391, 2788558.666542822960764 ], [ 10259780.520417802035809, 2788558.356451706029475 ], [ 10259785.508423807099462, 2788557.751193498261273 ], [ 10259789.615538619458675, 2788557.000986723229289 ], [ 10259793.578403664752841, 2788557.136601410806179 ], [ 10259795.638730214908719, 2788559.049024313222617 ], [ 10259798.14632803760469, 2788563.321338394656777 ], [ 10259798.740359008312225, 2788565.680901021696627 ], [ 10259800.081297675147653, 2788572.465633192565292 ], [ 10259801.130572497844696, 2788579.841577744111419 ], [ 10259801.582211410626769, 2788583.677408367861062 ], [ 10259801.95529517903924, 2788584.975847370922565 ], [ 10259807.222388552501798, 2788585.056730186101049 ], [ 10259824.639735475182533, 2788583.496091571170837 ], [ 10259831.193297708407044, 2788583.07882118364796 ], [ 10259834.07436072267592, 2788587.416510263457894 ], [ 10259836.89382104575634, 2788596.970033078454435 ], [ 10259841.285937488079071, 2788617.186552802100778 ], [ 10259844.31338369473815, 2788625.585345515049994 ], [ 10259845.867960639297962, 2788631.412929455284029 ], [ 10259873.681340308859944, 2788624.257593811955303 ], [ 10259908.12576650083065, 2788615.238466533366591 ], [ 10259955.583839843049645, 2788603.827882972545922 ], [ 10259968.123853143304586, 2788600.998515667393804 ], [ 10259993.220911279320717, 2788597.197738332208246 ], [ 10260012.688601920381188, 2788593.548621065914631 ], [ 10260014.765830421820283, 2788618.039010342676193 ], [ 10260018.454181035980582, 2788651.78061899729073 ], [ 10260020.143321437761188, 2788660.464046226348728 ], [ 10260031.485575277358294, 2788652.930430000182241 ], [ 10260044.822515737265348, 2788643.397350148763508 ], [ 10260060.27241931296885, 2788632.701785708311945 ], [ 10260061.350595358759165, 2788631.891850413288921 ], [ 10260066.640578657388687, 2788648.939213632140309 ], [ 10260053.256149422377348, 2788658.245096124708652 ], [ 10260039.188251722604036, 2788668.026392858941108 ], [ 10260024.475998179987073, 2788677.721193469595164 ], [ 10260018.717329725623131, 2788681.330041500274092 ], [ 10260009.478222757577896, 2788686.356443418189883 ], [ 10259998.981771616265178, 2788694.626939194276929 ], [ 10259999.925573078915477, 2788685.070655651390553 ], [ 10260000.950632551684976, 2788672.756117549259216 ], [ 10260001.184464696794748, 2788662.541177993640304 ], [ 10260002.349700855091214, 2788648.806707927491516 ], [ 10259989.348709311336279, 2788654.293849300127476 ], [ 10259979.71485635265708, 2788659.425722202751786 ], [ 10259961.624457271769643, 2788667.817391491495073 ], [ 10259948.232841117307544, 2788673.296749281231314 ], [ 10259939.102056007832289, 2788675.855418683961034 ], [ 10259925.968907913193107, 2788679.282974388450384 ], [ 10259900.875387066975236, 2788685.689507307019085 ], [ 10259896.069800714030862, 2788687.909987904131413 ], [ 10259899.761061731725931, 2788689.577766048721969 ], [ 10259914.347715785726905, 2788695.179852318018675 ], [ 10259921.160479264333844, 2788699.206811588723212 ], [ 10259923.297094607725739, 2788702.151920401025563 ], [ 10259916.105636248365045, 2788709.017928247805685 ], [ 10259911.932540491223335, 2788713.05817996757105 ], [ 10259906.807622713968158, 2788719.254520095419139 ], [ 10259888.725190233439207, 2788725.049955136608332 ], [ 10259872.978013191372156, 2788719.863485237583518 ], [ 10259869.614640381187201, 2788710.455863567069173 ], [ 10259868.84226075001061, 2788709.012187404092401 ], [ 10259867.558205015957355, 2788709.662627467419952 ], [ 10259863.745451809838414, 2788710.707149327732623 ], [ 10259859.788232173770666, 2788712.490030014421791 ], [ 10259856.564275419339538, 2788714.123126746155322 ], [ 10259853.77721619233489, 2788714.574233431834728 ], [ 10259851.575783407315612, 2788714.580938937608153 ], [ 10259848.488969311118126, 2788712.966749081853777 ], [ 10259842.757486935704947, 2788710.327495608013123 ], [ 10259839.672423083335161, 2788709.303639786317945 ], [ 10259837.838443702086806, 2788709.475138722453266 ], [ 10259835.199675962328911, 2788710.479296266101301 ], [ 10259830.583662996068597, 2788712.817531459964812 ], [ 10259823.66002207621932, 2788716.491051325108856 ], [ 10259816.520932344719768, 2788721.714749519247562 ], [ 10259811.578247133642435, 2788725.27159154554829 ], [ 10259808.501591676846147, 2788727.051824685651809 ], [ 10259804.435545720160007, 2788729.277773843146861 ], [ 10259795.755001986399293, 2788734.395444420631975 ], [ 10259787.514194499701262, 2788739.290418964810669 ], [ 10259780.3737728651613, 2788744.071354860439897 ], [ 10259774.660952262580395, 2788747.741127608343959 ], [ 10259767.518121719360352, 2788751.747297257184982 ], [ 10259760.04774484038353, 2788756.639957598410547 ], [ 10259750.159489538520575, 2788762.757480635773391 ], [ 10259740.818151349201798, 2788767.766360753215849 ], [ 10259732.796472014859319, 2788772.32864771829918 ], [ 10259724.885132560506463, 2788777.001235708594322 ], [ 10259718.732325648888946, 2788780.783053481951356 ], [ 10259711.589576443657279, 2788784.789095101412386 ], [ 10259705.655600070953369, 2788788.12749824533239 ], [ 10259700.381617080420256, 2788791.353293859399855 ], [ 10259693.787203041836619, 2788794.693665608763695 ], [ 10259685.045912507921457, 2788800.091641545761377 ], [ 10259678.952025309205055, 2788812.212519311811775 ], [ 10259668.984159139916301, 2788831.496910214424133 ], [ 10259655.018763868138194, 2788827.237581307068467 ], [ 10259658.050518654286861, 2788822.388904474209994 ], [ 10259660.500073490664363, 2788816.018757354933769 ], [ 10259659.399880489334464, 2788816.712812079116702 ], [ 10259651.160184925422072, 2788822.050380271393806 ], [ 10259641.711483361199498, 2788827.945166075136513 ], [ 10259633.693661872297525, 2788833.835571248084307 ], [ 10259633.581576546654105, 2788833.171766852494329 ], [ 10259633.689309347420931, 2788832.396672593429685 ], [ 10259633.90619065053761, 2788831.289129301905632 ], [ 10259634.891348619014025, 2788829.404523526318371 ], [ 10259632.687617041170597, 2788828.636211171746254 ], [ 10259627.839211199432611, 2788826.879741468001157 ], [ 10259623.099629234522581, 2788824.680077828001231 ], [ 10259620.692329483106732, 2788823.913413040805608 ], [ 10259571.863716537132859, 2788828.543707435950637 ], [ 10259558.888406125828624, 2788829.161308574024588 ], [ 10259556.867064205929637, 2788822.75380677729845 ], [ 10259545.167372945696115, 2788823.985534122679383 ], [ 10259532.986583957448602, 2788824.021891112904996 ], [ 10259528.159590834751725, 2788823.805206246674061 ], [ 10259525.631601918488741, 2788823.812758965417743 ], [ 10259524.014590065926313, 2788821.044147010426968 ], [ 10259521.229467924684286, 2788811.80795186618343 ], [ 10259520.066057216376066, 2788806.958066056482494 ], [ 10259518.203640557825565, 2788798.874580348376185 ], [ 10259518.197426980361342, 2788796.794607876800001 ], [ 10259517.277427438646555, 2788796.566239963285625 ], [ 10259514.750738671049476, 2788797.035957547370344 ], [ 10259502.808789201080799, 2788800.076001930981874 ], [ 10259486.27023858204484, 2788803.129827079363167 ], [ 10259481.62954692915082, 2788788.121207245159894 ], [ 10259476.986055312678218, 2788772.188267635181546 ], [ 10259509.593176709488034, 2788762.615466784220189 ], [ 10259497.789092410355806, 2788734.454979879781604 ], [ 10259485.975549139082432, 2788703.058945005759597 ], [ 10259480.769610453397036, 2788689.987284205388278 ], [ 10259480.616236483678222, 2788690.029594225808978 ], [ 10259475.211010660976171, 2788691.520918893627822 ], [ 10259471.382759911939502, 2788692.732572854496539 ], [ 10259462.041908534243703, 2788695.562182778026909 ], [ 10259453.195698443800211, 2788698.141310653649271 ], [ 10259444.844549439847469, 2788700.65658692503348 ], [ 10259436.060725688934326, 2788703.422269028611481 ], [ 10259426.784408187493682, 2788707.123286821879447 ], [ 10259418.3726173248142, 2788710.074639291036874 ], [ 10259411.321341807022691, 2788712.461544197518378 ], [ 10259403.65087803825736, 2788714.850213916040957 ], [ 10259400.399529138579965, 2788716.05011586425826 ], [ 10259404.637158429250121, 2788718.357447809539735 ], [ 10259418.805054584518075, 2788728.630266 ], [ 10259428.641209045425057, 2788735.682698915246874 ], [ 10259430.099184729158878, 2788737.086209696251899 ], [ 10259432.952145671471953, 2788739.31640821043402 ], [ 10259436.692434264346957, 2788751.809199338313192 ], [ 10259442.927323641255498, 2788770.916921437252313 ], [ 10259449.220866842195392, 2788791.022269701585174 ], [ 10259454.055247405543923, 2788809.094851278699934 ], [ 10259460.410053474828601, 2788825.007257126737386 ], [ 10259455.681934591382742, 2788829.517692768480629 ], [ 10259447.26525199227035, 2788838.154616553336382 ], [ 10259440.64215399324894, 2788820.048619183246046 ], [ 10259440.043842889368534, 2788814.364398557692766 ], [ 10259435.944974135607481, 2788800.677141022868454 ], [ 10259431.608046121895313, 2788788.139885398559272 ], [ 10259427.160073731094599, 2788774.306153378915042 ], [ 10259424.593600301072001, 2788765.246337294578552 ], [ 10259408.943058649078012, 2788748.809858391992748 ], [ 10259402.862543605268002, 2788741.933098850306123 ], [ 10259403.73814001865685, 2788744.54888471076265 ], [ 10259406.676331536844373, 2788754.128467864822596 ], [ 10259410.175828801468015, 2788765.076197082642466 ], [ 10259413.108709337189794, 2788772.85014479374513 ], [ 10259414.672650119289756, 2788778.3245445266366 ], [ 10259415.674056680873036, 2788781.99511031806469 ], [ 10259417.246703797951341, 2788790.395723279099911 ], [ 10259418.248111672699451, 2788794.066291756927967 ], [ 10259419.560049775987864, 2788798.04713998734951 ], [ 10259421.621567433699965, 2788804.26721160300076 ], [ 10259423.056465560570359, 2788807.936435242183506 ], [ 10259424.431149775162339, 2788812.228382781147957 ], [ 10259425.370697086676955, 2788815.89902285579592 ], [ 10259425.313515046611428, 2788817.518109258264303 ], [ 10259424.697709627449512, 2788818.64066199073568 ], [ 10259422.415111996233463, 2788821.449220956303179 ], [ 10259418.218747595325112, 2788826.193556512705982 ], [ 10259415.131781049072742, 2788829.191377356648445 ], [ 10259413.835094882175326, 2788830.378196561243385 ], [ 10259413.15562186203897, 2788830.940588742028922 ], [ 10259412.997771995142102, 2788830.905771214980632 ], [ 10259413.002994881942868, 2788832.672377777285874 ], [ 10259413.934635125100613, 2788841.769769131671637 ], [ 10259414.603574717417359, 2788849.437842906452715 ], [ 10259415.404508545994759, 2788858.015597879886627 ], [ 10259415.949468471109867, 2788867.504107071552426 ], [ 10259416.362225404009223, 2788875.953007647302002 ], [ 10259416.912210023030639, 2788887.131479913834482 ], [ 10259417.464437428861856, 2788899.090023084077984 ], [ 10259417.342489631846547, 2788901.560471301432699 ], [ 10259415.406398773193359, 2788902.606212034355849 ], [ 10259412.952376239001751, 2788903.393581413198262 ], [ 10259405.202239317819476, 2788905.626602724660188 ], [ 10259394.477585311979055, 2788907.478504854720086 ], [ 10259385.563225232064724, 2788909.455078847240657 ], [ 10259378.070443009957671, 2788911.29741407930851 ], [ 10259370.321044482290745, 2788913.790403167717159 ], [ 10259365.789674926549196, 2788914.262962825130671 ], [ 10259353.208891173824668, 2788914.154134933371097 ], [ 10259339.973152922466397, 2788913.827786975540221 ], [ 10259328.046884916722775, 2788913.716946300119162 ], [ 10259312.118497142568231, 2788912.740363375283778 ], [ 10259295.678954845294356, 2788911.034113043453544 ], [ 10259285.207716075703502, 2788911.138318884186447 ], [ 10259278.009488377720118, 2788911.452182171400636 ], [ 10259274.737136851996183, 2788911.461910618003458 ], [ 10259272.917502712458372, 2788910.882279815617949 ], [ 10259271.604736713692546, 2788909.569901866372675 ], [ 10259268.976127604022622, 2788905.921422515064478 ], [ 10259265.689598862081766, 2788901.1048380183056 ], [ 10259263.207759324461222, 2788897.894593063741922 ], [ 10259261.677483258768916, 2788896.802271218504757 ], [ 10259260.004947202280164, 2788896.807244324591011 ], [ 10259258.335048776119947, 2788897.689678224734962 ], [ 10259251.725319704040885, 2788900.341839325148612 ], [ 10259245.40593421459198, 2788902.773722088895738 ], [ 10259237.488381886854768, 2788905.795289164409041 ], [ 10259232.76880550198257, 2788908.222417704295367 ], [ 10259225.940127745270729, 2788910.582708489149809 ], [ 10259221.511772979050875, 2788913.155212278012186 ], [ 10259219.698508994653821, 2788914.76939386036247 ], [ 10259218.245459981262684, 2788915.212486111093313 ], [ 10259217.009374966844916, 2788915.289260132238269 ], [ 10259214.897749677300453, 2788914.34485044144094 ], [ 10259207.68986027315259, 2788911.368007536511868 ], [ 10259198.008267657831311, 2788907.959770750720054 ], [ 10259189.346458094194531, 2788905.133486718870699 ], [ 10259185.429368633776903, 2788903.657964213751256 ], [ 10259175.514165423810482, 2788913.843725990038365 ], [ 10259163.377382790669799, 2788910.372318800538778 ], [ 10259161.931165393441916, 2788915.519776485860348 ], [ 10259160.369698608294129, 2788921.344462709967047 ], [ 10259157.258724911138415, 2788937.050354725681245 ], [ 10259154.668125150725245, 2788950.814805313013494 ], [ 10259153.98420450463891, 2788956.813259520567954 ], [ 10259151.555120766162872, 2788965.815224359743297 ], [ 10259149.130070263519883, 2788976.228196389041841 ], [ 10259148.431688670068979, 2788977.288478726986796 ], [ 10259148.437853187322617, 2788979.404873229563236 ], [ 10259147.917360350489616, 2788981.346442381385714 ], [ 10259147.220519350841641, 2788982.935851341579109 ], [ 10259145.77505986392498, 2788983.447150946594775 ], [ 10259142.487697817385197, 2788983.853735544718802 ], [ 10259136.306921361014247, 2788984.401040194556117 ], [ 10259131.047702416777611, 2788985.210277436301112 ], [ 10259125.130372794345021, 2788985.889112154953182 ], [ 10259119.082761943340302, 2788986.965232409536839 ], [ 10259112.686956761404872, 2788988.245986571535468 ], [ 10259112.032608348876238, 2788988.782449702266604 ], [ 10259109.342143828049302, 2788991.016659828834236 ], [ 10259110.38708340190351, 2788991.866036067716777 ], [ 10259115.645931474864483, 2788990.349454024340957 ], [ 10259125.864463545382023, 2788988.018458017148077 ], [ 10259158.314228281378746, 2788987.985268361866474 ], [ 10259192.129241492599249, 2788986.970135122071952 ], [ 10259219.190098887309432, 2788987.135916127357632 ], [ 10259249.458651857450604, 2788986.236021440010518 ], [ 10259279.805128358304501, 2788984.838208080269396 ], [ 10259307.010279946029186, 2788982.723336844705045 ], [ 10259341.225538469851017, 2788980.378100776579231 ], [ 10259358.543376799672842, 2788979.638614436145872 ], [ 10259379.335293013602495, 2788979.903227633330971 ], [ 10259404.169184802100062, 2788980.130544620100409 ], [ 10259413.158089326694608, 2788979.75769217312336 ], [ 10259413.562060700729489, 2788996.951408242341131 ], [ 10259410.109934220090508, 2789043.685685817617923 ], [ 10259406.534500965848565, 2789076.870516354683787 ], [ 10259405.336314372718334, 2789108.375827175565064 ], [ 10259402.184883555397391, 2789133.766000935807824 ], [ 10259400.201493624597788, 2789151.520632554776967 ], [ 10259398.780895730480552, 2789167.653901802841574 ], [ 10259398.855116575956345, 2789175.816843826323748 ], [ 10259397.609285641461611, 2789193.026044340804219 ], [ 10259397.154700176790357, 2789206.539736117236316 ], [ 10259395.724238619208336, 2789221.595670291222632 ], [ 10259391.570527583360672, 2789254.703199372626841 ], [ 10259391.030871430411935, 2789267.927634383086115 ], [ 10259389.193050034344196, 2789301.676970449276268 ], [ 10259388.663928836584091, 2789316.061651538126171 ], [ 10259387.573246691375971, 2789332.192122918087989 ], [ 10259384.600739046931267, 2789368.189808766357601 ], [ 10259383.157478619366884, 2789390.912560291122645 ], [ 10259381.673508588224649, 2789400.08457412244752 ], [ 10259380.729916017502546, 2789405.190491464454681 ], [ 10259379.862571217119694, 2789418.666666829027236 ], [ 10259379.512373846024275, 2789425.507667000871152 ], [ 10259378.670634035021067, 2789441.801589882932603 ], [ 10259377.280157200992107, 2789470.325756919570267 ], [ 10259375.460485089570284, 2789487.954792498610914 ], [ 10259373.890670221298933, 2789505.830328561365604 ], [ 10259372.325273845344782, 2789524.203075829893351 ], [ 10259369.789663955569267, 2789553.815294921398163 ], [ 10259369.279437836259604, 2789570.27211536327377 ], [ 10259368.700236892327666, 2789588.221438146661967 ], [ 10259367.42794874496758, 2789602.530407364945859 ], [ 10259367.183541625738144, 2789611.939799603074789 ], [ 10259365.6888965126127, 2789619.951712063979357 ], [ 10259365.006047682836652, 2789635.581317021045834 ], [ 10259363.595121605321765, 2789652.792500567622483 ], [ 10259362.156341454014182, 2789676.012856713496149 ], [ 10259360.656834773719311, 2789692.561842456459999 ], [ 10259359.5513571575284, 2789698.000800052657723 ], [ 10259358.030772730708122, 2789712.229226348921657 ], [ 10259357.983321318402886, 2789716.08376636216417 ], [ 10259379.374361634254456, 2789709.546432808507234 ], [ 10259393.308699233457446, 2789704.526733972132206 ], [ 10259408.996653897687793, 2789700.811160690151155 ], [ 10259418.620450021699071, 2789698.799318849574775 ], [ 10259421.410606009885669, 2789693.338473656680435 ], [ 10259425.816820319741964, 2789683.460351203102618 ], [ 10259429.012197367846966, 2789674.511997160501778 ], [ 10259440.764127273112535, 2789667.934797300957143 ], [ 10259454.943236382678151, 2789660.110266280826181 ], [ 10259463.426891181617975, 2789654.481736006680876 ], [ 10259473.202443856745958, 2789648.458558033686131 ], [ 10259487.080887161195278, 2789641.096162789035589 ], [ 10259504.620492041110992, 2789617.35514308558777 ], [ 10259520.704441022127867, 2789592.785391807556152 ] ] ] ] } }
]
}
