{
"type": "FeatureCollection",
"name": "Sahjeevan_Thangadh_Boundary",
"crs": { "type": "name", "properties": { "name": "urn:ogc:def:crs:EPSG::3857" } },
"xy_coordinate_resolution": 1e-15,
"features": [
{ "type": "Feature", "properties": { "id": null, "Name": "Thangadh boundary", "Area Sqkm": null }, "geometry": { "type": "Polygon", "coordinates": [ [ [ 7919252.370154693722725, 2578351.207682573702186, 0.0 ], [ 7918916.823260825127363, 2578275.74150773184374, 0.0 ], [ 7918848.498109865933657, 2577839.692258317023516, 0.0 ], [ 7918838.344443364068866, 2577407.350182054098696, 0.0 ], [ 7918798.33903680741787, 2577177.273508314043283, 0.0 ], [ 7918904.42371213901788, 2576863.67112920479849, 0.0 ], [ 7919158.139527550898492, 2576233.078424635808915, 0.0 ], [ 7919552.744361652992666, 2575511.555406824685633, 0.0 ], [ 7919945.665610865689814, 2575120.786752946209162, 0.0 ], [ 7920293.815152377821505, 2574644.917257024440914, 0.0 ], [ 7920633.212953696027398, 2574120.947141198907048, 0.0 ], [ 7920793.380193319171667, 2573644.208076893351972, 0.0 ], [ 7920842.747874347493052, 2572990.715832009911537, 0.0 ], [ 7921113.829262166284025, 2572154.432713023386896, 0.0 ], [ 7921841.030030423775315, 2571255.091542075853795, 0.0 ], [ 7922634.825409441255033, 2570812.214754804968834, 0.0 ], [ 7923798.177778043784201, 2570687.882987717632204, 0.0 ], [ 7925906.467597614042461, 2571136.300116294063628, 0.0 ], [ 7927736.682494630105793, 2571432.022641111630946, 0.0 ], [ 7929490.987126958556473, 2571975.846553319599479, 0.0 ], [ 7930526.071106815710664, 2572367.425948210526258, 0.0 ], [ 7931878.902161406353116, 2573086.161741038784385, 0.0 ], [ 7932175.93161778524518, 2574358.628615686669946, 0.0 ], [ 7932497.633477395400405, 2575897.315692445728928, 0.0 ], [ 7933692.593279388733208, 2576180.709584001917392, 0.0 ], [ 7934679.805975021794438, 2576085.0998145933263, 0.0 ], [ 7933765.812387645244598, 2577589.342157567385584, 0.0 ], [ 7933025.52909788209945, 2578177.149644313845783, 0.0 ], [ 7932250.572836845181882, 2579286.751382276881486, 0.0 ], [ 7931615.441028735600412, 2580314.73220474133268, 0.0 ], [ 7931080.580059419386089, 2579364.554433424957097, 0.0 ], [ 7931513.514801372773945, 2579113.067875515669584, 0.0 ], [ 7931861.390127048827708, 2578511.834886662196368, 0.0 ], [ 7931291.512191322632134, 2577888.605582383461297, 0.0 ], [ 7930668.01880900375545, 2577574.80505856173113, 0.0 ], [ 7929952.222044027410448, 2577166.189265098422766, 0.0 ], [ 7929248.877301892265677, 2576243.786073287483305, 0.0 ], [ 7927931.065359491854906, 2575354.020767415408045, 0.0 ], [ 7926740.323927406221628, 2575156.809258008841425, 0.0 ], [ 7924179.713419150561094, 2575875.009785972069949, 0.0 ], [ 7921893.04651241376996, 2576809.428702984470874, 0.0 ], [ 7919252.370154693722725, 2578351.207682573702186, 0.0 ] ] ] } }
]
}
