{
"type": "FeatureCollection",
"name": "sahjeevan_gj",
"crs": { "type": "name", "properties": { "name": "urn:ogc:def:crs:EPSG::3857" } },
"xy_coordinate_resolution": 1e-15,
"features": [
{ "type": "Feature", "properties": { "Sl_no": 1, "Project_partner": "Sahjeevan", "State": "Gujarat", "Location": "Chotila", "CT_no": "1279A3004882", "Latitude": 22.242543, "Longitude": 71.125763, "Altitude": "-", "Grid_no": "7", "CT_loc_ID": "DEPAKD001", "PA_name": "-", "Range": "-", "Beat": "-", "Nearest_village": "-", "Date_of_Deployment": "28-03-2025", "Habitat_type": "Vidi" }, "geometry": { "type": "Point", "coordinates": [ 7917683.719443058595061, 2540670.435466613154858 ] } },
{ "type": "Feature", "properties": { "Sl_no": 2, "Project_partner": "Sahjeevan", "State": "Gujarat", "Location": "Chotila", "CT_no": "1279A3004883", "Latitude": 22.293712, "Longitude": 71.167928, "Altitude": "-", "Grid_no": "18", "CT_loc_ID": "DEPBHOJ001", "PA_name": "-", "Range": "-", "Beat": "-", "Nearest_village": "-", "Date_of_Deployment": "19-03-2025", "Habitat_type": "Agricultural Land" }, "geometry": { "type": "Point", "coordinates": [ 7922377.505772355943918, 2546825.590120916254818 ] } },
{ "type": "Feature", "properties": { "Sl_no": 3, "Project_partner": "Sahjeevan", "State": "Gujarat", "Location": "Chotila", "CT_no": "1279A3004944", "Latitude": 22.275391, "Longitude": 71.164184, "Altitude": "-", "Grid_no": "19", "CT_loc_ID": "DEPBHOJ002", "PA_name": "-", "Range": "-", "Beat": "-", "Nearest_village": "-", "Date_of_Deployment": "19-03-2025", "Habitat_type": "Agricultural Land" }, "geometry": { "type": "Point", "coordinates": [ 7921960.725598827004433, 2544621.485548347700387 ] } },
{ "type": "Feature", "properties": { "Sl_no": 4, "Project_partner": "Sahjeevan", "State": "Gujarat", "Location": "Chotila", "CT_no": "179", "Latitude": 22.272351, "Longitude": 71.200303, "Altitude": "-", "Grid_no": "33", "CT_loc_ID": "DEPCHOB001", "PA_name": "-", "Range": "-", "Beat": "-", "Nearest_village": "-", "Date_of_Deployment": "18-03-2025", "Habitat_type": "Vidi" }, "geometry": { "type": "Point", "coordinates": [ 7925981.474286788143218, 2544255.786833994556218 ] } },
{ "type": "Feature", "properties": { "Sl_no": 5, "Project_partner": "Sahjeevan", "State": "Gujarat", "Location": "Chotila", "CT_no": "176", "Latitude": 22.254602, "Longitude": 71.196862, "Altitude": "-", "Grid_no": "34", "CT_loc_ID": "DEPCHOB002", "PA_name": "-", "Range": "-", "Beat": "-", "Nearest_village": "-", "Date_of_Deployment": "18-03-2025", "Habitat_type": "Vidi" }, "geometry": { "type": "Point", "coordinates": [ 7925598.423918968066573, 2542120.818301993887872 ] } },
{ "type": "Feature", "properties": { "Sl_no": 6, "Project_partner": "Sahjeevan", "State": "Gujarat", "Location": "Chotila", "CT_no": "1279A3005106", "Latitude": 22.253971, "Longitude": 71.125171, "Altitude": "-", "Grid_no": "6", "CT_loc_ID": "DEPFUL001", "PA_name": "-", "Range": "-", "Beat": "-", "Nearest_village": "-", "Date_of_Deployment": "20-03-2025", "Habitat_type": "Vidi" }, "geometry": { "type": "Point", "coordinates": [ 7917617.818304507061839, 2542044.922381107229739 ] } },
{ "type": "Feature", "properties": { "Sl_no": 7, "Project_partner": "Sahjeevan", "State": "Gujarat", "Location": "Chotila", "CT_no": "1279A3005104", "Latitude": 22.275712, "Longitude": 71.145857, "Altitude": "-", "Grid_no": "12", "CT_loc_ID": "DEPGUNDA001", "PA_name": "-", "Range": "-", "Beat": "-", "Nearest_village": "-", "Date_of_Deployment": "13-03-2025", "Habitat_type": "Agricultural Land" }, "geometry": { "type": "Point", "coordinates": [ 7919920.573291058652103, 2544660.100909408647567 ] } },
{ "type": "Feature", "properties": { "Sl_no": 8, "Project_partner": "Sahjeevan", "State": "Gujarat", "Location": "Chotila", "CT_no": "1279A3001873", "Latitude": 22.274695, "Longitude": 71.124307, "Altitude": "-", "Grid_no": "5", "CT_loc_ID": "DEPGUNDA002", "PA_name": "-", "Range": "-", "Beat": "-", "Nearest_village": "-", "Date_of_Deployment": "13-03-2025", "Habitat_type": "Reserved Forest" }, "geometry": { "type": "Point", "coordinates": [ 7917521.638264462351799, 2544537.759088561870158 ] } },
{ "type": "Feature", "properties": { "Sl_no": 9, "Project_partner": "Sahjeevan", "State": "Gujarat", "Location": "Chotila", "CT_no": "1279A3005110", "Latitude": 22.239008, "Longitude": 71.145192, "Altitude": "-", "Grid_no": "14", "CT_loc_ID": "DEPJIV001", "PA_name": "-", "Range": "-", "Beat": "-", "Nearest_village": "-", "Date_of_Deployment": "28-03-2025", "Habitat_type": "Reserved Forest" }, "geometry": { "type": "Point", "coordinates": [ 7919846.545829679816961, 2540245.290931149851531 ] } },
{ "type": "Feature", "properties": { "Sl_no": 10, "Project_partner": "Sahjeevan", "State": "Gujarat", "Location": "Chotila", "CT_no": "1279A3004889", "Latitude": 22.256759, "Longitude": 71.147248, "Altitude": "-", "Grid_no": "13", "CT_loc_ID": "DEPJIV002", "PA_name": "-", "Range": "-", "Beat": "-", "Nearest_village": "-", "Date_of_Deployment": "29-03-2025", "Habitat_type": "Agricultural Land" }, "geometry": { "type": "Point", "coordinates": [ 7920075.418702752329409, 2542380.262250107247382 ] } },
{ "type": "Feature", "properties": { "Sl_no": 11, "Project_partner": "Sahjeevan", "State": "Gujarat", "Location": "Chotila", "CT_no": "1279A3004950", "Latitude": 22.234731, "Longitude": 71.156169, "Altitude": "-", "Grid_no": "21", "CT_loc_ID": "DEPJIV003", "PA_name": "-", "Range": "-", "Beat": "-", "Nearest_village": "-", "Date_of_Deployment": "03-04-2025", "Habitat_type": "Reserved Forest" }, "geometry": { "type": "Point", "coordinates": [ 7921068.49988011829555, 2539730.922474724706262 ] } },
{ "type": "Feature", "properties": { "Sl_no": 12, "Project_partner": "Sahjeevan", "State": "Gujarat", "Location": "Chotila", "CT_no": "1279A3004888", "Latitude": 22.288846, "Longitude": 71.145049, "Altitude": "-", "Grid_no": "11", "CT_loc_ID": "DEPKAB001", "PA_name": "-", "Range": "-", "Beat": "-", "Nearest_village": "-", "Date_of_Deployment": "21-03-2025", "Habitat_type": "Vidi" }, "geometry": { "type": "Point", "coordinates": [ 7919830.627142497338355, 2546240.158704539295286 ] } },
{ "type": "Feature", "properties": { "Sl_no": 13, "Project_partner": "Sahjeevan", "State": "Gujarat", "Location": "Chotila", "CT_no": "178/177", "Latitude": 22.305116, "Longitude": 71.140904, "Altitude": "-", "Grid_no": "10", "CT_loc_ID": "DEPKAB002", "PA_name": "-", "Range": "-", "Beat": "-", "Nearest_village": "-", "Date_of_Deployment": "18-03-2025", "Habitat_type": "Vidi" }, "geometry": { "type": "Point", "coordinates": [ 7919369.207853158935905, 2548197.692170435097069 ] } },
{ "type": "Feature", "properties": { "Sl_no": 14, "Project_partner": "Sahjeevan", "State": "Gujarat", "Location": "Chotila", "CT_no": "1279A3005109", "Latitude": 22.301095, "Longitude": 71.132228, "Altitude": "-", "Grid_no": "4", "CT_loc_ID": "DEPKAB003", "PA_name": "-", "Range": "-", "Beat": "-", "Nearest_village": "-", "Date_of_Deployment": "21-03-2025", "Habitat_type": "Vidi" }, "geometry": { "type": "Point", "coordinates": [ 7918403.399951036088169, 2547713.882267801556736 ] } },
{ "type": "Feature", "properties": { "Sl_no": 15, "Project_partner": "Sahjeevan", "State": "Gujarat", "Location": "Chotila", "CT_no": "1279A3004947", "Latitude": 22.331031, "Longitude": 71.204588, "Altitude": "-", "Grid_no": "30", "CT_loc_ID": "DEPKHER001", "PA_name": "-", "Range": "-", "Beat": "-", "Nearest_village": "-", "Date_of_Deployment": "04-03-2025", "Habitat_type": "Reserved Forest" }, "geometry": { "type": "Point", "coordinates": [ 7926458.478304837830365, 2551316.139793791808188 ] } },
{ "type": "Feature", "properties": { "Sl_no": 16, "Project_partner": "Sahjeevan", "State": "Gujarat", "Location": "Chotila", "CT_no": "1279A3004887", "Latitude": 22.312497, "Longitude": 71.181772, "Altitude": "-", "Grid_no": "24", "CT_loc_ID": "DEPKHER002", "PA_name": "-", "Range": "-", "Beat": "-", "Nearest_village": "-", "Date_of_Deployment": "21-03-2025", "Habitat_type": "Agricultural Land" }, "geometry": { "type": "Point", "coordinates": [ 7923918.612802897579968, 2549085.816186030395329 ] } },
{ "type": "Feature", "properties": { "Sl_no": 17, "Project_partner": "Sahjeevan", "State": "Gujarat", "Location": "Chotila", "CT_no": "1279A3005108", "Latitude": 22.314266, "Longitude": 71.203179, "Altitude": "-", "Grid_no": "31", "CT_loc_ID": "DEPKHER003", "PA_name": "-", "Range": "-", "Beat": "-", "Nearest_village": "-", "Date_of_Deployment": "21-03-2025", "Habitat_type": "Revenue Wasteland" }, "geometry": { "type": "Point", "coordinates": [ 7926301.629142311401665, 2549298.679329527076334 ] } },
{ "type": "Feature", "properties": { "Sl_no": 18, "Project_partner": "Sahjeevan", "State": "Gujarat", "Location": "Chotila", "CT_no": "170", "Latitude": 22.290331, "Longitude": 71.180559, "Altitude": "-", "Grid_no": "25", "CT_loc_ID": "DEPMAHI001", "PA_name": "-", "Range": "-", "Beat": "-", "Nearest_village": "-", "Date_of_Deployment": "18-03-2025", "Habitat_type": "Vidi" }, "geometry": { "type": "Point", "coordinates": [ 7923783.58226056676358, 2546418.81779579538852 ] } },
{ "type": "Feature", "properties": { "Sl_no": 19, "Project_partner": "Sahjeevan", "State": "Gujarat", "Location": "Chotila", "CT_no": "171", "Latitude": 22.274709, "Longitude": 71.182649, "Altitude": "-", "Grid_no": "26", "CT_loc_ID": "DEPMAHI002", "PA_name": "-", "Range": "-", "Beat": "-", "Nearest_village": "-", "Date_of_Deployment": "18-03-2025", "Habitat_type": "Reserve Forest" }, "geometry": { "type": "Point", "coordinates": [ 7924016.239996324293315, 2544539.443237382918596 ] } },
{ "type": "Feature", "properties": { "Sl_no": 20, "Project_partner": "Sahjeevan", "State": "Gujarat", "Location": "Chotila", "CT_no": "175", "Latitude": 22.290169, "Longitude": 71.18048, "Altitude": "-", "Grid_no": "25", "CT_loc_ID": "DEPMAHIFOXDEN", "PA_name": "-", "Range": "-", "Beat": "-", "Nearest_village": "-", "Date_of_Deployment": "18-03-2025", "Habitat_type": "Vidi" }, "geometry": { "type": "Point", "coordinates": [ 7923774.788020793348551, 2546399.327620872762054 ] } },
{ "type": "Feature", "properties": { "Sl_no": 21, "Project_partner": "Sahjeevan", "State": "Gujarat", "Location": "Chotila", "CT_no": "1279A3005110", "Latitude": 22.342404, "Longitude": 71.200836, "Altitude": "-", "Grid_no": "29", "CT_loc_ID": "DEPMOK001", "PA_name": "-", "Range": "-", "Beat": "-", "Nearest_village": "-", "Date_of_Deployment": "21-03-2025", "Habitat_type": "Vidi" }, "geometry": { "type": "Point", "coordinates": [ 7926040.807575380429626, 2552684.87776100775227 ] } },
{ "type": "Feature", "properties": { "Sl_no": 22, "Project_partner": "Sahjeevan", "State": "Gujarat", "Location": "Chotila", "CT_no": "1279A3005103", "Latitude": 22.348161, "Longitude": 71.125301, "Altitude": "-", "Grid_no": "1", "CT_loc_ID": "DEPRAJ001", "PA_name": "-", "Range": "-", "Beat": "-", "Nearest_village": "-", "Date_of_Deployment": "06-03-2025", "Habitat_type": "Reserved Forest" }, "geometry": { "type": "Point", "coordinates": [ 7917632.289838311262429, 2553377.773968741763383 ] } },
{ "type": "Feature", "properties": { "Sl_no": 23, "Project_partner": "Sahjeevan", "State": "Gujarat", "Location": "Chotila", "CT_no": "1279A3005101", "Latitude": 22.343928, "Longitude": 71.149364, "Altitude": "-", "Grid_no": "7", "CT_loc_ID": "DEPRAJ002", "PA_name": "-", "Range": "-", "Beat": "-", "Nearest_village": "-", "Date_of_Deployment": "13-03-2025", "Habitat_type": "Vidi" }, "geometry": { "type": "Point", "coordinates": [ 7920310.970745270140469, 2552868.29929771181196 ] } },
{ "type": "Feature", "properties": { "Sl_no": 24, "Project_partner": "Sahjeevan", "State": "Gujarat", "Location": "Chotila", "CT_no": "1279A3005107", "Latitude": 22.330091, "Longitude": 71.12623, "Altitude": "-", "Grid_no": "2", "CT_loc_ID": "DEPRAJ003", "PA_name": "-", "Range": "-", "Beat": "-", "Nearest_village": "-", "Date_of_Deployment": "06-03-2025", "Habitat_type": "Agricultural Land" }, "geometry": { "type": "Point", "coordinates": [ 7917735.705645259469748, 2551203.016001206357032 ] } },
{ "type": "Feature", "properties": { "Sl_no": 25, "Project_partner": "Sahjeevan", "State": "Gujarat", "Location": "Chotila", "CT_no": "1279A3005102", "Latitude": 22.329679, "Longitude": 71.145358, "Altitude": "-", "Grid_no": "9", "CT_loc_ID": "DEPRAJ004", "PA_name": "-", "Range": "-", "Beat": "-", "Nearest_village": "-", "Date_of_Deployment": "13-03-2025", "Habitat_type": "Vidi" }, "geometry": { "type": "Point", "coordinates": [ 7919865.024865152314305, 2551153.434323886875063 ] } },
{ "type": "Feature", "properties": { "Sl_no": 26, "Project_partner": "Sahjeevan", "State": "Gujarat", "Location": "Chotila", "CT_no": "1279A3004941", "Latitude": 22.330548, "Longitude": 71.164757, "Altitude": "-", "Grid_no": "16", "CT_loc_ID": "DEPRAJ005", "PA_name": "-", "Range": "-", "Beat": "-", "Nearest_village": "-", "Date_of_Deployment": "05-03-2025", "Habitat_type": "Agricultural Land" }, "geometry": { "type": "Point", "coordinates": [ 7922024.511667050421238, 2551258.013324299361557 ] } },
{ "type": "Feature", "properties": { "Sl_no": 27, "Project_partner": "Sahjeevan", "State": "Gujarat", "Location": "Chotila", "CT_no": "174", "Latitude": 22.313879, "Longitude": 71.126327, "Altitude": "-", "Grid_no": "3", "CT_loc_ID": "DEPRAJ006", "PA_name": "-", "Range": "-", "Beat": "-", "Nearest_village": "-", "Date_of_Deployment": "18-03-2025", "Habitat_type": "Agricultural Land" }, "geometry": { "type": "Point", "coordinates": [ 7917746.503635866567492, 2549252.111526094842702 ] } },
{ "type": "Feature", "properties": { "Sl_no": 28, "Project_partner": "Sahjeevan", "State": "Gujarat", "Location": "Chotila", "CT_no": "173", "Latitude": 22.31718, "Longitude": 71.16398, "Altitude": "-", "Grid_no": "17", "CT_loc_ID": "DEPRAJ008", "PA_name": "-", "Range": "-", "Beat": "-", "Nearest_village": "-", "Date_of_Deployment": "18-03-2025", "Habitat_type": "Vidi" }, "geometry": { "type": "Point", "coordinates": [ 7921938.016422704793513, 2549649.325798839796335 ] } },
{ "type": "Feature", "properties": { "Sl_no": 29, "Project_partner": "Sahjeevan", "State": "Gujarat", "Location": "Chotila", "CT_no": "172", "Latitude": 22.344551, "Longitude": 71.158094, "Altitude": "-", "Grid_no": "15", "CT_loc_ID": "DEPRESH002", "PA_name": "-", "Range": "-", "Beat": "-", "Nearest_village": "-", "Date_of_Deployment": "18-03-2025", "Habitat_type": "Gauchar" }, "geometry": { "type": "Point", "coordinates": [ 7921282.789899895898998, 2552943.281251362990588 ] } },
{ "type": "Feature", "properties": { "Sl_no": 30, "Project_partner": "Sahjeevan", "State": "Gujarat", "Location": "Chotila", "CT_no": "177", "Latitude": 22.349046, "Longitude": 71.188171, "Altitude": "-", "Grid_no": "22", "CT_loc_ID": "DEPRESH003", "PA_name": "-", "Range": "-", "Beat": "-", "Nearest_village": "-", "Date_of_Deployment": "18-03-2025", "Habitat_type": "Agricultural Land" }, "geometry": { "type": "Point", "coordinates": [ 7924630.946224483661354, 2553484.292599118780345 ] } },
{ "type": "Feature", "properties": { "Sl_no": 31, "Project_partner": "Sahjeevan", "State": "Gujarat", "Location": "Chotila", "CT_no": "1279A3005021", "Latitude": 22.330261, "Longitude": 71.1848, "Altitude": "-", "Grid_no": "23", "CT_loc_ID": "DEPRESH004", "PA_name": "-", "Range": "-", "Beat": "-", "Nearest_village": "-", "Date_of_Deployment": "04-03-2025", "Habitat_type": "Agricultural Land" }, "geometry": { "type": "Point", "coordinates": [ 7924255.688221019692719, 2551223.474502973258495 ] } },
{ "type": "Feature", "properties": { "Sl_no": 32, "Project_partner": "Sahjeevan", "State": "Gujarat", "Location": "Chotila", "CT_no": "-", "Latitude": 22.289765, "Longitude": 71.198867, "Altitude": "-", "Grid_no": "32", "CT_loc_ID": "DEPSOD001", "PA_name": "-", "Range": "-", "Beat": "-", "Nearest_village": "-", "Date_of_Deployment": "21-03-2025", "Habitat_type": "Agricultural Land" }, "geometry": { "type": "Point", "coordinates": [ 7925821.619498010724783, 2546350.722591699566692 ] } },
{ "type": "Feature", "properties": { "Sl_no": 33, "Project_partner": "Sahjeevan", "State": "Gujarat", "Location": "Chotila", "CT_no": "1279A3001878", "Latitude": 22.309479, "Longitude": 71.175592, "Altitude": "-", "Grid_no": "24", "CT_loc_ID": "KHERHYENA", "PA_name": "-", "Range": "-", "Beat": "-", "Nearest_village": "-", "Date_of_Deployment": "03-03-2025", "Habitat_type": "Vidi" }, "geometry": { "type": "Point", "coordinates": [ 7923230.658349796198308, 2548722.667540470603853 ] } },
{ "type": "Feature", "properties": { "Sl_no": 34, "Project_partner": "Sahjeevan", "State": "Gujarat", "Location": "Gugaliyana", "CT_no": "172", "Latitude": 22.533989, "Longitude": 71.250761, "Altitude": "-", "Grid_no": "-", "CT_loc_ID": "DEPGUG01", "PA_name": "-", "Range": "-", "Beat": "-", "Nearest_village": "-", "Date_of_Deployment": "03-12-2024", "Habitat_type": "Reserved Forest" }, "geometry": { "type": "Point", "coordinates": [ 7931598.433153235353529, 2575758.931101014837623 ] } },
{ "type": "Feature", "properties": { "Sl_no": 35, "Project_partner": "Sahjeevan", "State": "Gujarat", "Location": "Gugaliyana", "CT_no": "177", "Latitude": 22.534483, "Longitude": 71.250236, "Altitude": "-", "Grid_no": "-", "CT_loc_ID": "DEPGUG02", "PA_name": "-", "Range": "-", "Beat": "-", "Nearest_village": "-", "Date_of_Deployment": "03-12-2024", "Habitat_type": "Reserved Forest" }, "geometry": { "type": "Point", "coordinates": [ 7931539.990420568734407, 2575818.468573686201125 ] } },
{ "type": "Feature", "properties": { "Sl_no": 36, "Project_partner": "Sahjeevan", "State": "Gujarat", "Location": "Gugaliyana", "CT_no": "174", "Latitude": 22.534486, "Longitude": 71.251467, "Altitude": "-", "Grid_no": "-", "CT_loc_ID": "DEPGUG06", "PA_name": "-", "Range": "-", "Beat": "-", "Nearest_village": "-", "Date_of_Deployment": "03-12-2024", "Habitat_type": "Reserved Forest" }, "geometry": { "type": "Point", "coordinates": [ 7931677.024713736027479, 2575818.830137936398387 ] } },
{ "type": "Feature", "properties": { "Sl_no": 37, "Project_partner": "Sahjeevan", "State": "Gujarat", "Location": "Gugaliyana", "CT_no": "179", "Latitude": 22.534042, "Longitude": 71.254189, "Altitude": "-", "Grid_no": "-", "CT_loc_ID": "DEPGUG07", "PA_name": "-", "Range": "-", "Beat": "-", "Nearest_village": "-", "Date_of_Deployment": "16-12-2024", "Habitat_type": "Reserved Forest" }, "geometry": { "type": "Point", "coordinates": [ 7931980.036367674358189, 2575765.318714402616024 ] } },
{ "type": "Feature", "properties": { "Sl_no": 38, "Project_partner": "Sahjeevan", "State": "Gujarat", "Location": "Gugaliyana", "CT_no": "175", "Latitude": 22.534336, "Longitude": 71.255881, "Altitude": "-", "Grid_no": "-", "CT_loc_ID": "DEPGUG08", "PA_name": "-", "Range": "-", "Beat": "-", "Nearest_village": "-", "Date_of_Deployment": "16-12-2024", "Habitat_type": "Reserved Forest" }, "geometry": { "type": "Point", "coordinates": [ 7932168.38894609734416, 2575800.751935065258294 ] } },
{ "type": "Feature", "properties": { "Sl_no": 39, "Project_partner": "Sahjeevan", "State": "Gujarat", "Location": "Gugaliyana", "CT_no": "173", "Latitude": 22.535817, "Longitude": 71.253478, "Altitude": "-", "Grid_no": "-", "CT_loc_ID": "DEPGUG09", "PA_name": "-", "Range": "-", "Beat": "-", "Nearest_village": "-", "Date_of_Deployment": "16-12-2024", "Habitat_type": "Reserved Forest" }, "geometry": { "type": "Point", "coordinates": [ 7931900.888209722004831, 2575979.244918314740062 ] } },
{ "type": "Feature", "properties": { "Sl_no": 40, "Project_partner": "Sahjeevan", "State": "Gujarat", "Location": "Gugaliyana", "CT_no": "170", "Latitude": 22.535617, "Longitude": 71.253294, "Altitude": "-", "Grid_no": "-", "CT_loc_ID": "DEPGUG10", "PA_name": "-", "Range": "-", "Beat": "-", "Nearest_village": "-", "Date_of_Deployment": "16-12-2024", "Habitat_type": "Reserved Forest" }, "geometry": { "type": "Point", "coordinates": [ 7931880.405423413962126, 2575955.140419841744006 ] } },
{ "type": "Feature", "properties": { "Sl_no": 41, "Project_partner": "Sahjeevan", "State": "Gujarat", "Location": "Gugaliyana", "CT_no": "176", "Latitude": 22.535714, "Longitude": 71.253189, "Altitude": "-", "Grid_no": "-", "CT_loc_ID": "DEPGUG11", "PA_name": "-", "Range": "-", "Beat": "-", "Nearest_village": "-", "Date_of_Deployment": "16-12-2024", "Habitat_type": "Reserved Forest" }, "geometry": { "type": "Point", "coordinates": [ 7931868.71687688305974, 2575966.831097241025418 ] } },
{ "type": "Feature", "properties": { "Sl_no": 42, "Project_partner": "Sahjeevan", "State": "Gujarat", "Location": "Gugaliyana", "CT_no": "171", "Latitude": 22.538142, "Longitude": 71.251214, "Altitude": "-", "Grid_no": "-", "CT_loc_ID": "DEPGUG12", "PA_name": "-", "Range": "-", "Beat": "-", "Nearest_village": "-", "Date_of_Deployment": "16-12-2024", "Habitat_type": "Reserved Forest" }, "geometry": { "type": "Point", "coordinates": [ 7931648.860882566310465, 2576259.462275232654065 ] } },
{ "type": "Feature", "properties": { "Sl_no": 43, "Project_partner": "Sahjeevan", "State": "Gujarat", "Location": "Gugaliyana", "CT_no": "178", "Latitude": 22.535178, "Longitude": 71.249353, "Altitude": "-", "Grid_no": "-", "CT_loc_ID": "DEPGUG13", "PA_name": "-", "Range": "-", "Beat": "-", "Nearest_village": "-", "Date_of_Deployment": "16-12-2024", "Habitat_type": "Reserved Forest" }, "geometry": { "type": "Point", "coordinates": [ 7931441.695310197770596, 2575902.231168118771166 ] } },
{ "type": "Feature", "properties": { "Sl_no": 44, "Project_partner": "Sahjeevan", "State": "Gujarat", "Location": "Gugaliyana", "CT_no": "173", "Latitude": 22.535481, "Longitude": 71.255142, "Altitude": "-", "Grid_no": "-", "CT_loc_ID": "DEPGUG14", "PA_name": "-", "Range": "-", "Beat": "-", "Nearest_village": "-", "Date_of_Deployment": "27-12-2024", "Habitat_type": "Reserved Forest" }, "geometry": { "type": "Point", "coordinates": [ 7932086.123842401430011, 2575938.749380823224783 ] } },
{ "type": "Feature", "properties": { "Sl_no": 45, "Project_partner": "Sahjeevan", "State": "Gujarat", "Location": "Gugaliyana", "CT_no": "1279A3005110", "Latitude": 22.527542, "Longitude": 71.255769, "Altitude": "-", "Grid_no": "-", "CT_loc_ID": "DEPGUG15", "PA_name": "-", "Range": "-", "Beat": "-", "Nearest_village": "-", "Date_of_Deployment": "30-12-2024", "Habitat_type": "Reserved Forest" }, "geometry": { "type": "Point", "coordinates": [ 7932155.921163128688931, 2574981.950451415032148 ] } },
{ "type": "Feature", "properties": { "Sl_no": 46, "Project_partner": "Sahjeevan", "State": "Gujarat", "Location": "Gugaliyana", "CT_no": "1279A3005021", "Latitude": 22.527731, "Longitude": 71.257212, "Altitude": "-", "Grid_no": "-", "CT_loc_ID": "DEPGUG16", "PA_name": "-", "Range": "-", "Beat": "-", "Nearest_village": "-", "Date_of_Deployment": "30-12-2024", "Habitat_type": "Reserved Forest" }, "geometry": { "type": "Point", "coordinates": [ 7932316.555188342928886, 2575004.727869760245085 ] } },
{ "type": "Feature", "properties": { "Sl_no": 47, "Project_partner": "Sahjeevan", "State": "Gujarat", "Location": "Gugaliyana", "CT_no": "1279A3005108", "Latitude": 22.530568, "Longitude": 71.258538, "Altitude": "-", "Grid_no": "-", "CT_loc_ID": "DEPGUG17", "PA_name": "-", "Range": "-", "Beat": "-", "Nearest_village": "-", "Date_of_Deployment": "30-12-2024", "Habitat_type": "Reserved Forest" }, "geometry": { "type": "Point", "coordinates": [ 7932464.164833134971559, 2575346.633920887950808 ] } },
{ "type": "Feature", "properties": { "Sl_no": 48, "Project_partner": "Sahjeevan", "State": "Gujarat", "Location": "Gugaliyana", "CT_no": "1279A3005104", "Latitude": 22.524008, "Longitude": 71.256066, "Altitude": "-", "Grid_no": "-", "CT_loc_ID": "DEPGUG18", "PA_name": "-", "Range": "-", "Beat": "-", "Nearest_village": "-", "Date_of_Deployment": "30-12-2024", "Habitat_type": "Reserved Forest" }, "geometry": { "type": "Point", "coordinates": [ 7932188.983051893301308, 2574556.054621986113489 ] } },
{ "type": "Feature", "properties": { "Sl_no": 49, "Project_partner": "Sahjeevan", "State": "Gujarat", "Location": "Gugaliyana", "CT_no": "1279A3005103", "Latitude": 22.522686, "Longitude": 71.2554, "Altitude": "-", "Grid_no": "-", "CT_loc_ID": "DEPGUG19", "PA_name": "-", "Range": "-", "Beat": "-", "Nearest_village": "-", "Date_of_Deployment": "30-12-2024", "Habitat_type": "Reserved Forest" }, "geometry": { "type": "Point", "coordinates": [ 7932114.844271025620401, 2574396.738155777100474 ] } },
{ "type": "Feature", "properties": { "Sl_no": 50, "Project_partner": "Sahjeevan", "State": "Gujarat", "Location": "Gugaliyana", "CT_no": "1279A3005106", "Latitude": 22.523048, "Longitude": 71.252658, "Altitude": "-", "Grid_no": "-", "CT_loc_ID": "DEPGUG20", "PA_name": "-", "Range": "-", "Beat": "-", "Nearest_village": "-", "Date_of_Deployment": "30-12-2024", "Habitat_type": "Reserved Forest" }, "geometry": { "type": "Point", "coordinates": [ 7931809.606227270327508, 2574440.36323929252103 ] } },
{ "type": "Feature", "properties": { "Sl_no": 51, "Project_partner": "Sahjeevan", "State": "Gujarat", "Location": "Gugaliyana", "CT_no": "1279A3001873", "Latitude": 22.522936, "Longitude": 71.251094, "Altitude": "-", "Grid_no": "-", "CT_loc_ID": "DEPGUG21", "PA_name": "-", "Range": "-", "Beat": "-", "Nearest_village": "-", "Date_of_Deployment": "30-12-2024", "Habitat_type": "Reserved Forest" }, "geometry": { "type": "Point", "coordinates": [ 7931635.502543669193983, 2574426.865963674150407 ] } },
{ "type": "Feature", "properties": { "Sl_no": 52, "Project_partner": "Sahjeevan", "State": "Gujarat", "Location": "Gugaliyana", "CT_no": "1279A3005101", "Latitude": 22.550158, "Longitude": 71.2628, "Altitude": "-", "Grid_no": "-", "CT_loc_ID": "DEPGUG22", "PA_name": "-", "Range": "-", "Beat": "-", "Nearest_village": "-", "Date_of_Deployment": "03-01-2025", "Habitat_type": "Reserved Forest" }, "geometry": { "type": "Point", "coordinates": [ 7932938.608502895571291, 2577707.749013875611126 ] } },
{ "type": "Feature", "properties": { "Sl_no": 53, "Project_partner": "Sahjeevan", "State": "Gujarat", "Location": "Gugaliyana", "CT_no": "1279A3005102", "Latitude": 22.550783, "Longitude": 71.260361, "Altitude": "-", "Grid_no": "-", "CT_loc_ID": "DEPGUG23", "PA_name": "-", "Range": "-", "Beat": "-", "Nearest_village": "-", "Date_of_Deployment": "03-01-2025", "Habitat_type": "Reserved Forest" }, "geometry": { "type": "Point", "coordinates": [ 7932667.100264851935208, 2577783.083623370155692 ] } },
{ "type": "Feature", "properties": { "Sl_no": 54, "Project_partner": "Sahjeevan", "State": "Gujarat", "Location": "Gugaliyana", "CT_no": "178", "Latitude": 22.548918, "Longitude": 71.258797, "Altitude": "-", "Grid_no": "-", "CT_loc_ID": "DEPGUG24", "PA_name": "-", "Range": "-", "Beat": "-", "Nearest_village": "-", "Date_of_Deployment": "03-01-2025", "Habitat_type": "Reserved Forest" }, "geometry": { "type": "Point", "coordinates": [ 7932492.99658124987036, 2577558.286158716771752 ] } },
{ "type": "Feature", "properties": { "Sl_no": 55, "Project_partner": "Sahjeevan", "State": "Gujarat", "Location": "Gugaliyana", "CT_no": "1279A3005109", "Latitude": 22.548653, "Longitude": 71.266394, "Altitude": "-", "Grid_no": "-", "CT_loc_ID": "DEPGUG25", "PA_name": "-", "Range": "-", "Beat": "-", "Nearest_village": "-", "Date_of_Deployment": "03-01-2025", "Habitat_type": "Reserved Forest" }, "geometry": { "type": "Point", "coordinates": [ 7933338.690752808004618, 2577526.34467434277758 ] } },
{ "type": "Feature", "properties": { "Sl_no": 56, "Project_partner": "Sahjeevan", "State": "Gujarat", "Location": "Gugaliyana", "CT_no": "1279A3005021", "Latitude": 22.538608, "Longitude": 71.260439, "Altitude": "-", "Grid_no": "-", "CT_loc_ID": "DEPGUG26", "PA_name": "-", "Range": "-", "Beat": "-", "Nearest_village": "-", "Date_of_Deployment": "12-02-2025", "Habitat_type": "Reserved Forest" }, "geometry": { "type": "Point", "coordinates": [ 7932675.783185132779181, 2576315.626837878953665 ] } },
{ "type": "Feature", "properties": { "Sl_no": 57, "Project_partner": "Sahjeevan", "State": "Gujarat", "Location": "Gugaliyana", "CT_no": "1279A3005110", "Latitude": 22.534294, "Longitude": 71.258753, "Altitude": "-", "Grid_no": "-", "CT_loc_ID": "DEPGUG27", "PA_name": "-", "Range": "-", "Beat": "-", "Nearest_village": "-", "Date_of_Deployment": "12-02-2025", "Habitat_type": "Reserved Forest" }, "geometry": { "type": "Point", "coordinates": [ 7932488.098523654974997, 2575795.69004178000614 ] } },
{ "type": "Feature", "properties": { "Sl_no": 58, "Project_partner": "Sahjeevan", "State": "Gujarat", "Location": "Gugaliyana", "CT_no": "1279A3005103", "Latitude": 22.536442, "Longitude": 71.258472, "Altitude": "-", "Grid_no": "-", "CT_loc_ID": "DEPGUG28", "PA_name": "-", "Range": "-", "Beat": "-", "Nearest_village": "-", "Date_of_Deployment": "12-02-2025", "Habitat_type": "Reserved Forest" }, "geometry": { "type": "Point", "coordinates": [ 7932456.817746741697192, 2576054.571701072622091 ] } },
{ "type": "Feature", "properties": { "Sl_no": 59, "Project_partner": "Sahjeevan", "State": "Gujarat", "Location": "Gugaliyana", "CT_no": "1279A3005104", "Latitude": 22.543753, "Longitude": 71.265639, "Altitude": "-", "Grid_no": "-", "CT_loc_ID": "DEPGUG29", "PA_name": "-", "Range": "-", "Beat": "-", "Nearest_village": "-", "Date_of_Deployment": "17-02-2025", "Habitat_type": "Reserved Forest" }, "geometry": { "type": "Point", "coordinates": [ 7933254.644537257030606, 2576935.73960044933483 ] } },
{ "type": "Feature", "properties": { "Sl_no": 60, "Project_partner": "Sahjeevan", "State": "Gujarat", "Location": "Gugaliyana", "CT_no": "1279A3005109", "Latitude": 22.538519, "Longitude": 71.267056, "Altitude": "-", "Grid_no": "-", "CT_loc_ID": "DEPGUG30", "PA_name": "-", "Range": "-", "Beat": "-", "Nearest_village": "-", "Date_of_Deployment": "17-02-2025", "Habitat_type": "Reserved Forest" }, "geometry": { "type": "Point", "coordinates": [ 7933412.384255710989237, 2576304.900114917661995 ] } },
{ "type": "Feature", "properties": { "Sl_no": 61, "Project_partner": "Sahjeevan", "State": "Gujarat", "Location": "Gugaliyana", "CT_no": "1279A3001873", "Latitude": 22.540125, "Longitude": 71.267911, "Altitude": "-", "Grid_no": "-", "CT_loc_ID": "DEPGUG31", "PA_name": "-", "Range": "-", "Beat": "-", "Nearest_village": "-", "Date_of_Deployment": "17-02-2025", "Habitat_type": "Reserved Forest" }, "geometry": { "type": "Point", "coordinates": [ 7933507.562420340254903, 2576498.464291598647833 ] } },
{ "type": "Feature", "properties": { "Sl_no": 62, "Project_partner": "Sahjeevan", "State": "Gujarat", "Location": "Gugaliyana", "CT_no": "1279A3005101", "Latitude": 22.538842, "Longitude": 71.268881, "Altitude": "-", "Grid_no": "-", "CT_loc_ID": "DEPGUG32", "PA_name": "-", "Range": "-", "Beat": "-", "Nearest_village": "-", "Date_of_Deployment": "17-02-2025", "Habitat_type": "Reserved Forest" }, "geometry": { "type": "Point", "coordinates": [ 7933615.542326409369707, 2576343.829715512227267 ] } },
{ "type": "Feature", "properties": { "Sl_no": 63, "Project_partner": "Sahjeevan", "State": "Gujarat", "Location": "Gugaliyana", "CT_no": "1279A3005102", "Latitude": 22.537783, "Longitude": 71.262014, "Altitude": "-", "Grid_no": "-", "CT_loc_ID": "DEPGUG33", "PA_name": "-", "Range": "-", "Beat": "-", "Nearest_village": "-", "Date_of_Deployment": "17-02-2025", "Habitat_type": "Reserved Forest" }, "geometry": { "type": "Point", "coordinates": [ 7932851.111383131705225, 2576216.193996802438051 ] } },
{ "type": "Feature", "properties": { "Sl_no": 64, "Project_partner": "Sahjeevan", "State": "Gujarat", "Location": "Gugaliyana", "CT_no": "1279A3005108", "Latitude": 22.540516, "Longitude": 71.259818, "Altitude": "-", "Grid_no": "-", "CT_loc_ID": "DEPGUG34", "PA_name": "-", "Range": "-", "Beat": "-", "Nearest_village": "-", "Date_of_Deployment": "17-02-2025", "Habitat_type": "Reserved Forest" }, "geometry": { "type": "Point", "coordinates": [ 7932606.653781349770725, 2576545.590157402679324 ] } },
{ "type": "Feature", "properties": { "Sl_no": 65, "Project_partner": "Sahjeevan", "State": "Gujarat", "Location": "Vavdi", "CT_no": "179", "Latitude": 22.512758, "Longitude": 71.247773, "Altitude": "-", "Grid_no": "-", "CT_loc_ID": "DEPVAV01", "PA_name": "-", "Range": "-", "Beat": "-", "Nearest_village": "-", "Date_of_Deployment": "18-02-2025", "Habitat_type": "Reserved Forest" }, "geometry": { "type": "Point", "coordinates": [ 7931265.810514744371176, 2573200.346707099583 ] } },
{ "type": "Feature", "properties": { "Sl_no": 66, "Project_partner": "Sahjeevan", "State": "Gujarat", "Location": "Vavdi", "CT_no": "177", "Latitude": 22.511909, "Longitude": 71.24918, "Altitude": "-", "Grid_no": "-", "CT_loc_ID": "DEPVAV02", "PA_name": "-", "Range": "-", "Beat": "-", "Nearest_village": "-", "Date_of_Deployment": "18-02-2025", "Habitat_type": "Reserved Forest" }, "geometry": { "type": "Point", "coordinates": [ 7931422.437038291245699, 2573098.040427782572806 ] } },
{ "type": "Feature", "properties": { "Sl_no": 67, "Project_partner": "Sahjeevan", "State": "Gujarat", "Location": "Vavdi", "CT_no": "172", "Latitude": 22.512898, "Longitude": 71.249972, "Altitude": "-", "Grid_no": "-", "CT_loc_ID": "DEPVAV03", "PA_name": "-", "Range": "-", "Beat": "-", "Nearest_village": "-", "Date_of_Deployment": "18-02-2025", "Habitat_type": "Reserved Forest" }, "geometry": { "type": "Point", "coordinates": [ 7931510.60207499936223, 2573217.217060856055468 ] } },
{ "type": "Feature", "properties": { "Sl_no": 68, "Project_partner": "Sahjeevan", "State": "Gujarat", "Location": "Vavdi", "CT_no": "1279A3004883", "Latitude": 22.513289, "Longitude": 71.250989, "Altitude": "-", "Grid_no": "-", "CT_loc_ID": "DEPVAV04", "PA_name": "-", "Range": "-", "Beat": "-", "Nearest_village": "-", "Date_of_Deployment": "18-02-2025", "Habitat_type": "Reserved Forest" }, "geometry": { "type": "Point", "coordinates": [ 7931623.813997136428952, 2573264.333639341872185 ] } },
{ "type": "Feature", "properties": { "Sl_no": 69, "Project_partner": "Sahjeevan", "State": "Gujarat", "Location": "Vavdi", "CT_no": "173", "Latitude": 22.512606, "Longitude": 71.251215, "Altitude": "-", "Grid_no": "-", "CT_loc_ID": "DEPVAV05", "PA_name": "-", "Range": "-", "Beat": "-", "Nearest_village": "-", "Date_of_Deployment": "18-02-2025", "Habitat_type": "Reserved Forest" }, "geometry": { "type": "Point", "coordinates": [ 7931648.972202056087554, 2573182.03034236561507 ] } },
{ "type": "Feature", "properties": { "Sl_no": 70, "Project_partner": "Sahjeevan", "State": "Gujarat", "Location": "Vavdi", "CT_no": "1279A3004889", "Latitude": 22.513803, "Longitude": 71.252815, "Altitude": "-", "Grid_no": "-", "CT_loc_ID": "DEPVAV06", "PA_name": "-", "Range": "-", "Beat": "-", "Nearest_village": "-", "Date_of_Deployment": "18-02-2025", "Habitat_type": "Reserved Forest" }, "geometry": { "type": "Point", "coordinates": [ 7931827.083387324586511, 2573326.272259847726673 ] } },
{ "type": "Feature", "properties": { "Sl_no": 71, "Project_partner": "Sahjeevan", "State": "Gujarat", "Location": "Vavdi", "CT_no": "1279A3005106", "Latitude": 22.513448, "Longitude": 71.252514, "Altitude": "-", "Grid_no": "-", "CT_loc_ID": "DEPVAV07", "PA_name": "-", "Range": "-", "Beat": "-", "Nearest_village": "-", "Date_of_Deployment": "18-02-2025", "Habitat_type": "Reserved Forest" }, "geometry": { "type": "Point", "coordinates": [ 7931793.576220597140491, 2573283.493616024032235 ] } },
{ "type": "Feature", "properties": { "Sl_no": 72, "Project_partner": "Sahjeevan", "State": "Gujarat", "Location": "Vavdi", "CT_no": "1279A3004944", "Latitude": 22.514391, "Longitude": 71.253162, "Altitude": "-", "Grid_no": "-", "CT_loc_ID": "DEPVAV08", "PA_name": "-", "Range": "-", "Beat": "-", "Nearest_village": "-", "Date_of_Deployment": "18-02-2025", "Habitat_type": "Reserved Forest" }, "geometry": { "type": "Point", "coordinates": [ 7931865.71125063020736, 2573397.128396096173674 ] } },
{ "type": "Feature", "properties": { "Sl_no": 73, "Project_partner": "Sahjeevan", "State": "Gujarat", "Location": "Vavdi", "CT_no": "170", "Latitude": 22.515289, "Longitude": 71.250742, "Altitude": "-", "Grid_no": "-", "CT_loc_ID": "DEPVAV09", "PA_name": "-", "Range": "-", "Beat": "-", "Nearest_village": "-", "Date_of_Deployment": "18-02-2025", "Habitat_type": "Reserved Forest" }, "geometry": { "type": "Point", "coordinates": [ 7931596.318082910962403, 2573505.341240271460265 ] } },
{ "type": "Feature", "properties": { "Sl_no": 74, "Project_partner": "Sahjeevan", "State": "Gujarat", "Location": "Vavdi", "CT_no": "175", "Latitude": 22.515873, "Longitude": 71.252651, "Altitude": "-", "Grid_no": "-", "CT_loc_ID": "DEPVAV10", "PA_name": "-", "Range": "-", "Beat": "-", "Nearest_village": "-", "Date_of_Deployment": "18-02-2025", "Habitat_type": "Reserved Forest" }, "geometry": { "type": "Point", "coordinates": [ 7931808.826990835368633, 2573575.716117547359318 ] } },
{ "type": "Feature", "properties": { "Sl_no": 75, "Project_partner": "Sahjeevan", "State": "Gujarat", "Location": "Vavdi", "CT_no": "171", "Latitude": 22.518713, "Longitude": 71.251834, "Altitude": "-", "Grid_no": "-", "CT_loc_ID": "DEPVAV11", "PA_name": "-", "Range": "-", "Beat": "-", "Nearest_village": "-", "Date_of_Deployment": "18-02-2025", "Habitat_type": "Reserved Forest" }, "geometry": { "type": "Point", "coordinates": [ 7931717.878966857679188, 2573917.954349023289979 ] } },
{ "type": "Feature", "properties": { "Sl_no": 76, "Project_partner": "Sahjeevan", "State": "Gujarat", "Location": "Vavdi", "CT_no": "176", "Latitude": 22.518587, "Longitude": 71.250069, "Altitude": "-", "Grid_no": "-", "CT_loc_ID": "DEPVAV12", "PA_name": "-", "Range": "-", "Beat": "-", "Nearest_village": "-", "Date_of_Deployment": "18-02-2025", "Habitat_type": "Reserved Forest" }, "geometry": { "type": "Point", "coordinates": [ 7931521.400065606459975, 2573902.77039107400924 ] } },
{ "type": "Feature", "properties": { "Sl_no": 77, "Project_partner": "Sahjeevan", "State": "Gujarat", "Location": "Vavdi", "CT_no": "1279A3004942", "Latitude": 22.518064, "Longitude": 71.249268, "Altitude": "-", "Grid_no": "-", "CT_loc_ID": "DEPVAV13", "PA_name": "-", "Range": "-", "Beat": "-", "Nearest_village": "-", "Date_of_Deployment": "18-02-2025", "Habitat_type": "Reserved Forest" }, "geometry": { "type": "Point", "coordinates": [ 7931432.233153481036425, 2573839.745062811300159 ] } },
{ "type": "Feature", "properties": { "Sl_no": 78, "Project_partner": "Sahjeevan", "State": "Gujarat", "Location": "Vavdi", "CT_no": "174", "Latitude": 22.519359, "Longitude": 71.248689, "Altitude": "-", "Grid_no": "-", "CT_loc_ID": "DEPVAV14", "PA_name": "-", "Range": "-", "Beat": "-", "Nearest_village": "-", "Date_of_Deployment": "18-02-2025", "Habitat_type": "Reserved Forest" }, "geometry": { "type": "Point", "coordinates": [ 7931367.779168312437832, 2573995.802477856632322 ] } },
{ "type": "Feature", "properties": { "Sl_no": 79, "Project_partner": "Sahjeevan", "State": "Gujarat", "Location": "Vavdi", "CT_no": "1279A3004888", "Latitude": 22.517202, "Longitude": 71.249253, "Altitude": "-", "Grid_no": "-", "CT_loc_ID": "DEPVAV15", "PA_name": "-", "Range": "-", "Beat": "-", "Nearest_village": "-", "Date_of_Deployment": "19-02-2025", "Habitat_type": "Reserved Forest" }, "geometry": { "type": "Point", "coordinates": [ 7931430.563361118547618, 2573735.868273638188839 ] } },
{ "type": "Feature", "properties": { "Sl_no": 80, "Project_partner": "Sahjeevan", "State": "Gujarat", "Location": "Vavdi", "CT_no": "1279A3004950", "Latitude": 22.518508, "Longitude": 71.248529, "Altitude": "-", "Grid_no": "-", "CT_loc_ID": "DEPVAV16", "PA_name": "-", "Range": "-", "Beat": "-", "Nearest_village": "-", "Date_of_Deployment": "19-02-2025", "Habitat_type": "Reserved Forest" }, "geometry": { "type": "Point", "coordinates": [ 7931349.968049785122275, 2573893.250297516118735 ] } }
]
}
