{
"type": "FeatureCollection",
"name": "Sahjeevan_ChotilaGrid",
"crs": { "type": "name", "properties": { "name": "urn:ogc:def:crs:EPSG::3857" } },
"xy_coordinate_resolution": 1e-15,
"features": [
{ "type": "Feature", "properties": { "left": 973365.8291, "top": 997610.0813, "right": 975365.8291, "bottom": 995610.0813 }, "geometry": { "type": "MultiPolygon", "coordinates": [ [ [ [ 7916632.875190881080925, 2554354.274561663623899, 0.0 ], [ 7918795.189895482733846, 2554357.872323509771377, 0.0 ], [ 7918798.627048366703093, 2552183.231344019528478, 0.0 ], [ 7916636.591397895477712, 2552179.634505373425782, 0.0 ], [ 7916632.875190881080925, 2554354.274561663623899, 0.0 ] ] ] ] } },
{ "type": "Feature", "properties": { "left": 973365.8291, "top": 995610.0813, "right": 975365.8291, "bottom": 993610.0813 }, "geometry": { "type": "MultiPolygon", "coordinates": [ [ [ [ 7916636.591397895477712, 2552179.634505373425782, 0.0 ], [ 7918798.627048366703093, 2552183.231344019528478, 0.0 ], [ 7918802.063314223662019, 2550008.867760899476707, 0.0 ], [ 7916640.306645835749805, 2550005.271845097653568, 0.0 ], [ 7916636.591397895477712, 2552179.634505373425782, 0.0 ] ] ] ] } },
{ "type": "Feature", "properties": { "left": 973365.8291, "top": 993610.0813, "right": 975365.8291, "bottom": 991610.0813 }, "geometry": { "type": "MultiPolygon", "coordinates": [ [ [ [ 7916640.306645835749805, 2550005.271845097653568, 0.0 ], [ 7918802.063314223662019, 2550008.867760899476707, 0.0 ], [ 7918805.498693376779556, 2547834.781504641287029, 0.0 ], [ 7916644.02093509491533, 2547831.18651134101674, 0.0 ], [ 7916640.306645835749805, 2550005.271845097653568, 0.0 ] ] ] ] } },
{ "type": "Feature", "properties": { "left": 973365.8291, "top": 991610.0813, "right": 975365.8291, "bottom": 989610.0813 }, "geometry": { "type": "MultiPolygon", "coordinates": [ [ [ [ 7916644.02093509491533, 2547831.18651134101674, 0.0 ], [ 7918805.498693376779556, 2547834.781504641287029, 0.0 ], [ 7918808.933186170645058, 2545660.972505728714168, 0.0 ], [ 7916647.734266046434641, 2545657.378434575628489, 0.0 ], [ 7916644.02093509491533, 2547831.18651134101674, 0.0 ] ] ] ] } },
{ "type": "Feature", "properties": { "left": 973365.8291, "top": 989610.0813, "right": 975365.8291, "bottom": 987610.0813 }, "geometry": { "type": "MultiPolygon", "coordinates": [ [ [ [ 7916647.734266046434641, 2545657.378434575628489, 0.0 ], [ 7918808.933186170645058, 2545660.972505728714168, 0.0 ], [ 7918812.366792962886393, 2543487.440694698598236, 0.0 ], [ 7916651.446639051660895, 2543483.847545338328928, 0.0 ], [ 7916647.734266046434641, 2545657.378434575628489, 0.0 ] ] ] ] } },
{ "type": "Feature", "properties": { "left": 973365.8291, "top": 987610.0813, "right": 975365.8291, "bottom": 985610.0813 }, "geometry": { "type": "MultiPolygon", "coordinates": [ [ [ [ 7916651.446639051660895, 2543483.847545338328928, 0.0 ], [ 7918812.366792962886393, 2543487.440694698598236, 0.0 ], [ 7918815.799514083191752, 2541314.186002103611827, 0.0 ], [ 7916655.158054473809898, 2541310.593774182256311, 0.0 ], [ 7916651.446639051660895, 2543483.847545338328928, 0.0 ] ] ] ] } },
{ "type": "Feature", "properties": { "left": 973365.8291, "top": 985610.0813, "right": 975365.8291, "bottom": 983610.0813 }, "geometry": { "type": "MultiPolygon", "coordinates": [ [ [ [ 7916655.158054473809898, 2541310.593774182256311, 0.0 ], [ 7918815.799514083191752, 2541314.186002103611827, 0.0 ], [ 7918819.231349871493876, 2539141.208358535077423, 0.0 ], [ 7916658.868512705899775, 2539137.617051699198782, 0.0 ], [ 7916655.158054473809898, 2541310.593774182256311, 0.0 ] ] ] ] } },
{ "type": "Feature", "properties": { "left": 975365.8291, "top": 997610.0813, "right": 977365.8291, "bottom": 995610.0813 }, "geometry": { "type": "MultiPolygon", "coordinates": [ [ [ [ 7918795.189895482733846, 2554357.872323509771377, 0.0 ], [ 7920957.505487456917763, 2554361.189386251848191, 0.0 ], [ 7920960.663585887290537, 2552186.547555583063513, 0.0 ], [ 7918798.627048366703093, 2552183.231344019528478, 0.0 ], [ 7918795.189895482733846, 2554357.872323509771377, 0.0 ] ] ] ] } },
{ "type": "Feature", "properties": { "left": 975365.8291, "top": 995610.0813, "right": 977365.8291, "bottom": 993610.0813 }, "geometry": { "type": "MultiPolygon", "coordinates": [ [ [ [ 7918798.627048366703093, 2552183.231344019528478, 0.0 ], [ 7920960.663585887290537, 2552186.547555583063513, 0.0 ], [ 7920963.82086930423975, 2550012.183121617883444, 0.0 ], [ 7918802.063314223662019, 2550008.867760899476707, 0.0 ], [ 7918798.627048366703093, 2552183.231344019528478, 0.0 ] ] ] ] } },
{ "type": "Feature", "properties": { "left": 975365.8291, "top": 993610.0813, "right": 977365.8291, "bottom": 991610.0813 }, "geometry": { "type": "MultiPolygon", "coordinates": [ [ [ [ 7918802.063314223662019, 2550008.867760899476707, 0.0 ], [ 7920963.82086930423975, 2550012.183121617883444, 0.0 ], [ 7920966.977338008582592, 2547838.096014834474772, 0.0 ], [ 7918805.498693376779556, 2547834.781504641287029, 0.0 ], [ 7918802.063314223662019, 2550008.867760899476707, 0.0 ] ] ] ] } },
{ "type": "Feature", "properties": { "left": 975365.8291, "top": 991610.0813, "right": 977365.8291, "bottom": 989610.0813 }, "geometry": { "type": "MultiPolygon", "coordinates": [ [ [ [ 7918805.498693376779556, 2547834.781504641287029, 0.0 ], [ 7920966.977338008582592, 2547838.096014834474772, 0.0 ], [ 7920970.132992310449481, 2545664.286165729630738, 0.0 ], [ 7918808.933186170645058, 2545660.972505728714168, 0.0 ], [ 7918805.498693376779556, 2547834.781504641287029, 0.0 ] ] ] ] } },
{ "type": "Feature", "properties": { "left": 975365.8291, "top": 989610.0813, "right": 977365.8291, "bottom": 987610.0813 }, "geometry": { "type": "MultiPolygon", "coordinates": [ [ [ [ 7918808.933186170645058, 2545660.972505728714168, 0.0 ], [ 7920970.132992310449481, 2545664.286165729630738, 0.0 ], [ 7920973.287832541391253, 2543490.753504815045744, 0.0 ], [ 7918812.366792962886393, 2543487.440694698598236, 0.0 ], [ 7918808.933186170645058, 2545660.972505728714168, 0.0 ] ] ] ] } },
{ "type": "Feature", "properties": { "left": 975365.8291, "top": 987610.0813, "right": 977365.8291, "bottom": 985610.0813 }, "geometry": { "type": "MultiPolygon", "coordinates": [ [ [ [ 7918812.366792962886393, 2543487.440694698598236, 0.0 ], [ 7920973.287832541391253, 2543490.753504815045744, 0.0 ], [ 7920976.441859006881714, 2541317.497962677851319, 0.0 ], [ 7918815.799514083191752, 2541314.186002103611827, 0.0 ], [ 7918812.366792962886393, 2543487.440694698598236, 0.0 ] ] ] ] } },
{ "type": "Feature", "properties": { "left": 975365.8291, "top": 985610.0813, "right": 977365.8291, "bottom": 983610.0813 }, "geometry": { "type": "MultiPolygon", "coordinates": [ [ [ [ 7918815.799514083191752, 2541314.186002103611827, 0.0 ], [ 7920976.441859006881714, 2541317.497962677851319, 0.0 ], [ 7920979.595072027295828, 2539144.519469876307994, 0.0 ], [ 7918819.231349871493876, 2539141.208358535077423, 0.0 ], [ 7918815.799514083191752, 2541314.186002103611827, 0.0 ] ] ] ] } },
{ "type": "Feature", "properties": { "left": 977365.8291, "top": 997610.0813, "right": 979365.8291, "bottom": 995610.0813 }, "geometry": { "type": "MultiPolygon", "coordinates": [ [ [ [ 7920957.505487456917763, 2554361.189386251848191, 0.0 ], [ 7923119.821894767694175, 2554364.225749554112554, 0.0 ], [ 7923122.700938433408737, 2552189.583139729686081, 0.0 ], [ 7920960.663585887290537, 2552186.547555583063513, 0.0 ], [ 7920957.505487456917763, 2554361.189386251848191, 0.0 ] ] ] ] } },
{ "type": "Feature", "properties": { "left": 977365.8291, "top": 995610.0813, "right": 979365.8291, "bottom": 993610.0813 }, "geometry": { "type": "MultiPolygon", "coordinates": [ [ [ [ 7920960.663585887290537, 2552186.547555583063513, 0.0 ], [ 7923122.700938433408737, 2552189.583139729686081, 0.0 ], [ 7923125.579239089041948, 2550015.217926918528974, 0.0 ], [ 7920963.82086930423975, 2550012.183121617883444, 0.0 ], [ 7920960.663585887290537, 2552186.547555583063513, 0.0 ] ] ] ] } },
{ "type": "Feature", "properties": { "left": 977365.8291, "top": 993610.0813, "right": 979365.8291, "bottom": 991610.0813 }, "geometry": { "type": "MultiPolygon", "coordinates": [ [ [ [ 7920963.82086930423975, 2550012.183121617883444, 0.0 ], [ 7923125.579239089041948, 2550015.217926918528974, 0.0 ], [ 7923128.456797029823065, 2547841.130041587166488, 0.0 ], [ 7920966.977338008582592, 2547838.096014834474772, 0.0 ], [ 7920963.82086930423975, 2550012.183121617883444, 0.0 ] ] ] ] } },
{ "type": "Feature", "properties": { "left": 977365.8291, "top": 991610.0813, "right": 979365.8291, "bottom": 989610.0813 }, "geometry": { "type": "MultiPolygon", "coordinates": [ [ [ [ 7920966.977338008582592, 2547838.096014834474772, 0.0 ], [ 7923128.456797029823065, 2547841.130041587166488, 0.0 ], [ 7923131.333612526766956, 2545667.319414220750332, 0.0 ], [ 7920970.132992310449481, 2545664.286165729630738, 0.0 ], [ 7920966.977338008582592, 2547838.096014834474772, 0.0 ] ] ] ] } },
{ "type": "Feature", "properties": { "left": 977365.8291, "top": 989610.0813, "right": 979365.8291, "bottom": 987610.0813 }, "geometry": { "type": "MultiPolygon", "coordinates": [ [ [ [ 7920970.132992310449481, 2545664.286165729630738, 0.0 ], [ 7923131.333612526766956, 2545667.319414220750332, 0.0 ], [ 7923134.209685890004039, 2543493.785975364502519, 0.0 ], [ 7920973.287832541391253, 2543490.753504815045744, 0.0 ], [ 7920970.132992310449481, 2545664.286165729630738, 0.0 ] ] ] ] } },
{ "type": "Feature", "properties": { "left": 977365.8291, "top": 987610.0813, "right": 979365.8291, "bottom": 985610.0813 }, "geometry": { "type": "MultiPolygon", "coordinates": [ [ [ [ 7920973.287832541391253, 2543490.753504815045744, 0.0 ], [ 7923134.209685890004039, 2543493.785975364502519, 0.0 ], [ 7923137.085017386823893, 2541320.529655561316758, 0.0 ], [ 7920976.441859006881714, 2541317.497962677851319, 0.0 ], [ 7920973.287832541391253, 2543490.753504815045744, 0.0 ] ] ] ] } },
{ "type": "Feature", "properties": { "left": 977365.8291, "top": 985610.0813, "right": 979365.8291, "bottom": 983610.0813 }, "geometry": { "type": "MultiPolygon", "coordinates": [ [ [ [ 7920976.441859006881714, 2541317.497962677851319, 0.0 ], [ 7923137.085017386823893, 2541320.529655561316758, 0.0 ], [ 7923139.959607317112386, 2539147.550385401584208, 0.0 ], [ 7920979.595072027295828, 2539144.519469876307994, 0.0 ], [ 7920976.441859006881714, 2541317.497962677851319, 0.0 ] ] ] ] } },
{ "type": "Feature", "properties": { "left": 979365.8291, "top": 997610.0813, "right": 981365.8291, "bottom": 995610.0813 }, "geometry": { "type": "MultiPolygon", "coordinates": [ [ [ [ 7923119.821894767694175, 2554364.225749554112554, 0.0 ], [ 7925282.139045380987227, 2554366.981413109228015, 0.0 ], [ 7925284.739033984020352, 2552192.338096174411476, 0.0 ], [ 7923122.700938433408737, 2552189.583139729686081, 0.0 ], [ 7923119.821894767694175, 2554364.225749554112554, 0.0 ] ] ] ] } },
{ "type": "Feature", "properties": { "left": 979365.8291, "top": 995610.0813, "right": 981365.8291, "bottom": 993610.0813 }, "geometry": { "type": "MultiPolygon", "coordinates": [ [ [ [ 7923122.700938433408737, 2552189.583139729686081, 0.0 ], [ 7925284.739033984020352, 2552192.338096174411476, 0.0 ], [ 7925287.338351597078145, 2550017.972176504787058, 0.0 ], [ 7923125.579239089041948, 2550015.217926918528974, 0.0 ], [ 7923122.700938433408737, 2552189.583139729686081, 0.0 ] ] ] ] } },
{ "type": "Feature", "properties": { "left": 979365.8291, "top": 993610.0813, "right": 981365.8291, "bottom": 991610.0813 }, "geometry": { "type": "MultiPolygon", "coordinates": [ [ [ [ 7923125.579239089041948, 2550015.217926918528974, 0.0 ], [ 7925287.338351597078145, 2550017.972176504787058, 0.0 ], [ 7925289.936998488381505, 2547843.883584603201598, 0.0 ], [ 7923128.456797029823065, 2547841.130041587166488, 0.0 ], [ 7923125.579239089041948, 2550015.217926918528974, 0.0 ] ] ] ] } },
{ "type": "Feature", "properties": { "left": 979365.8291, "top": 991610.0813, "right": 981365.8291, "bottom": 989610.0813 }, "geometry": { "type": "MultiPolygon", "coordinates": [ [ [ [ 7923128.456797029823065, 2547841.130041587166488, 0.0 ], [ 7925289.936998488381505, 2547843.883584603201598, 0.0 ], [ 7925292.534974888898432, 2545670.072250928729773, 0.0 ], [ 7923131.333612526766956, 2545667.319414220750332, 0.0 ], [ 7923128.456797029823065, 2547841.130041587166488, 0.0 ] ] ] ] } },
{ "type": "Feature", "properties": { "left": 979365.8291, "top": 989610.0813, "right": 981365.8291, "bottom": 987610.0813 }, "geometry": { "type": "MultiPolygon", "coordinates": [ [ [ [ 7923131.333612526766956, 2545667.319414220750332, 0.0 ], [ 7925292.534974888898432, 2545670.072250928729773, 0.0 ], [ 7925295.132281091995537, 2543496.538106029387563, 0.0 ], [ 7923134.209685890004039, 2543493.785975364502519, 0.0 ], [ 7923131.333612526766956, 2545667.319414220750332, 0.0 ] ] ] ] } },
{ "type": "Feature", "properties": { "left": 979365.8291, "top": 987610.0813, "right": 981365.8291, "bottom": 985610.0813 }, "geometry": { "type": "MultiPolygon", "coordinates": [ [ [ [ 7923134.209685890004039, 2543493.785975364502519, 0.0 ], [ 7925295.132281091995537, 2543496.538106029387563, 0.0 ], [ 7925297.728917340748012, 2541323.281080456916243, 0.0 ], [ 7923137.085017386823893, 2541320.529655561316758, 0.0 ], [ 7923134.209685890004039, 2543493.785975364502519, 0.0 ] ] ] ] } },
{ "type": "Feature", "properties": { "left": 979365.8291, "top": 985610.0813, "right": 981365.8291, "bottom": 983610.0813 }, "geometry": { "type": "MultiPolygon", "coordinates": [ [ [ [ 7923137.085017386823893, 2541320.529655561316758, 0.0 ], [ 7925297.728917340748012, 2541323.281080456916243, 0.0 ], [ 7925300.324883892200887, 2539150.301104802638292, 0.0 ], [ 7923139.959607317112386, 2539147.550385401584208, 0.0 ], [ 7923137.085017386823893, 2541320.529655561316758, 0.0 ] ] ] ] } },
{ "type": "Feature", "properties": { "left": 981365.8291, "top": 997610.0813, "right": 983365.8291, "bottom": 995610.0813 }, "geometry": { "type": "MultiPolygon", "coordinates": [ [ [ [ 7925282.139045380987227, 2554366.981413109228015, 0.0 ], [ 7927444.45686724036932, 2554369.456376644317061, 0.0 ], [ 7927446.777800532989204, 2552194.81242462201044, 0.0 ], [ 7925284.739033984020352, 2552192.338096174411476, 0.0 ], [ 7925282.139045380987227, 2554366.981413109228015, 0.0 ] ] ] ] } },
{ "type": "Feature", "properties": { "left": 981365.8291, "top": 995610.0813, "right": 983365.8291, "bottom": 993610.0813 }, "geometry": { "type": "MultiPolygon", "coordinates": [ [ [ [ 7925284.739033984020352, 2552192.338096174411476, 0.0 ], [ 7927446.777800532989204, 2552194.81242462201044, 0.0 ], [ 7927449.098134837113321, 2550020.445870106574148, 0.0 ], [ 7925287.338351597078145, 2550017.972176504787058, 0.0 ], [ 7925284.739033984020352, 2552192.338096174411476, 0.0 ] ] ] ] } },
{ "type": "Feature", "properties": { "left": 981365.8291, "top": 993610.0813, "right": 983365.8291, "bottom": 991610.0813 }, "geometry": { "type": "MultiPolygon", "coordinates": [ [ [ [ 7925287.338351597078145, 2550017.972176504787058, 0.0 ], [ 7927449.098134837113321, 2550020.445870106574148, 0.0 ], [ 7927451.417870409786701, 2547846.356643598992378, 0.0 ], [ 7925289.936998488381505, 2547843.883584603201598, 0.0 ], [ 7925287.338351597078145, 2550017.972176504787058, 0.0 ] ] ] ] } },
{ "type": "Feature", "properties": { "left": 981365.8291, "top": 991610.0813, "right": 983365.8291, "bottom": 989610.0813 }, "geometry": { "type": "MultiPolygon", "coordinates": [ [ [ [ 7925289.936998488381505, 2547843.883584603201598, 0.0 ], [ 7927451.417870409786701, 2547846.356643598992378, 0.0 ], [ 7927453.737007471732795, 2545672.544675561133772, 0.0 ], [ 7925292.534974888898432, 2545670.072250928729773, 0.0 ], [ 7925289.936998488381505, 2547843.883584603201598, 0.0 ] ] ] ] } },
{ "type": "Feature", "properties": { "left": 981365.8291, "top": 989610.0813, "right": 983365.8291, "bottom": 987610.0813 }, "geometry": { "type": "MultiPolygon", "coordinates": [ [ [ [ 7925292.534974888898432, 2545670.072250928729773, 0.0 ], [ 7927453.737007471732795, 2545672.544675561133772, 0.0 ], [ 7927456.055546250194311, 2543499.009896550327539, 0.0 ], [ 7925295.132281091995537, 2543496.538106029387563, 0.0 ], [ 7925292.534974888898432, 2545670.072250928729773, 0.0 ] ] ] ] } },
{ "type": "Feature", "properties": { "left": 981365.8291, "top": 987610.0813, "right": 983365.8291, "bottom": 985610.0813 }, "geometry": { "type": "MultiPolygon", "coordinates": [ [ [ [ 7925295.132281091995537, 2543496.538106029387563, 0.0 ], [ 7927456.055546250194311, 2543499.009896550327539, 0.0 ], [ 7927458.373486984521151, 2541325.752237107139081, 0.0 ], [ 7925297.728917340748012, 2541323.281080456916243, 0.0 ], [ 7925295.132281091995537, 2543496.538106029387563, 0.0 ] ] ] ] } },
{ "type": "Feature", "properties": { "left": 981365.8291, "top": 985610.0813, "right": 983365.8291, "bottom": 983610.0813 }, "geometry": { "type": "MultiPolygon", "coordinates": [ [ [ [ 7925297.728917340748012, 2541323.281080456916243, 0.0 ], [ 7927458.373486984521151, 2541325.752237107139081, 0.0 ], [ 7927460.690829900093377, 2539152.771627823356539, 0.0 ], [ 7925300.324883892200887, 2539150.301104802638292, 0.0 ], [ 7925297.728917340748012, 2541323.281080456916243, 0.0 ] ] ] ] } },
{ "type": "Feature", "properties": { "left": 983365.8291, "top": 997610.0813, "right": 985365.8291, "bottom": 995610.0813 }, "geometry": { "type": "MultiPolygon", "coordinates": [ [ [ [ 7927444.45686724036932, 2554369.456376644317061, 0.0 ], [ 7929606.775288310833275, 2554371.650639915838838, 0.0 ], [ 7929608.817166048102081, 2552197.006124840117991, 0.0 ], [ 7927446.777800532989204, 2552194.81242462201044, 0.0 ], [ 7927444.45686724036932, 2554369.456376644317061, 0.0 ] ] ] ] } },
{ "type": "Feature", "properties": { "left": 983365.8291, "top": 995610.0813, "right": 985365.8291, "bottom": 993610.0813 }, "geometry": { "type": "MultiPolygon", "coordinates": [ [ [ [ 7927446.777800532989204, 2552194.81242462201044, 0.0 ], [ 7929608.817166048102081, 2552197.006124840117991, 0.0 ], [ 7929610.858516820706427, 2550022.639007478486747, 0.0 ], [ 7927449.098134837113321, 2550020.445870106574148, 0.0 ], [ 7927446.777800532989204, 2552194.81242462201044, 0.0 ] ] ] ] } },
{ "type": "Feature", "properties": { "left": 983365.8291, "top": 993610.0813, "right": 985365.8291, "bottom": 991610.0813 }, "geometry": { "type": "MultiPolygon", "coordinates": [ [ [ [ 7927449.098134837113321, 2550020.445870106574148, 0.0 ], [ 7929610.858516820706427, 2550022.639007478486747, 0.0 ], [ 7929612.899340841919184, 2547848.549218344502151, 0.0 ], [ 7927451.417870409786701, 2547846.356643598992378, 0.0 ], [ 7927449.098134837113321, 2550020.445870106574148, 0.0 ] ] ] ] } },
{ "type": "Feature", "properties": { "left": 983365.8291, "top": 991610.0813, "right": 985365.8291, "bottom": 989610.0813 }, "geometry": { "type": "MultiPolygon", "coordinates": [ [ [ [ 7927451.417870409786701, 2547846.356643598992378, 0.0 ], [ 7929612.899340841919184, 2547848.549218344502151, 0.0 ], [ 7929614.939638320356607, 2545674.736687885131687, 0.0 ], [ 7927453.737007471732795, 2545672.544675561133772, 0.0 ], [ 7927451.417870409786701, 2547846.356643598992378, 0.0 ] ] ] ] } },
{ "type": "Feature", "properties": { "left": 983365.8291, "top": 989610.0813, "right": 985365.8291, "bottom": 987610.0813 }, "geometry": { "type": "MultiPolygon", "coordinates": [ [ [ [ 7927453.737007471732795, 2545672.544675561133772, 0.0 ], [ 7929614.939638320356607, 2545674.736687885131687, 0.0 ], [ 7929616.979409447871149, 2543501.201346672605723, 0.0 ], [ 7927456.055546250194311, 2543499.009896550327539, 0.0 ], [ 7927453.737007471732795, 2545672.544675561133772, 0.0 ] ] ] ] } },
{ "type": "Feature", "properties": { "left": 983365.8291, "top": 987610.0813, "right": 985365.8291, "bottom": 985610.0813 }, "geometry": { "type": "MultiPolygon", "coordinates": [ [ [ [ 7927456.055546250194311, 2543499.009896550327539, 0.0 ], [ 7929616.979409447871149, 2543501.201346672605723, 0.0 ], [ 7929619.018654447048903, 2541327.943125257268548, 0.0 ], [ 7927458.373486984521151, 2541325.752237107139081, 0.0 ], [ 7927456.055546250194311, 2543499.009896550327539, 0.0 ] ] ] ] } },
{ "type": "Feature", "properties": { "left": 983365.8291, "top": 985610.0813, "right": 985365.8291, "bottom": 983610.0813 }, "geometry": { "type": "MultiPolygon", "coordinates": [ [ [ [ 7927458.373486984521151, 2541325.752237107139081, 0.0 ], [ 7929619.018654447048903, 2541327.943125257268548, 0.0 ], [ 7929621.057373492978513, 2539154.961954195052385, 0.0 ], [ 7927460.690829900093377, 2539152.771627823356539, 0.0 ], [ 7927458.373486984521151, 2541325.752237107139081, 0.0 ] ] ] ] } }
]
}
