{
"type": "FeatureCollection",
"name": "tripura_ct_locations",
"crs": { "type": "name", "properties": { "name": "urn:ogc:def:crs:EPSG::3857" } },
"xy_coordinate_resolution": 1e-15,
"features": [
{ "type": "Feature", "properties": { "Location": "Rowa", "Camera trap no.": "P5", "Altitude": "60m", "Trap location": "ROWA CT1", "PA name": "Rowa", "Range": "Panisagar", "Beat": "Rowa", "Nearest village": "Panisagar", "Date of deployment": "31-Jan-24" }, "geometry": { "type": "Point", "coordinates": [ 10260046.626094924286008, 2789046.407819963991642 ] } },
{ "type": "Feature", "properties": { "Location": "Rowa", "Camera trap no.": "P3", "Altitude": "60m", "Trap location": "ROWA CT1", "PA name": "Rowa", "Range": "Panisagar", "Beat": "Rowa", "Nearest village": "Panisagar", "Date of deployment": "31-Jan-24" }, "geometry": { "type": "Point", "coordinates": [ 10260046.626094924286008, 2789046.407819963991642 ] } },
{ "type": "Feature", "properties": { "Location": "Rowa", "Camera trap no.": "P13", "Altitude": "49m", "Trap location": "ROWA CT2", "PA name": "Rowa", "Range": "Panisagar", "Beat": "Rowa", "Nearest village": "Panisagar", "Date of deployment": "31-Jan-24" }, "geometry": { "type": "Point", "coordinates": [ 10259606.914106292650104, 2789138.007984213065356 ] } },
{ "type": "Feature", "properties": { "Location": "Rowa", "Camera trap no.": "P16", "Altitude": "49m", "Trap location": "ROWA CT2", "PA name": "Rowa", "Range": "Panisagar", "Beat": "Rowa", "Nearest village": "Panisagar", "Date of deployment": "31-Jan-24" }, "geometry": { "type": "Point", "coordinates": [ 10259606.914106292650104, 2789138.007984213065356 ] } },
{ "type": "Feature", "properties": { "Location": "Rowa", "Camera trap no.": "P21", "Altitude": "60m", "Trap location": "ROWA CT3", "PA name": "Rowa", "Range": "Panisagar", "Beat": "Rowa", "Nearest village": "Panisagar", "Date of deployment": "31-Jan-24" }, "geometry": { "type": "Point", "coordinates": [ 10259591.997294524684548, 2789327.316705391742289 ] } },
{ "type": "Feature", "properties": { "Location": "Rowa", "Camera trap no.": "P2", "Altitude": "60m", "Trap location": "ROWA CT3", "PA name": "Rowa", "Range": "Panisagar", "Beat": "Rowa", "Nearest village": "Panisagar", "Date of deployment": "31-Jan-24" }, "geometry": { "type": "Point", "coordinates": [ 10259591.997294524684548, 2789327.316705391742289 ] } },
{ "type": "Feature", "properties": { "Location": "Rowa", "Camera trap no.": "P19", "Altitude": "63m", "Trap location": "ROWA CT4", "PA name": "Rowa", "Range": "Panisagar", "Beat": "Rowa", "Nearest village": "Panisagar", "Date of deployment": "31-Jan-24" }, "geometry": { "type": "Point", "coordinates": [ 10260454.723348174244165, 2788989.493857172317803 ] } },
{ "type": "Feature", "properties": { "Location": "Rowa", "Camera trap no.": "P12", "Altitude": "63m", "Trap location": "ROWA CT4", "PA name": "Rowa", "Range": "Panisagar", "Beat": "Rowa", "Nearest village": "Panisagar", "Date of deployment": "31-Jan-24" }, "geometry": { "type": "Point", "coordinates": [ 10260454.723348174244165, 2788989.493857172317803 ] } },
{ "type": "Feature", "properties": { "Location": "Sepahijala", "Camera trap no.": "P3", "Altitude": "6m", "Trap location": "SEPCT1", "PA name": "Sepahijala", "Range": "Sepahijala", "Beat": "Sepahijala", "Nearest village": null, "Date of deployment": "12-Feb-24" }, "geometry": { "type": "Point", "coordinates": [ 10162934.28531414270401, 2712150.518684244714677 ] } },
{ "type": "Feature", "properties": { "Location": "Sepahijala", "Camera trap no.": "P21", "Altitude": "6m", "Trap location": "SEPCT1", "PA name": "Sepahijala", "Range": "Sepahijala", "Beat": "Sepahijala", "Nearest village": null, "Date of deployment": "12-Feb-24" }, "geometry": { "type": "Point", "coordinates": [ 10162934.28531414270401, 2712150.518684244714677 ] } },
{ "type": "Feature", "properties": { "Location": "Sepahijala", "Camera trap no.": "THT37", "Altitude": "17m", "Trap location": "SEPCT2", "PA name": "Sepahijala", "Range": "Sepahijala", "Beat": "Sepahijala", "Nearest village": null, "Date of deployment": "12-Feb-24" }, "geometry": { "type": "Point", "coordinates": [ 10162967.903800362721086, 2712133.625147575046867 ] } },
{ "type": "Feature", "properties": { "Location": "Sepahijala", "Camera trap no.": "THT39", "Altitude": "17m", "Trap location": "SEPCT2", "PA name": "Sepahijala", "Range": "Sepahijala", "Beat": "Sepahijala", "Nearest village": null, "Date of deployment": "12-Feb-24" }, "geometry": { "type": "Point", "coordinates": [ 10162967.903800362721086, 2712133.625147575046867 ] } },
{ "type": "Feature", "properties": { "Location": "Sepahijala", "Camera trap no.": "P16", "Altitude": "36m", "Trap location": "SEPCT3", "PA name": "Sepahijala", "Range": "Sepahijala", "Beat": "Sepahijala", "Nearest village": null, "Date of deployment": "12-Feb-24" }, "geometry": { "type": "Point", "coordinates": [ 10164412.274193406105042, 2712603.612468268722296 ] } },
{ "type": "Feature", "properties": { "Location": "Sepahijala", "Camera trap no.": "P13", "Altitude": "36m", "Trap location": "SEPCT3", "PA name": "Sepahijala", "Range": "Sepahijala", "Beat": "Sepahijala", "Nearest village": null, "Date of deployment": "12-Feb-24" }, "geometry": { "type": "Point", "coordinates": [ 10164412.274193406105042, 2712603.612468268722296 ] } },
{ "type": "Feature", "properties": { "Location": "Sepahijala", "Camera trap no.": "P19", "Altitude": "41m", "Trap location": "SEPCT4", "PA name": "Sepahijala", "Range": "Sepahijala", "Beat": "Sepahijala", "Nearest village": null, "Date of deployment": "12-Feb-24" }, "geometry": { "type": "Point", "coordinates": [ 10166094.534338273108006, 2714240.715904726646841 ] } },
{ "type": "Feature", "properties": { "Location": "Sepahijala", "Camera trap no.": "P12", "Altitude": "41m", "Trap location": "SEPCT4", "PA name": "Sepahijala", "Range": "Sepahijala", "Beat": "Sepahijala", "Nearest village": null, "Date of deployment": "12-Feb-24" }, "geometry": { "type": "Point", "coordinates": [ 10166094.534338273108006, 2714240.715904726646841 ] } },
{ "type": "Feature", "properties": { "Location": "Sepahijala", "Camera trap no.": "THT33", "Altitude": "26m", "Trap location": "SEPCT5", "PA name": "Sepahijala", "Range": "Sepahijala", "Beat": "Sepahijala", "Nearest village": null, "Date of deployment": "12-Feb-24" }, "geometry": { "type": "Point", "coordinates": [ 10163974.120677642524242, 2712512.822523267939687 ] } },
{ "type": "Feature", "properties": { "Location": "Sepahijala", "Camera trap no.": "THT31", "Altitude": "22m", "Trap location": "SEPCT6", "PA name": "Sepahijala", "Range": "Sepahijala", "Beat": "Sepahijala", "Nearest village": null, "Date of deployment": "13-Feb-24" }, "geometry": { "type": "Point", "coordinates": [ 10164506.005204651504755, 2712373.296282902359962 ] } },
{ "type": "Feature", "properties": { "Location": "Sepahijala", "Camera trap no.": "P2", "Altitude": "22m", "Trap location": "SEPCT6", "PA name": "Sepahijala", "Range": "Sepahijala", "Beat": "Sepahijala", "Nearest village": null, "Date of deployment": "13-Feb-24" }, "geometry": { "type": "Point", "coordinates": [ 10164506.005204651504755, 2712373.296282902359962 ] } },
{ "type": "Feature", "properties": { "Location": "Sepahijala", "Camera trap no.": "P22", "Altitude": "37m", "Trap location": "SEPCT7", "PA name": "Sepahijala", "Range": "Sepahijala", "Beat": "Sepahijala", "Nearest village": "Betkuchi", "Date of deployment": "13-Feb-24" }, "geometry": { "type": "Point", "coordinates": [ 10166639.66588468849659, 2712039.070288246963173 ] } },
{ "type": "Feature", "properties": { "Location": "Sepahijala", "Camera trap no.": "P7", "Altitude": "37m", "Trap location": "SEPCT7", "PA name": "Sepahijala", "Range": "Sepahijala", "Beat": "Sepahijala", "Nearest village": "Betkuchi", "Date of deployment": "13-Feb-24" }, "geometry": { "type": "Point", "coordinates": [ 10166639.66588468849659, 2712039.070288246963173 ] } },
{ "type": "Feature", "properties": { "Location": "Sepahijala", "Camera trap no.": "P6", "Altitude": "23m", "Trap location": "SEPCT8", "PA name": "Sepahijala", "Range": "Sepahijala", "Beat": "Sepahijala", "Nearest village": null, "Date of deployment": "13-Feb-24" }, "geometry": { "type": "Point", "coordinates": [ 10164084.215654037892818, 2712206.182406957261264 ] } },
{ "type": "Feature", "properties": { "Location": "Sepahijala", "Camera trap no.": "P5", "Altitude": "23m", "Trap location": "SEPCT8", "PA name": "Sepahijala", "Range": "Sepahijala", "Beat": "Sepahijala", "Nearest village": null, "Date of deployment": "13-Feb-24" }, "geometry": { "type": "Point", "coordinates": [ 10164084.215654037892818, 2712206.182406957261264 ] } },
{ "type": "Feature", "properties": { "Location": "Trishna WLS", "Camera trap no.": "THT17", "Altitude": "60", "Trap location": "TRSHCT01", "PA name": "Trishna WLS", "Range": "Rangamura", "Beat": "Rajnagar", "Nearest village": "Kashari", "Date of deployment": "21-Feb-24" }, "geometry": { "type": "Point", "coordinates": [ 10171398.574116099625826, 2667246.245177831500769 ] } },
{ "type": "Feature", "properties": { "Location": "Trishna WLS", "Camera trap no.": "THT24", "Altitude": "60", "Trap location": "TRSHCT01", "PA name": "Trishna WLS", "Range": "Rangamura", "Beat": "Rajnagar", "Nearest village": "Kashari", "Date of deployment": "21-Feb-24" }, "geometry": { "type": "Point", "coordinates": [ 10171398.574116099625826, 2667246.245177831500769 ] } },
{ "type": "Feature", "properties": { "Location": "Trishna WLS", "Camera trap no.": "THT28", "Altitude": "44", "Trap location": "TRSHCT02", "PA name": "Trishna WLS", "Range": "Rangamura", "Beat": "Rajnagar", "Nearest village": "Durgapur", "Date of deployment": "21-Feb-24" }, "geometry": { "type": "Point", "coordinates": [ 10171686.446319291368127, 2664653.588119719177485 ] } },
{ "type": "Feature", "properties": { "Location": "Trishna WLS", "Camera trap no.": "THT23", "Altitude": "44", "Trap location": "TRSHCT02", "PA name": "Trishna WLS", "Range": "Rangamura", "Beat": "Rajnagar", "Nearest village": "Durgapur", "Date of deployment": "21-Feb-24" }, "geometry": { "type": "Point", "coordinates": [ 10171686.446319291368127, 2664653.588119719177485 ] } },
{ "type": "Feature", "properties": { "Location": "Trishna WLS", "Camera trap no.": "THT26", "Altitude": "52", "Trap location": "TRSHCT03", "PA name": "Trishna WLS", "Range": "Rangamura", "Beat": "Rajnagar", "Nearest village": "Prakashnagar", "Date of deployment": "22-Feb-24" }, "geometry": { "type": "Point", "coordinates": [ 10170868.248061960563064, 2661783.294426783453673 ] } },
{ "type": "Feature", "properties": { "Location": "Trishna WLS", "Camera trap no.": "THT15", "Altitude": "52", "Trap location": "TRSHCT03", "PA name": "Trishna WLS", "Range": "Rangamura", "Beat": "Rajnagar", "Nearest village": "Prakashnagar", "Date of deployment": "22-Feb-24" }, "geometry": { "type": "Point", "coordinates": [ 10170868.248061960563064, 2661783.294426783453673 ] } },
{ "type": "Feature", "properties": { "Location": "Trishna WLS", "Camera trap no.": "P22", "Altitude": "61", "Trap location": "TRSHCT04", "PA name": "Trishna WLS", "Range": "Rangamura", "Beat": "Nidaya", "Nearest village": "Kurulla", "Date of deployment": "25-Feb-24" }, "geometry": { "type": "Point", "coordinates": [ 10170640.377064308151603, 2670073.145226804539561 ] } },
{ "type": "Feature", "properties": { "Location": "Trishna WLS", "Camera trap no.": "P8", "Altitude": "61", "Trap location": "TRSHCT04", "PA name": "Trishna WLS", "Range": "Rangamura", "Beat": "Nidaya", "Nearest village": "Kurulla", "Date of deployment": "25-Feb-24" }, "geometry": { "type": "Point", "coordinates": [ 10170640.377064308151603, 2670073.145226804539561 ] } },
{ "type": "Feature", "properties": { "Location": "Trishna WLS", "Camera trap no.": "P18", "Altitude": "51", "Trap location": "TRSHCT05", "PA name": "Trishna WLS", "Range": "Rangamura", "Beat": "Nidaya", "Nearest village": "Mundabasti", "Date of deployment": "21-Feb-24" }, "geometry": { "type": "Point", "coordinates": [ 10169279.718928340822458, 2669850.834480681922287 ] } },
{ "type": "Feature", "properties": { "Location": "Trishna WLS", "Camera trap no.": "P20", "Altitude": "51", "Trap location": "TRSHCT05", "PA name": "Trishna WLS", "Range": "Rangamura", "Beat": "Nidaya", "Nearest village": "Mundabasti", "Date of deployment": "21-Feb-24" }, "geometry": { "type": "Point", "coordinates": [ 10169279.718928340822458, 2669850.834480681922287 ] } },
{ "type": "Feature", "properties": { "Location": "Trishna WLS", "Camera trap no.": "THT18", "Altitude": "38", "Trap location": "TRSHCT06", "PA name": "Trishna WLS", "Range": null, "Beat": null, "Nearest village": "Sabmara", "Date of deployment": "21-Feb-24" }, "geometry": { "type": "Point", "coordinates": [ 10169679.244580799713731, 2665870.730204062070698 ] } },
{ "type": "Feature", "properties": { "Location": "Trishna WLS", "Camera trap no.": "THT29", "Altitude": "38", "Trap location": "TRSHCT06", "PA name": "Trishna WLS", "Range": null, "Beat": null, "Nearest village": "Sabmara", "Date of deployment": "21-Feb-24" }, "geometry": { "type": "Point", "coordinates": [ 10169679.244580799713731, 2665870.730204062070698 ] } },
{ "type": "Feature", "properties": { "Location": "Trishna WLS", "Camera trap no.": "THT22", "Altitude": "59", "Trap location": "TRSHCT07", "PA name": "Trishna WLS", "Range": null, "Beat": null, "Nearest village": "Manortila", "Date of deployment": "22-Feb-24" }, "geometry": { "type": "Point", "coordinates": [ 10169729.338351655751467, 2667807.876816720701754 ] } },
{ "type": "Feature", "properties": { "Location": "Trishna WLS", "Camera trap no.": "THT27", "Altitude": "59", "Trap location": "TRSHCT07", "PA name": "Trishna WLS", "Range": null, "Beat": null, "Nearest village": "Manortila", "Date of deployment": "22-Feb-24" }, "geometry": { "type": "Point", "coordinates": [ 10169729.338351655751467, 2667807.876816720701754 ] } },
{ "type": "Feature", "properties": { "Location": "Trishna WLS", "Camera trap no.": "THT25", "Altitude": "48", "Trap location": "TRSHCT08", "PA name": "Trishna WLS", "Range": null, "Beat": null, "Nearest village": "Manortila", "Date of deployment": "22-Feb-24" }, "geometry": { "type": "Point", "coordinates": [ 10170764.609616031870246, 2667632.137580979149789 ] } },
{ "type": "Feature", "properties": { "Location": "Trishna WLS", "Camera trap no.": "THT14", "Altitude": "48", "Trap location": "TRSHCT08", "PA name": "Trishna WLS", "Range": null, "Beat": null, "Nearest village": "Manortila", "Date of deployment": "22-Feb-24" }, "geometry": { "type": "Point", "coordinates": [ 10170764.609616031870246, 2667632.137580979149789 ] } },
{ "type": "Feature", "properties": { "Location": "Trishna WLS", "Camera trap no.": "THT13", "Altitude": "58", "Trap location": "TRSHCT09", "PA name": "Trishna WLS", "Range": null, "Beat": null, "Nearest village": "Manortila", "Date of deployment": "22-Feb-24" }, "geometry": { "type": "Point", "coordinates": [ 10170727.540225598961115, 2668757.265406555496156 ] } },
{ "type": "Feature", "properties": { "Location": "Trishna WLS", "Camera trap no.": "THT11", "Altitude": "58", "Trap location": "TRSHCT09", "PA name": "Trishna WLS", "Range": null, "Beat": null, "Nearest village": "Manortila", "Date of deployment": "22-Feb-24" }, "geometry": { "type": "Point", "coordinates": [ 10170727.540225598961115, 2668757.265406555496156 ] } },
{ "type": "Feature", "properties": { "Location": "Trishna WLS", "Camera trap no.": "THT10", "Altitude": "22", "Trap location": "TRSHCT10", "PA name": "Trishna WLS", "Range": "Rangamura", "Beat": "Joychandpur", "Nearest village": null, "Date of deployment": "24-Feb-24" }, "geometry": { "type": "Point", "coordinates": [ 10174496.37290589697659, 2666046.450253472663462 ] } },
{ "type": "Feature", "properties": { "Location": "Trishna WLS", "Camera trap no.": "THT39", "Altitude": "22", "Trap location": "TRSHCT10", "PA name": "Trishna WLS", "Range": "Rangamura", "Beat": "Joychandpur", "Nearest village": null, "Date of deployment": "24-Feb-24" }, "geometry": { "type": "Point", "coordinates": [ 10174496.37290589697659, 2666046.450253472663462 ] } },
{ "type": "Feature", "properties": { "Location": "Trishna WLS", "Camera trap no.": null, "Altitude": null, "Trap location": "TRSHCT11", "PA name": "Trishna WLS", "Range": "Rajnagar", "Beat": "Loharjum", "Nearest village": null, "Date of deployment": "21-Feb-24" }, "geometry": { "type": "Point", "coordinates": [ 10170561.674184316769242, 2660124.647624329198152 ] } },
{ "type": "Feature", "properties": { "Location": "Trishna WLS", "Camera trap no.": null, "Altitude": null, "Trap location": "TRSHCT11", "PA name": "Trishna WLS", "Range": "Rajnagar", "Beat": "Loharjum", "Nearest village": null, "Date of deployment": "21-Feb-24" }, "geometry": { "type": "Point", "coordinates": [ 10170561.674184316769242, 2660124.647624329198152 ] } },
{ "type": "Feature", "properties": { "Location": "Trishna WLS", "Camera trap no.": "THT32/P3", "Altitude": null, "Trap location": "TRSHCT12", "PA name": "Trishna WLS", "Range": "Rajnagar", "Beat": "Loharjum", "Nearest village": null, "Date of deployment": "21-Feb-24" }, "geometry": { "type": "Point", "coordinates": [ 10170148.678873473778367, 2660765.625200750306249 ] } },
{ "type": "Feature", "properties": { "Location": "Trishna WLS", "Camera trap no.": "THT12/P7", "Altitude": null, "Trap location": "TRSHCT12", "PA name": "Trishna WLS", "Range": "Rajnagar", "Beat": "Loharjum", "Nearest village": null, "Date of deployment": "21-Feb-24" }, "geometry": { "type": "Point", "coordinates": [ 10170148.678873473778367, 2660765.625200750306249 ] } },
{ "type": "Feature", "properties": { "Location": "Trishna WLS", "Camera trap no.": "THT21", "Altitude": null, "Trap location": "TRSHCT13", "PA name": "Trishna WLS", "Range": "Rangamura", "Beat": null, "Nearest village": null, "Date of deployment": "21-Feb-24" }, "geometry": { "type": "Point", "coordinates": [ 10169808.486509608104825, 2662179.112373902928084 ] } },
{ "type": "Feature", "properties": { "Location": "Trishna WLS", "Camera trap no.": "P17", "Altitude": null, "Trap location": "TRSHCT13", "PA name": "Trishna WLS", "Range": "Rangamura", "Beat": null, "Nearest village": null, "Date of deployment": "21-Feb-24" }, "geometry": { "type": "Point", "coordinates": [ 10169808.486509608104825, 2662179.112373902928084 ] } },
{ "type": "Feature", "properties": { "Location": "Trishna WLS", "Camera trap no.": "THT38", "Altitude": null, "Trap location": "TRSHCT14", "PA name": "Trishna WLS", "Range": "Rangamura", "Beat": "Steel Tower", "Nearest village": null, "Date of deployment": "21-Feb-24" }, "geometry": { "type": "Point", "coordinates": [ 10169746.704192219302058, 2664770.76616593496874 ] } },
{ "type": "Feature", "properties": { "Location": "Trishna WLS", "Camera trap no.": "THT40", "Altitude": null, "Trap location": "TRSHCT14", "PA name": "Trishna WLS", "Range": "Rangamura", "Beat": "Steel Tower", "Nearest village": null, "Date of deployment": "21-Feb-24" }, "geometry": { "type": "Point", "coordinates": [ 10169746.704192219302058, 2664770.76616593496874 ] } },
{ "type": "Feature", "properties": { "Location": null, "Camera trap no.": "P15", "Altitude": null, "Trap location": "TRSHCT16", "PA name": null, "Range": null, "Beat": "Mandaria", "Nearest village": null, "Date of deployment": "22-Feb-24" }, "geometry": null },
{ "type": "Feature", "properties": { "Location": null, "Camera trap no.": "P9", "Altitude": null, "Trap location": "TRSHCT16", "PA name": null, "Range": null, "Beat": "Mandaria", "Nearest village": null, "Date of deployment": "22-Feb-24" }, "geometry": null },
{ "type": "Feature", "properties": { "Location": "Gumti", "Camera trap no.": "P21", "Altitude": "120", "Trap location": "GUM_GAN_CT1", "PA name": "Gumti", "Range": "Gandachhera", "Beat": "Gandachhera", "Nearest village": "Laxmipur", "Date of deployment": "10-Mar-24" }, "geometry": { "type": "Point", "coordinates": [ 10217954.166277701035142, 2707205.124999010004103 ] } },
{ "type": "Feature", "properties": { "Location": "Gumti", "Camera trap no.": "P7", "Altitude": "153", "Trap location": "GUM_JBP_CT1", "PA name": "Gumti", "Range": "Gandachhera", "Beat": "Jagabandhu para", "Nearest village": "Dalirai para", "Date of deployment": "10-Mar-24" }, "geometry": { "type": "Point", "coordinates": [ 10216757.481751672923565, 2713713.309272955171764 ] } },
{ "type": "Feature", "properties": { "Location": "Gumti", "Camera trap no.": "THT19", "Altitude": "153", "Trap location": "GUM_JBP_CT1", "PA name": "Gumti", "Range": "Gandachhera", "Beat": "Jagabandhu para", "Nearest village": "Dalirai para", "Date of deployment": "10-Mar-24" }, "geometry": { "type": "Point", "coordinates": [ 10216757.481751672923565, 2713713.309272955171764 ] } },
{ "type": "Feature", "properties": { "Location": "Gumti", "Camera trap no.": "P18", "Altitude": "147", "Trap location": "GUM_BAR_CT1", "PA name": "Gumti", "Range": "Gandachhera", "Beat": "Barabari", "Nearest village": "Shikaripara", "Date of deployment": "10-Mar-24" }, "geometry": { "type": "Point", "coordinates": [ 10223113.824675969779491, 2714963.968502512667328 ] } },
{ "type": "Feature", "properties": { "Location": "Gumti", "Camera trap no.": "THT39", "Altitude": "147", "Trap location": "GUM_BAR_CT1", "PA name": "Gumti", "Range": "Gandachhera", "Beat": "Barabari", "Nearest village": "Shikaripara", "Date of deployment": "10-Mar-24" }, "geometry": { "type": "Point", "coordinates": [ 10223141.097951212897897, 2714944.762377507518977 ] } },
{ "type": "Feature", "properties": { "Location": "Gumti", "Camera trap no.": "P10", "Altitude": "130", "Trap location": "GUM_KAL_CT1", "PA name": "Gumti", "Range": "Gandachhera", "Beat": "Kalajhari", "Nearest village": "Ajidapara", "Date of deployment": "11-Mar-24" }, "geometry": { "type": "Point", "coordinates": [ 10216593.619461223483086, 2694925.019901154562831 ] } },
{ "type": "Feature", "properties": { "Location": "Gumti", "Camera trap no.": "THT26", "Altitude": "130", "Trap location": "GUM_KAL_CT1", "PA name": "Gumti", "Range": "Gandachhera", "Beat": "Kalajhari", "Nearest village": "Ajidapara", "Date of deployment": "11-Mar-24" }, "geometry": { "type": "Point", "coordinates": [ 10216593.619461223483086, 2694925.019901154562831 ] } },
{ "type": "Feature", "properties": { "Location": "Gumti", "Camera trap no.": "P16", "Altitude": "133", "Trap location": "GUM_KAL_CT2", "PA name": "Gumti", "Range": "Gandachhera", "Beat": "Kalajhari", "Nearest village": "Montila", "Date of deployment": "11-Mar-24" }, "geometry": { "type": "Point", "coordinates": [ 10214373.463536843657494, 2698938.566758152563125 ] } },
{ "type": "Feature", "properties": { "Location": "Gumti", "Camera trap no.": "P9", "Altitude": "107", "Trap location": "GUM_DAL_CT1", "PA name": "Gumti", "Range": "Gandachhera", "Beat": "Dhalajari", "Nearest village": "Montopara", "Date of deployment": "11-Mar-24" }, "geometry": { "type": "Point", "coordinates": [ 10217177.49019043520093, 2702621.524077015928924 ] } },
{ "type": "Feature", "properties": { "Location": "Gumti", "Camera trap no.": "THT24", "Altitude": "107", "Trap location": "GUM_DAL_CT1", "PA name": "Gumti", "Range": "Gandachhera", "Beat": "Dhalajari", "Nearest village": "Montopara", "Date of deployment": "11-Mar-24" }, "geometry": { "type": "Point", "coordinates": [ 10217177.49019043520093, 2702621.524077015928924 ] } },
{ "type": "Feature", "properties": { "Location": "Gumti", "Camera trap no.": "THT13", "Altitude": "142", "Trap location": "GUM_KAL_CT3", "PA name": "Gumti", "Range": "Gandachhera", "Beat": "Kalajhari", "Nearest village": "Saduchandra Reangpara", "Date of deployment": "11-Mar-24" }, "geometry": { "type": "Point", "coordinates": [ 10215175.520468007773161, 2696936.341945530846715 ] } },
{ "type": "Feature", "properties": { "Location": "Gumti", "Camera trap no.": "P20", "Altitude": "142", "Trap location": "GUM_KAL_CT3", "PA name": "Gumti", "Range": "Gandachhera", "Beat": "Kalajhari", "Nearest village": "Ajidapara", "Date of deployment": "11-Mar-24" }, "geometry": { "type": "Point", "coordinates": [ 10215175.520468007773161, 2696936.341945530846715 ] } },
{ "type": "Feature", "properties": { "Location": "Gumti", "Camera trap no.": "P14", "Altitude": "133", "Trap location": "GUM_KAR_CT1", "PA name": "Gumti", "Range": "Ganganagar", "Beat": "karmapara", "Nearest village": "Paltanpara", "Date of deployment": "12-Mar-24" }, "geometry": { "type": "Point", "coordinates": [ 10217042.348328612744808, 2725151.840811895672232 ] } },
{ "type": "Feature", "properties": { "Location": "Gumti", "Camera trap no.": "THT12", "Altitude": "133", "Trap location": "GUM_KAR_CT1", "PA name": "Gumti", "Range": "Ganganagar", "Beat": "karmapara", "Nearest village": "Paltanpara", "Date of deployment": "12-Mar-24" }, "geometry": { "type": "Point", "coordinates": [ 10217042.348328612744808, 2725151.840811895672232 ] } },
{ "type": "Feature", "properties": { "Location": "Gumti", "Camera trap no.": "P6", "Altitude": "115", "Trap location": "GUM_GANG_CT1", "PA name": "Gumti", "Range": "Ganganagar", "Beat": "Ganganagar", "Nearest village": "Gumseng", "Date of deployment": "12-Mar-24" }, "geometry": { "type": "Point", "coordinates": [ 10222160.818515287712216, 2725009.162454016041011 ] } },
{ "type": "Feature", "properties": { "Location": "Gumti", "Camera trap no.": "THT27", "Altitude": "138", "Trap location": "GUM_GANG_CT1", "PA name": "Gumti", "Range": "Ganganagar", "Beat": "Ganganagar", "Nearest village": "Gumseng", "Date of deployment": "12-Mar-24" }, "geometry": { "type": "Point", "coordinates": [ 10222287.054817847907543, 2724810.533940748777241 ] } },
{ "type": "Feature", "properties": { "Location": "Gumti", "Camera trap no.": "P15", "Altitude": null, "Trap location": "GUM_GANG_CT2", "PA name": "Gumti", "Range": "Ganganagar", "Beat": "Ganganagar", "Nearest village": "Radharambari", "Date of deployment": "12-Mar-24" }, "geometry": { "type": "Point", "coordinates": [ 10220799.047184413298965, 2722264.587668739259243 ] } },
{ "type": "Feature", "properties": { "Location": "Gumti", "Camera trap no.": "P19", "Altitude": "116", "Trap location": "GUM_RAD_CT1", "PA name": "Gumti", "Range": "Gananagar", "Beat": "Radharambari", "Nearest village": "Sardinkhapara", "Date of deployment": "13-Mar-24" }, "geometry": { "type": "Point", "coordinates": [ 10218210.869023468345404, 2717522.359125035814941 ] } },
{ "type": "Feature", "properties": { "Location": "Gumti", "Camera trap no.": "THT18", "Altitude": "118", "Trap location": "GUM_RAD_CT2", "PA name": "Gumti", "Range": "Gananagar", "Beat": "Radharambari", "Nearest village": "Karmapara", "Date of deployment": "13-Mar-24" }, "geometry": { "type": "Point", "coordinates": [ 10219116.898359034210443, 2721558.513695133384317 ] } },
{ "type": "Feature", "properties": { "Location": "Gumti", "Camera trap no.": "P8", "Altitude": "130", "Trap location": "GUM_GAN_CT3", "PA name": "Gumti", "Range": "Ganganagar", "Beat": "Ganganagar", "Nearest village": "Panchajoy Para", "Date of deployment": "13-Mar-24" }, "geometry": { "type": "Point", "coordinates": [ 10224633.335725296288729, 2722703.741179789882153 ] } },
{ "type": "Feature", "properties": { "Location": "Gumti", "Camera trap no.": "THT10", "Altitude": "130", "Trap location": "GUM_GAN_CT3", "PA name": "Gumti", "Range": "Ganganagar", "Beat": "Ganganagar", "Nearest village": "Panchajoy Para", "Date of deployment": "13-Mar-24" }, "geometry": { "type": "Point", "coordinates": [ 10224633.335725296288729, 2722636.122177871409804 ] } },
{ "type": "Feature", "properties": { "Location": "Gumti", "Camera trap no.": "THT17", "Altitude": "145", "Trap location": "GUM_EKC_CT1", "PA name": "Gumti", "Range": "Ampi", "Beat": "Ekjancharra", "Nearest village": "Debendrapara", "Date of deployment": "13-Mar-24" }, "geometry": { "type": "Point", "coordinates": [ 10211858.199642369523644, 2710239.475251126568764 ] } },
{ "type": "Feature", "properties": { "Location": "Gumti", "Camera trap no.": "P13", "Altitude": "145", "Trap location": "GUM_EKC_CT1", "PA name": "Gumti", "Range": "Ampi", "Beat": "Ekjancharra", "Nearest village": "Debendrapara", "Date of deployment": "13-Mar-24" }, "geometry": { "type": "Point", "coordinates": [ 10211858.199642369523644, 2710239.475251126568764 ] } },
{ "type": "Feature", "properties": { "Location": "Gumti", "Camera trap no.": "THT22", "Altitude": "119", "Trap location": "GUM_DAN_CT1", "PA name": "Gumti", "Range": "Ganganagar", "Beat": "Dangabari", "Nearest village": "Nobokumarpara", "Date of deployment": "14-Mar-24" }, "geometry": { "type": "Point", "coordinates": [ 10230532.044222941622138, 2716381.517604969441891 ] } },
{ "type": "Feature", "properties": { "Location": "Gumti", "Camera trap no.": "P17", "Altitude": "119", "Trap location": "GUM_DAN_CT1", "PA name": "Gumti", "Range": "Ganganagar", "Beat": "Dangabari", "Nearest village": "Nobokumarpara", "Date of deployment": "14-Mar-24" }, "geometry": { "type": "Point", "coordinates": [ 10230532.044222941622138, 2716381.517604969441891 ] } },
{ "type": "Feature", "properties": { "Location": "Gumti", "Camera trap no.": "THT35", "Altitude": "106", "Trap location": "GUM_DYK_CT1", "PA name": "Gumti", "Range": "Raishyabri", "Beat": "Dyke 4", "Nearest village": "Tarmo Adam", "Date of deployment": "14-Mar-24" }, "geometry": { "type": "Point", "coordinates": [ 10219188.031513653695583, 2692453.283484378829598 ] } },
{ "type": "Feature", "properties": { "Location": "Gumti", "Camera trap no.": "THT15", "Altitude": "106", "Trap location": "GUM_DYK_CT1", "PA name": "Gumti", "Range": "Raishyabri", "Beat": "Dyke 4", "Nearest village": "Tarmo Adam", "Date of deployment": "14-Mar-24" }, "geometry": { "type": "Point", "coordinates": [ 10219188.031513653695583, 2692453.283484378829598 ] } },
{ "type": "Feature", "properties": { "Location": "Gumti", "Camera trap no.": "P2", "Altitude": null, "Trap location": "GUM_DAN_CT1", "PA name": "Gumti", "Range": "Ganganagar", "Beat": "Dangabari", "Nearest village": "Dangabari", "Date of deployment": "14-Mar-24" }, "geometry": { "type": "Point", "coordinates": [ 10225097.204043431207538, 2717535.854224699083716 ] } },
{ "type": "Feature", "properties": { "Location": "Gumti", "Camera trap no.": "THT02", "Altitude": "184", "Trap location": "GUM_KAK_CT1", "PA name": "Gumti", "Range": "Mungiakami", "Beat": "Kakrachera", "Nearest village": "Bukho para", "Date of deployment": "19-Mar-24" }, "geometry": { "type": "Point", "coordinates": [ 10215362.982490504160523, 2718673.98227549996227 ] } },
{ "type": "Feature", "properties": { "Location": "Gumti", "Camera trap no.": "THT04", "Altitude": "184", "Trap location": "GUM_KAK_CT1", "PA name": "Gumti", "Range": "Mungiakami", "Beat": "Kakrachera", "Nearest village": "Bukho para", "Date of deployment": "19-Mar-24" }, "geometry": { "type": "Point", "coordinates": [ 10215362.982490504160523, 2718673.98227549996227 ] } },
{ "type": "Feature", "properties": { "Location": "Gumti", "Camera trap no.": "THT07", "Altitude": null, "Trap location": "GUM_KAK_CT2", "PA name": "Gumti", "Range": "Mungiakami", "Beat": "Kakrachera", "Nearest village": "Nunachora", "Date of deployment": "19-Mar-24" }, "geometry": { "type": "Point", "coordinates": [ 10216565.789588525891304, 2729434.615118189714849 ] } },
{ "type": "Feature", "properties": { "Location": "Gumti", "Camera trap no.": "THT08", "Altitude": null, "Trap location": "GUM_KAK_CT2", "PA name": "Gumti", "Range": "Mungiakami", "Beat": "Kakrachera", "Nearest village": "Nunachora", "Date of deployment": "19-Mar-24" }, "geometry": { "type": "Point", "coordinates": [ 10216565.789588525891304, 2729434.615118189714849 ] } },
{ "type": "Feature", "properties": { "Location": "Gumti", "Camera trap no.": "THT 11", "Altitude": null, "Trap location": "GUM_KAK_CT3", "PA name": "Gumti", "Range": "Mungiakami", "Beat": "Kakrachera", "Nearest village": "Hakudia", "Date of deployment": "19-Mar-24" }, "geometry": { "type": "Point", "coordinates": [ 10211460.566421255469322, 2729799.626101085916162 ] } },
{ "type": "Feature", "properties": { "Location": "Gumti", "Camera trap no.": "THT32", "Altitude": null, "Trap location": "GUM_KAK_CT3", "PA name": "Gumti", "Range": "Mungiakami", "Beat": "Kakrachera", "Nearest village": "Haludia", "Date of deployment": "19-Mar-24" }, "geometry": { "type": "Point", "coordinates": [ 10211460.566421255469322, 2729799.626101085916162 ] } },
{ "type": "Feature", "properties": { "Location": "Gumti", "Camera trap no.": "THT40", "Altitude": "139", "Trap location": "GUM_KAK_CT4", "PA name": "Gumti", "Range": "Mungiakami", "Beat": "Kakrachera", "Nearest village": "Tikolpara", "Date of deployment": "19-Mar-24" }, "geometry": { "type": "Point", "coordinates": [ 10212613.391067910939455, 2727002.153845976106822 ] } },
{ "type": "Feature", "properties": { "Location": "Gumti", "Camera trap no.": "THT38", "Altitude": "139", "Trap location": "GUM_KAK_CT4", "PA name": "Gumti", "Range": "Mungiakami", "Beat": "Kakrachera", "Nearest village": "Tikolpara", "Date of deployment": "19-Mar-24" }, "geometry": { "type": "Point", "coordinates": [ 10212613.391067910939455, 2727002.153845976106822 ] } },
{ "type": "Feature", "properties": { "Location": "Gumti", "Camera trap no.": "THT14", "Altitude": "153", "Trap location": "GUM_KAK_CT5", "PA name": "Gumti", "Range": "Mungiakami", "Beat": "Kakrachera", "Nearest village": "Kakrachera", "Date of deployment": "19-Mar-24" }, "geometry": { "type": "Point", "coordinates": [ 10211895.380352294072509, 2728883.707839163485914 ] } },
{ "type": "Feature", "properties": { "Location": "Gumti", "Camera trap no.": "THT01", "Altitude": "184", "Trap location": "GUM_KAK_CT6", "PA name": "Gumti", "Range": "Mungiakami", "Beat": "Kakrachera", "Nearest village": "Datamosampara", "Date of deployment": "19-Mar-24" }, "geometry": { "type": "Point", "coordinates": [ 10211045.901318050920963, 2724880.1083720815368 ] } },
{ "type": "Feature", "properties": { "Location": "Gumti", "Camera trap no.": "THT09", "Altitude": "203", "Trap location": "GUM_KAK_CT5", "PA name": "Gumti", "Range": "Mungiakami", "Beat": "Kakrachera", "Nearest village": "Datamosampara", "Date of deployment": "19-Mar-24" }, "geometry": { "type": "Point", "coordinates": [ 10211405.574592802673578, 2724674.061906079296023 ] } },
{ "type": "Feature", "properties": { "Location": "Gumti", "Camera trap no.": "THT05", "Altitude": "138", "Trap location": "GUM_SAR_CT1", "PA name": "Gumti", "Range": "Amarpur", "Beat": "Sarbong", "Nearest village": "Chandrakumar para", "Date of deployment": "22-Mar-24" }, "geometry": { "type": "Point", "coordinates": [ 10214002.324354538694024, 2705470.463668102864176 ] } },
{ "type": "Feature", "properties": { "Location": "Gumti", "Camera trap no.": "THT21", "Altitude": "122", "Trap location": "GUM_NUT_CT1", "PA name": "Gumti", "Range": "Amarpur", "Beat": "Nutanbazzar", "Nearest village": "Tularampara", "Date of deployment": "23-Mar-24" }, "geometry": { "type": "Point", "coordinates": [ 10216354.950472962111235, 2691367.88447033520788 ] } }
]
}
